Date/Time,Year,Month,Day,Time,Temp (C),Dew Point Temp (C),Rel Hum (%),Wind Dir (10s deg),Wind Spd (km/h),Visibility (km),Stn Press (kPa),Hmdx,Wind Chill,Weather,filename
2016-06-05 07:00,2016,6,5,07:00,18.9,15.6,81.0,30.0,22.0,48.3,101.31,,,Mainly Clear,katkam-20160605070000.jpg
2016-06-05 10:00,2016,6,5,10:00,21.2,15.8,71.0,30.0,27.0,48.3,101.28,26.0,,Mostly Cloudy,katkam-20160605100000.jpg
2016-06-05 13:00,2016,6,5,13:00,24.0,15.9,60.0,29.0,22.0,40.2,101.2,29.0,,Mostly Cloudy,katkam-20160605130000.jpg
2016-06-05 16:00,2016,6,5,16:00,23.7,15.6,60.0,29.0,12.0,48.3,101.04,28.0,,Mostly Cloudy,katkam-20160605160000.jpg
2016-06-05 19:00,2016,6,5,19:00,22.0,15.7,67.0,20.0,7.0,48.3,100.96,26.0,,Mostly Cloudy,katkam-20160605190000.jpg
2016-06-06 07:00,2016,6,6,07:00,19.4,15.7,79.0,30.0,13.0,48.3,101.27,,,Mostly Cloudy,katkam-20160606070000.jpg
2016-06-06 10:00,2016,6,6,10:00,20.7,14.9,69.0,29.0,25.0,48.3,101.28,25.0,,Mostly Cloudy,katkam-20160606100000.jpg
2016-06-06 13:00,2016,6,6,13:00,22.0,15.2,65.0,26.0,12.0,48.3,101.2,26.0,,Mostly Cloudy,katkam-20160606130000.jpg
2016-06-06 16:00,2016,6,6,16:00,23.9,12.7,49.0,23.0,8.0,48.3,101.03,27.0,,Mainly Clear,katkam-20160606160000.jpg
2016-06-06 19:00,2016,6,6,19:00,19.8,14.5,71.0,25.0,12.0,48.3,100.92,,,Mostly Cloudy,katkam-20160606190000.jpg
2016-06-07 07:00,2016,6,7,07:00,17.1,13.1,77.0,11.0,6.0,48.3,100.98,,,Mainly Clear,katkam-20160607070000.jpg
2016-06-07 10:00,2016,6,7,10:00,19.0,13.9,72.0,24.0,10.0,40.2,100.96,,,Mainly Clear,katkam-20160607100000.jpg
2016-06-07 13:00,2016,6,7,13:00,20.1,14.8,71.0,24.0,11.0,48.3,100.9,,,Mostly Cloudy,katkam-20160607130000.jpg
2016-06-07 16:00,2016,6,7,16:00,21.7,16.1,70.0,23.0,15.0,48.3,100.78,26.0,,Cloudy,katkam-20160607160000.jpg
2016-06-07 19:00,2016,6,7,19:00,20.5,13.3,63.0,16.0,4.0,48.3,100.67,,,Cloudy,katkam-20160607190000.jpg
2016-06-08 07:00,2016,6,8,07:00,15.0,9.8,71.0,13.0,15.0,48.3,100.75,,,Cloudy,katkam-20160608070000.jpg
2016-06-08 10:00,2016,6,8,10:00,16.1,9.8,66.0,12.0,17.0,48.3,100.82,,,Cloudy,katkam-20160608100000.jpg
2016-06-08 12:00,2016,6,8,12:00,17.0,11.8,71.0,10.0,16.0,24.1,100.91,,,Rain Showers,katkam-20160608120000.jpg
2016-06-08 13:00,2016,6,8,13:00,16.0,11.0,72.0,10.0,18.0,32.2,101.0,,,Cloudy,katkam-20160608130000.jpg
2016-06-08 16:00,2016,6,8,16:00,18.0,10.7,62.0,13.0,27.0,48.3,101.11,,,Mostly Cloudy,katkam-20160608160000.jpg
2016-06-08 19:00,2016,6,8,19:00,15.9,9.4,65.0,12.0,22.0,48.3,101.12,,,Mainly Clear,katkam-20160608190000.jpg
2016-06-09 07:00,2016,6,9,07:00,13.4,8.5,72.0,10.0,19.0,48.3,101.33,,,Mostly Cloudy,katkam-20160609070000.jpg
2016-06-09 10:00,2016,6,9,10:00,15.8,7.4,57.0,14.0,18.0,48.3,101.34,,,Mostly Cloudy,katkam-20160609100000.jpg
2016-06-09 13:00,2016,6,9,13:00,18.2,5.9,44.0,16.0,20.0,48.3,101.27,,,Mostly Cloudy,katkam-20160609130000.jpg
2016-06-09 16:00,2016,6,9,16:00,18.1,6.7,47.0,12.0,21.0,48.3,101.17,,,Mostly Cloudy,katkam-20160609160000.jpg
2016-06-09 19:00,2016,6,9,19:00,16.0,7.3,56.0,15.0,14.0,32.2,101.05,,,Mostly Cloudy,katkam-20160609190000.jpg
2016-06-10 07:00,2016,6,10,07:00,12.8,7.7,71.0,16.0,12.0,24.1,101.32,,,Mostly Cloudy,katkam-20160610070000.jpg
2016-06-10 10:00,2016,6,10,10:00,13.3,7.6,68.0,12.0,23.0,32.2,101.47,,,Mostly Cloudy,katkam-20160610100000.jpg
2016-06-10 13:00,2016,6,10,13:00,16.8,6.4,50.0,18.0,7.0,32.2,101.48,,,Mainly Clear,katkam-20160610130000.jpg
2016-06-10 16:00,2016,6,10,16:00,15.9,7.5,57.0,21.0,15.0,32.2,101.52,,,Mostly Cloudy,katkam-20160610160000.jpg
2016-06-10 19:00,2016,6,10,19:00,14.4,7.5,63.0,27.0,9.0,48.3,101.6,,,Mainly Clear,katkam-20160610190000.jpg
2016-06-11 06:00,2016,6,11,06:00,11.3,10.1,92.0,8.0,14.0,12.9,101.92,,,Rain Showers,katkam-20160611060000.jpg
2016-06-11 07:00,2016,6,11,07:00,11.6,10.2,91.0,7.0,17.0,16.1,101.94,,,Rain Showers,katkam-20160611070000.jpg
2016-06-11 10:00,2016,6,11,10:00,13.4,9.7,78.0,23.0,5.0,19.3,102.09,,,Cloudy,katkam-20160611100000.jpg
2016-06-11 13:00,2016,6,11,13:00,15.7,7.8,59.0,36.0,3.0,32.2,102.2,,,Cloudy,katkam-20160611130000.jpg
2016-06-11 16:00,2016,6,11,16:00,16.3,10.2,67.0,10.0,13.0,32.2,102.27,,,Mostly Cloudy,katkam-20160611160000.jpg
2016-06-11 19:00,2016,6,11,19:00,15.5,9.2,66.0,9.0,21.0,32.2,102.28,,,Mainly Clear,katkam-20160611190000.jpg
2016-06-12 07:00,2016,6,12,07:00,12.8,7.7,71.0,9.0,17.0,32.2,102.42,,,Mostly Cloudy,katkam-20160612070000.jpg
2016-06-12 10:00,2016,6,12,10:00,15.1,8.4,64.0,14.0,15.0,32.2,102.46,,,Mostly Cloudy,katkam-20160612100000.jpg
2016-06-12 13:00,2016,6,12,13:00,17.3,10.5,64.0,22.0,22.0,48.3,102.38,,,Mainly Clear,katkam-20160612130000.jpg
2016-06-12 16:00,2016,6,12,16:00,18.1,11.3,64.0,20.0,12.0,48.3,102.27,,,Mostly Cloudy,katkam-20160612160000.jpg
2016-06-12 19:00,2016,6,12,19:00,16.9,8.7,58.0,13.0,5.0,48.3,102.12,,,Mostly Cloudy,katkam-20160612190000.jpg
2016-06-13 06:00,2016,6,13,06:00,12.5,10.8,89.0,9.0,18.0,24.1,101.47,,,Rain Showers,katkam-20160613060000.jpg
2016-06-13 07:00,2016,6,13,07:00,12.9,10.8,87.0,11.0,21.0,24.1,101.46,,,Cloudy,katkam-20160613070000.jpg
2016-06-13 08:00,2016,6,13,08:00,12.8,10.7,87.0,12.0,21.0,16.1,101.44,,,Rain Showers,katkam-20160613080000.jpg
2016-06-13 09:00,2016,6,13,09:00,13.8,11.5,86.0,11.0,18.0,16.1,101.38,,,Rain Showers,katkam-20160613090000.jpg
2016-06-13 10:00,2016,6,13,10:00,15.1,11.3,78.0,13.0,17.0,19.3,101.31,,,Mostly Cloudy,katkam-20160613100000.jpg
2016-06-13 13:00,2016,6,13,13:00,16.3,7.9,57.0,22.0,28.0,32.2,101.24,,,Mostly Cloudy,katkam-20160613130000.jpg
2016-06-13 16:00,2016,6,13,16:00,17.7,6.7,48.0,22.0,19.0,32.2,101.17,,,Mostly Cloudy,katkam-20160613160000.jpg
2016-06-13 19:00,2016,6,13,19:00,14.8,6.2,56.0,28.0,24.0,32.2,101.1,,,Mainly Clear,katkam-20160613190000.jpg
2016-06-14 07:00,2016,6,14,07:00,11.5,6.1,69.0,18.0,18.0,24.1,101.08,,,Cloudy,katkam-20160614070000.jpg
2016-06-14 10:00,2016,6,14,10:00,12.4,6.3,66.0,10.0,14.0,24.1,101.13,,,Cloudy,katkam-20160614100000.jpg
2016-06-14 13:00,2016,6,14,13:00,11.1,7.6,79.0,7.0,16.0,24.1,101.21,,,Moderate Rain Showers,katkam-20160614130000.jpg
2016-06-14 14:00,2016,6,14,14:00,12.1,9.7,85.0,7.0,15.0,24.1,101.23,,,Rain Showers,katkam-20160614140000.jpg
2016-06-14 16:00,2016,6,14,16:00,12.7,7.4,70.0,10.0,22.0,32.2,101.22,,,Cloudy,katkam-20160614160000.jpg
2016-06-14 19:00,2016,6,14,19:00,12.6,6.7,67.0,17.0,17.0,32.2,101.24,,,Mostly Cloudy,katkam-20160614190000.jpg
2016-06-15 07:00,2016,6,15,07:00,10.0,7.4,84.0,9.0,18.0,24.1,101.39,,,Rain Showers,katkam-20160615070000.jpg
2016-06-15 10:00,2016,6,15,10:00,12.3,8.0,75.0,12.0,12.0,24.1,101.39,,,Cloudy,katkam-20160615100000.jpg
2016-06-15 13:00,2016,6,15,13:00,14.1,8.6,69.0,28.0,10.0,32.2,101.36,,,Mostly Cloudy,katkam-20160615130000.jpg
2016-06-15 16:00,2016,6,15,16:00,14.8,6.7,58.0,25.0,14.0,48.3,101.3,,,Mainly Clear,katkam-20160615160000.jpg
2016-06-15 19:00,2016,6,15,19:00,13.7,7.1,64.0,28.0,13.0,48.3,101.28,,,Clear,katkam-20160615190000.jpg
2016-06-16 07:00,2016,6,16,07:00,12.4,8.5,77.0,10.0,14.0,48.3,101.6,,,Mostly Cloudy,katkam-20160616070000.jpg
2016-06-16 10:00,2016,6,16,10:00,14.9,9.3,69.0,13.0,11.0,48.3,101.72,,,Mostly Cloudy,katkam-20160616100000.jpg
2016-06-16 13:00,2016,6,16,13:00,16.0,9.3,64.0,22.0,18.0,48.3,101.81,,,Mostly Cloudy,katkam-20160616130000.jpg
2016-06-16 16:00,2016,6,16,16:00,16.4,8.7,60.0,24.0,10.0,48.3,101.84,,,Mostly Cloudy,katkam-20160616160000.jpg
2016-06-16 19:00,2016,6,16,19:00,15.7,8.3,61.0,19.0,7.0,48.3,101.93,,,Mostly Cloudy,katkam-20160616190000.jpg
2016-06-17 07:00,2016,6,17,07:00,14.5,7.6,63.0,27.0,4.0,48.3,102.18,,,Mainly Clear,katkam-20160617070000.jpg
2016-06-17 10:00,2016,6,17,10:00,16.3,8.8,61.0,27.0,15.0,48.3,102.13,,,Mainly Clear,katkam-20160617100000.jpg
2016-06-17 13:00,2016,6,17,13:00,18.8,10.7,59.0,29.0,21.0,48.3,101.94,,,Mainly Clear,katkam-20160617130000.jpg
2016-06-17 16:00,2016,6,17,16:00,19.7,10.5,55.0,30.0,26.0,48.3,101.73,,,Mainly Clear,katkam-20160617160000.jpg
2016-06-17 19:00,2016,6,17,19:00,17.9,12.0,68.0,26.0,16.0,48.3,101.73,,,Mostly Cloudy,katkam-20160617190000.jpg
2016-06-17 20:00,2016,6,17,20:00,17.1,12.5,74.0,26.0,26.0,32.2,101.64,,,Rain Showers,katkam-20160617200000.jpg
2016-06-18 06:00,2016,6,18,06:00,12.6,10.2,85.0,25.0,9.0,32.2,101.71,,,Rain,katkam-20160618060000.jpg
2016-06-18 07:00,2016,6,18,07:00,12.7,11.1,90.0,23.0,9.0,24.1,101.73,,,Rain,katkam-20160618070000.jpg
2016-06-18 08:00,2016,6,18,08:00,12.8,11.7,93.0,26.0,9.0,19.3,101.73,,,Rain,katkam-20160618080000.jpg
2016-06-18 09:00,2016,6,18,09:00,12.8,11.6,92.0,24.0,12.0,24.1,101.76,,,Rain,katkam-20160618090000.jpg
2016-06-18 10:00,2016,6,18,10:00,12.8,11.7,93.0,23.0,11.0,16.1,101.81,,,Rain,katkam-20160618100000.jpg
2016-06-18 11:00,2016,6,18,11:00,12.8,11.6,92.0,23.0,9.0,16.1,101.88,,,Rain,katkam-20160618110000.jpg
2016-06-18 12:00,2016,6,18,12:00,13.1,11.8,92.0,28.0,5.0,19.3,101.93,,,Rain,katkam-20160618120000.jpg
2016-06-18 13:00,2016,6,18,13:00,13.1,11.8,92.0,19.0,10.0,24.1,102.02,,,Rain,katkam-20160618130000.jpg
2016-06-18 14:00,2016,6,18,14:00,13.2,11.5,89.0,16.0,12.0,24.1,102.08,,,Rain,katkam-20160618140000.jpg
2016-06-18 15:00,2016,6,18,15:00,13.1,11.5,90.0,13.0,14.0,24.1,102.16,,,Rain,katkam-20160618150000.jpg
2016-06-18 16:00,2016,6,18,16:00,12.9,11.3,90.0,12.0,13.0,24.1,102.2,,,Rain,katkam-20160618160000.jpg
2016-06-18 17:00,2016,6,18,17:00,12.9,11.3,90.0,17.0,8.0,19.3,102.28,,,Rain,katkam-20160618170000.jpg
2016-06-18 19:00,2016,6,18,19:00,13.1,11.7,91.0,10.0,12.0,19.3,102.35,,,Cloudy,katkam-20160618190000.jpg
2016-06-18 21:00,2016,6,18,21:00,12.7,11.6,93.0,6.0,12.0,16.1,102.52,,,Rain Showers,katkam-20160618210000.jpg
2016-06-19 06:00,2016,6,19,06:00,11.9,10.5,91.0,9.0,16.0,24.1,102.86,,,Rain Showers,katkam-20160619060000.jpg
2016-06-19 07:00,2016,6,19,07:00,12.3,10.7,90.0,13.0,13.0,24.1,102.9,,,Cloudy,katkam-20160619070000.jpg
2016-06-19 10:00,2016,6,19,10:00,13.6,10.4,81.0,11.0,8.0,24.1,102.94,,,Cloudy,katkam-20160619100000.jpg
2016-06-19 13:00,2016,6,19,13:00,15.6,9.8,68.0,22.0,5.0,24.1,102.89,,,Cloudy,katkam-20160619130000.jpg
2016-06-19 16:00,2016,6,19,16:00,17.2,11.8,70.0,31.0,21.0,48.3,102.69,,,Mainly Clear,katkam-20160619160000.jpg
2016-06-19 19:00,2016,6,19,19:00,15.5,11.3,76.0,29.0,17.0,48.3,102.52,,,Mainly Clear,katkam-20160619190000.jpg
2016-06-20 07:00,2016,6,20,07:00,13.9,10.4,79.0,2.0,4.0,48.3,102.16,,,Mostly Cloudy,katkam-20160620070000.jpg
2016-06-20 10:00,2016,6,20,10:00,17.3,13.7,79.0,30.0,21.0,48.3,102.13,,,Mostly Cloudy,katkam-20160620100000.jpg
2016-06-20 13:00,2016,6,20,13:00,19.9,15.0,73.0,30.0,15.0,48.3,102.01,,,Mostly Cloudy,katkam-20160620130000.jpg
2016-06-20 16:00,2016,6,20,16:00,19.1,12.7,66.0,22.0,8.0,48.3,101.92,,,Mostly Cloudy,katkam-20160620160000.jpg
2016-06-20 19:00,2016,6,20,19:00,18.2,13.4,73.0,21.0,9.0,32.2,101.9,,,Mainly Clear,katkam-20160620190000.jpg
2016-06-21 07:00,2016,6,21,07:00,15.0,11.4,79.0,9.0,23.0,32.2,102.29,,,Mostly Cloudy,katkam-20160621070000.jpg
2016-06-21 10:00,2016,6,21,10:00,17.4,12.8,74.0,10.0,21.0,24.1,102.43,,,Cloudy,katkam-20160621100000.jpg
2016-06-21 13:00,2016,6,21,13:00,19.6,11.2,58.0,14.0,21.0,32.2,102.47,,,Mostly Cloudy,katkam-20160621130000.jpg
2016-06-21 16:00,2016,6,21,16:00,19.9,11.5,58.0,11.0,15.0,48.3,102.31,,,Mostly Cloudy,katkam-20160621160000.jpg
2016-06-21 19:00,2016,6,21,19:00,16.8,10.5,66.0,14.0,11.0,48.3,102.16,,,Mostly Cloudy,katkam-20160621190000.jpg
2016-06-22 07:00,2016,6,22,07:00,14.6,11.4,81.0,13.0,9.0,24.1,101.86,,,Cloudy,katkam-20160622070000.jpg
2016-06-22 10:00,2016,6,22,10:00,17.5,12.0,70.0,11.0,11.0,24.1,101.8,,,Cloudy,katkam-20160622100000.jpg
2016-06-22 13:00,2016,6,22,13:00,20.4,13.0,62.0,21.0,13.0,32.2,101.71,,,Cloudy,katkam-20160622130000.jpg
2016-06-22 16:00,2016,6,22,16:00,17.8,13.2,74.0,29.0,15.0,48.3,101.57,,,Cloudy,katkam-20160622160000.jpg
2016-06-22 17:00,2016,6,22,17:00,16.5,13.6,83.0,29.0,17.0,48.3,101.5,,,Rain,katkam-20160622170000.jpg
2016-06-22 19:00,2016,6,22,19:00,15.9,13.8,87.0,28.0,17.0,32.2,101.42,,,Rain,katkam-20160622190000.jpg
2016-06-22 20:00,2016,6,22,20:00,15.2,13.8,91.0,29.0,16.0,24.1,101.36,,,Rain,katkam-20160622200000.jpg
2016-06-22 21:00,2016,6,22,21:00,15.3,14.0,92.0,28.0,18.0,24.1,101.32,,,Rain,katkam-20160622210000.jpg
2016-06-23 06:00,2016,6,23,06:00,14.0,12.9,93.0,8.0,17.0,19.3,101.32,,,Rain,katkam-20160623060000.jpg
2016-06-23 07:00,2016,6,23,07:00,13.7,12.6,93.0,12.0,17.0,19.3,101.35,,,Rain,katkam-20160623070000.jpg
2016-06-23 08:00,2016,6,23,08:00,13.6,12.5,93.0,13.0,15.0,4.8,101.38,,,"Rain,Fog",katkam-20160623080000.jpg
2016-06-23 09:00,2016,6,23,09:00,13.5,12.7,95.0,13.0,18.0,4.8,101.41,,,"Rain,Fog",katkam-20160623090000.jpg
2016-06-23 10:00,2016,6,23,10:00,14.7,13.8,94.0,12.0,17.0,24.1,101.43,,,Cloudy,katkam-20160623100000.jpg
2016-06-23 13:00,2016,6,23,13:00,16.7,13.1,79.0,12.0,14.0,24.1,101.5,,,Cloudy,katkam-20160623130000.jpg
2016-06-23 16:00,2016,6,23,16:00,19.5,14.0,70.0,12.0,15.0,32.2,101.47,,,Mainly Clear,katkam-20160623160000.jpg
2016-06-23 19:00,2016,6,23,19:00,16.8,12.0,73.0,13.0,15.0,32.2,101.5,,,Mostly Cloudy,katkam-20160623190000.jpg
2016-06-24 07:00,2016,6,24,07:00,13.3,10.9,85.0,10.0,17.0,24.1,101.92,,,Cloudy,katkam-20160624070000.jpg
2016-06-24 10:00,2016,6,24,10:00,15.0,10.9,76.0,16.0,7.0,24.1,102.04,,,Cloudy,katkam-20160624100000.jpg
2016-06-24 13:00,2016,6,24,13:00,17.5,11.2,66.0,17.0,11.0,24.1,102.16,,,Mostly Cloudy,katkam-20160624130000.jpg
2016-06-24 16:00,2016,6,24,16:00,17.9,11.3,65.0,19.0,11.0,24.1,102.22,,,Cloudy,katkam-20160624160000.jpg
2016-06-24 19:00,2016,6,24,19:00,16.9,11.2,69.0,11.0,12.0,32.2,102.24,,,Cloudy,katkam-20160624190000.jpg
2016-06-25 07:00,2016,6,25,07:00,14.0,11.0,82.0,8.0,14.0,24.1,102.47,,,Cloudy,katkam-20160625070000.jpg
2016-06-25 10:00,2016,6,25,10:00,15.3,11.3,77.0,12.0,10.0,24.1,102.51,,,Cloudy,katkam-20160625100000.jpg
2016-06-25 13:00,2016,6,25,13:00,17.8,12.8,72.0,25.0,16.0,48.3,102.47,,,Mainly Clear,katkam-20160625130000.jpg
2016-06-25 16:00,2016,6,25,16:00,18.7,13.2,70.0,25.0,13.0,48.3,102.38,,,Mostly Cloudy,katkam-20160625160000.jpg
2016-06-25 19:00,2016,6,25,19:00,17.4,12.6,73.0,23.0,8.0,48.3,102.27,,,Clear,katkam-20160625190000.jpg
2016-06-26 07:00,2016,6,26,07:00,17.2,13.4,78.0,30.0,13.0,48.3,102.37,,,Clear,katkam-20160626070000.jpg
2016-06-26 10:00,2016,6,26,10:00,19.3,15.6,79.0,29.0,21.0,24.1,102.31,,,Mainly Clear,katkam-20160626100000.jpg
2016-06-26 13:00,2016,6,26,13:00,20.6,15.9,74.0,30.0,19.0,48.3,102.22,25.0,,Clear,katkam-20160626130000.jpg
2016-06-26 16:00,2016,6,26,16:00,22.1,15.6,66.0,29.0,19.0,48.3,102.06,26.0,,Mainly Clear,katkam-20160626160000.jpg
2016-06-26 19:00,2016,6,26,19:00,19.6,15.5,77.0,30.0,16.0,48.3,101.92,,,Mainly Clear,katkam-20160626190000.jpg
2016-06-27 07:00,2016,6,27,07:00,19.4,15.7,79.0,30.0,16.0,48.3,102.02,,,Mostly Cloudy,katkam-20160627070000.jpg
2016-06-27 10:00,2016,6,27,10:00,21.2,16.3,73.0,29.0,19.0,48.3,102.03,26.0,,Mostly Cloudy,katkam-20160627100000.jpg
2016-06-27 13:00,2016,6,27,13:00,22.0,16.4,70.0,28.0,12.0,48.3,101.98,27.0,,Mostly Cloudy,katkam-20160627130000.jpg
2016-06-27 16:00,2016,6,27,16:00,23.7,14.6,56.0,27.0,9.0,48.3,101.88,27.0,,Clear,katkam-20160627160000.jpg
2016-06-27 19:00,2016,6,27,19:00,21.6,14.8,65.0,21.0,8.0,48.3,101.83,25.0,,Mainly Clear,katkam-20160627190000.jpg
2016-06-28 07:00,2016,6,28,07:00,16.5,13.3,81.0,11.0,14.0,48.3,102.18,,,Clear,katkam-20160628070000.jpg
2016-06-28 10:00,2016,6,28,10:00,19.2,13.5,69.0,16.0,9.0,48.3,102.15,,,Clear,katkam-20160628100000.jpg
2016-06-28 13:00,2016,6,28,13:00,18.8,14.7,77.0,22.0,18.0,48.3,102.04,,,Clear,katkam-20160628130000.jpg
2016-06-28 16:00,2016,6,28,16:00,20.6,16.1,75.0,23.0,13.0,48.3,101.89,25.0,,Clear,katkam-20160628160000.jpg
2016-06-28 19:00,2016,6,28,19:00,22.0,14.7,63.0,14.0,12.0,48.3,101.82,26.0,,Mainly Clear,katkam-20160628190000.jpg
2016-06-29 07:00,2016,6,29,07:00,16.1,13.1,82.0,11.0,8.0,48.3,102.12,,,Mainly Clear,katkam-20160629070000.jpg
2016-06-29 10:00,2016,6,29,10:00,19.2,13.7,70.0,16.0,13.0,48.3,102.13,,,Clear,katkam-20160629100000.jpg
2016-06-29 13:00,2016,6,29,13:00,21.3,16.6,74.0,22.0,13.0,48.3,101.99,26.0,,Clear,katkam-20160629130000.jpg
2016-06-29 16:00,2016,6,29,16:00,22.7,13.9,57.0,17.0,18.0,48.3,101.88,26.0,,Clear,katkam-20160629160000.jpg
2016-06-29 19:00,2016,6,29,19:00,19.4,13.7,69.0,14.0,17.0,48.3,101.83,,,Clear,katkam-20160629190000.jpg
2016-06-30 07:00,2016,6,30,07:00,15.0,11.4,79.0,12.0,14.0,32.2,102.21,,,Mostly Cloudy,katkam-20160630070000.jpg
2016-06-30 10:00,2016,6,30,10:00,18.4,12.2,67.0,13.0,11.0,32.2,102.24,,,Mostly Cloudy,katkam-20160630100000.jpg
2016-06-30 13:00,2016,6,30,13:00,19.1,14.6,75.0,23.0,23.0,48.3,102.15,,,Cloudy,katkam-20160630130000.jpg
2016-06-30 16:00,2016,6,30,16:00,21.2,14.0,63.0,17.0,13.0,48.3,102.0,25.0,,Mostly Cloudy,katkam-20160630160000.jpg
2016-06-30 19:00,2016,6,30,19:00,19.6,12.7,64.0,14.0,16.0,48.3,101.89,,,Mostly Cloudy,katkam-20160630190000.jpg
2016-07-01 07:00,2016,7,1,07:00,14.5,11.5,82.0,12.0,16.0,24.1,101.86,,,Rain,katkam-20160701070000.jpg
2016-07-01 10:00,2016,7,1,10:00,15.9,11.7,76.0,15.0,15.0,19.3,101.94,,,Rain,katkam-20160701100000.jpg
2016-07-01 13:00,2016,7,1,13:00,16.9,12.7,76.0,13.0,15.0,32.2,101.95,,,Cloudy,katkam-20160701130000.jpg
2016-07-01 16:00,2016,7,1,16:00,19.9,13.9,68.0,17.0,12.0,48.3,101.87,,,Mainly Clear,katkam-20160701160000.jpg
2016-07-01 19:00,2016,7,1,19:00,18.8,12.6,67.0,16.0,13.0,48.3,101.77,,,Cloudy,katkam-20160701190000.jpg
2016-07-02 07:00,2016,7,2,07:00,17.7,14.6,82.0,9.0,5.0,48.3,101.64,,,Mostly Cloudy,katkam-20160702070000.jpg
2016-07-02 10:00,2016,7,2,10:00,20.8,14.1,65.0,14.0,16.0,48.3,101.6,,,Mostly Cloudy,katkam-20160702100000.jpg
2016-07-02 13:00,2016,7,2,13:00,22.6,14.1,58.0,14.0,21.0,48.3,101.52,26.0,,Mostly Cloudy,katkam-20160702130000.jpg
2016-07-02 16:00,2016,7,2,16:00,21.4,13.7,61.0,16.0,21.0,48.3,101.45,25.0,,Mostly Cloudy,katkam-20160702160000.jpg
2016-07-02 19:00,2016,7,2,19:00,19.6,11.5,59.0,12.0,23.0,48.3,101.4,,,Mainly Clear,katkam-20160702190000.jpg
2016-07-03 07:00,2016,7,3,07:00,17.0,12.8,76.0,28.0,37.0,48.3,101.72,,,Mainly Clear,katkam-20160703070000.jpg
2016-07-03 10:00,2016,7,3,10:00,18.8,11.2,61.0,26.0,40.0,48.3,101.84,,,Mainly Clear,katkam-20160703100000.jpg
2016-07-03 13:00,2016,7,3,13:00,19.8,11.7,59.0,25.0,22.0,48.3,101.9,,,Mainly Clear,katkam-20160703130000.jpg
2016-07-03 16:00,2016,7,3,16:00,19.7,10.5,55.0,20.0,18.0,48.3,101.85,,,Mainly Clear,katkam-20160703160000.jpg
2016-07-03 19:00,2016,7,3,19:00,18.5,9.7,56.0,18.0,10.0,48.3,101.82,,,Mostly Cloudy,katkam-20160703190000.jpg
2016-07-04 07:00,2016,7,4,07:00,16.1,12.5,79.0,30.0,3.0,32.2,101.78,,,Cloudy,katkam-20160704070000.jpg
2016-07-04 10:00,2016,7,4,10:00,17.5,12.3,71.0,22.0,16.0,32.2,101.86,,,Mostly Cloudy,katkam-20160704100000.jpg
2016-07-04 13:00,2016,7,4,13:00,19.2,10.3,56.0,22.0,16.0,32.2,101.85,,,Mostly Cloudy,katkam-20160704130000.jpg
2016-07-04 16:00,2016,7,4,16:00,19.9,11.5,58.0,22.0,14.0,32.2,101.79,,,Mostly Cloudy,katkam-20160704160000.jpg
2016-07-04 19:00,2016,7,4,19:00,18.5,11.9,65.0,29.0,8.0,24.1,101.71,,,Mostly Cloudy,katkam-20160704190000.jpg
2016-07-05 07:00,2016,7,5,07:00,15.1,11.9,81.0,11.0,7.0,24.1,101.77,,,Cloudy,katkam-20160705070000.jpg
2016-07-05 11:00,2016,7,5,11:00,14.6,11.4,81.0,35.0,11.0,24.1,101.86,,,Rain,katkam-20160705110000.jpg
2016-07-05 13:00,2016,7,5,13:00,16.2,11.8,75.0,11.0,15.0,24.1,101.86,,,Mostly Cloudy,katkam-20160705130000.jpg
2016-07-05 16:00,2016,7,5,16:00,17.7,12.0,69.0,12.0,16.0,24.1,101.78,,,Mostly Cloudy,katkam-20160705160000.jpg
2016-07-05 19:00,2016,7,5,19:00,16.1,11.5,74.0,12.0,13.0,32.2,101.76,,,Mostly Cloudy,katkam-20160705190000.jpg
2016-07-06 07:00,2016,7,6,07:00,14.2,11.7,85.0,14.0,9.0,24.1,101.8,,,Mostly Cloudy,katkam-20160706070000.jpg
2016-07-06 10:00,2016,7,6,10:00,18.8,12.4,66.0,12.0,8.0,24.1,101.75,,,Mainly Clear,katkam-20160706100000.jpg
2016-07-06 13:00,2016,7,6,13:00,20.4,13.7,65.0,23.0,13.0,32.2,101.71,,,Mainly Clear,katkam-20160706130000.jpg
2016-07-06 16:00,2016,7,6,16:00,19.8,12.4,62.0,26.0,13.0,48.3,101.59,,,Mainly Clear,katkam-20160706160000.jpg
2016-07-06 19:00,2016,7,6,19:00,18.2,11.4,64.0,26.0,6.0,48.3,101.48,,,Mainly Clear,katkam-20160706190000.jpg
2016-07-07 06:00,2016,7,7,06:00,15.2,12.4,83.0,9.0,10.0,32.2,101.22,,,Rain,katkam-20160707060000.jpg
2016-07-07 07:00,2016,7,7,07:00,15.8,12.8,82.0,8.0,9.0,32.2,101.22,,,Rain,katkam-20160707070000.jpg
2016-07-07 08:00,2016,7,7,08:00,16.1,13.1,82.0,10.0,12.0,24.1,101.24,,,Rain,katkam-20160707080000.jpg
2016-07-07 09:00,2016,7,7,09:00,15.6,13.3,86.0,10.0,15.0,19.3,101.25,,,Rain,katkam-20160707090000.jpg
2016-07-07 10:00,2016,7,7,10:00,14.9,13.6,92.0,10.0,17.0,12.9,101.26,,,Rain,katkam-20160707100000.jpg
2016-07-07 11:00,2016,7,7,11:00,15.2,13.9,92.0,11.0,17.0,19.3,101.26,,,Rain,katkam-20160707110000.jpg
2016-07-07 12:00,2016,7,7,12:00,15.7,14.1,90.0,11.0,26.0,24.1,101.23,,,Rain,katkam-20160707120000.jpg
2016-07-07 13:00,2016,7,7,13:00,15.7,13.6,87.0,12.0,27.0,24.1,101.24,,,Rain Showers,katkam-20160707130000.jpg
2016-07-07 15:00,2016,7,7,15:00,17.1,14.4,84.0,13.0,19.0,24.1,101.17,,,Drizzle,katkam-20160707150000.jpg
2016-07-07 16:00,2016,7,7,16:00,16.4,14.4,88.0,10.0,19.0,11.3,101.15,,,Cloudy,katkam-20160707160000.jpg
2016-07-07 18:00,2016,7,7,18:00,16.0,14.6,91.0,7.0,18.0,16.1,101.07,,,Rain,katkam-20160707180000.jpg
2016-07-07 19:00,2016,7,7,19:00,15.8,14.5,92.0,8.0,15.0,16.1,101.04,,,Rain,katkam-20160707190000.jpg
2016-07-08 07:00,2016,7,8,07:00,15.6,13.5,87.0,13.0,17.0,24.1,100.96,,,Mostly Cloudy,katkam-20160708070000.jpg
2016-07-08 10:00,2016,7,8,10:00,17.0,13.6,80.0,17.0,5.0,19.3,101.09,,,Cloudy,katkam-20160708100000.jpg
2016-07-08 13:00,2016,7,8,13:00,19.8,13.6,67.0,10.0,13.0,32.2,101.15,,,Mostly Cloudy,katkam-20160708130000.jpg
2016-07-08 16:00,2016,7,8,16:00,19.5,13.5,68.0,22.0,5.0,32.2,101.13,,,Mostly Cloudy,katkam-20160708160000.jpg
2016-07-08 19:00,2016,7,8,19:00,19.7,13.7,68.0,16.0,4.0,32.2,101.08,,,Mostly Cloudy,katkam-20160708190000.jpg
2016-07-09 06:00,2016,7,9,06:00,14.0,13.4,96.0,10.0,13.0,8.1,101.24,,,"Rain Showers,Fog",katkam-20160709060000.jpg
2016-07-09 07:00,2016,7,9,07:00,14.4,13.6,95.0,8.0,19.0,12.9,101.28,,,Rain Showers,katkam-20160709070000.jpg
2016-07-09 10:00,2016,7,9,10:00,16.6,13.0,79.0,12.0,18.0,24.1,101.39,,,Mostly Cloudy,katkam-20160709100000.jpg
2016-07-09 13:00,2016,7,9,13:00,19.1,11.3,60.0,14.0,19.0,32.2,101.48,,,Mostly Cloudy,katkam-20160709130000.jpg
2016-07-09 16:00,2016,7,9,16:00,20.5,9.6,49.0,17.0,12.0,32.2,101.5,,,Mostly Cloudy,katkam-20160709160000.jpg
2016-07-09 19:00,2016,7,9,19:00,17.6,12.1,70.0,31.0,9.0,48.3,101.5,,,Cloudy,katkam-20160709190000.jpg
2016-07-10 07:00,2016,7,10,07:00,15.6,12.0,79.0,30.0,20.0,32.2,101.53,,,Mostly Cloudy,katkam-20160710070000.jpg
2016-07-10 10:00,2016,7,10,10:00,18.5,14.5,77.0,28.0,18.0,48.3,101.53,,,Mainly Clear,katkam-20160710100000.jpg
2016-07-10 13:00,2016,7,10,13:00,20.6,13.7,64.0,29.0,9.0,48.3,101.56,,,Mainly Clear,katkam-20160710130000.jpg
2016-07-10 16:00,2016,7,10,16:00,20.7,13.8,64.0,22.0,10.0,48.3,101.51,,,Mainly Clear,katkam-20160710160000.jpg
2016-07-10 19:00,2016,7,10,19:00,19.3,13.3,68.0,20.0,9.0,48.3,101.49,,,Mostly Cloudy,katkam-20160710190000.jpg
2016-07-11 07:00,2016,7,11,07:00,14.7,11.3,80.0,9.0,21.0,32.2,101.74,,,Mostly Cloudy,katkam-20160711070000.jpg
2016-07-11 10:00,2016,7,11,10:00,16.5,10.6,68.0,9.0,22.0,32.2,101.79,,,Cloudy,katkam-20160711100000.jpg
2016-07-11 13:00,2016,7,11,13:00,17.8,11.4,66.0,13.0,18.0,48.3,101.77,,,Mostly Cloudy,katkam-20160711130000.jpg
2016-07-11 16:00,2016,7,11,16:00,19.9,11.5,58.0,14.0,13.0,48.3,101.61,,,Mostly Cloudy,katkam-20160711160000.jpg
2016-07-11 19:00,2016,7,11,19:00,18.1,11.3,64.0,18.0,6.0,32.2,101.5,,,Mostly Cloudy,katkam-20160711190000.jpg
2016-07-12 06:00,2016,7,12,06:00,15.5,13.4,87.0,9.0,5.0,48.3,101.45,,,Rain,katkam-20160712060000.jpg
2016-07-12 07:00,2016,7,12,07:00,15.7,13.7,88.0,9.0,9.0,48.3,101.48,,,Rain,katkam-20160712070000.jpg
2016-07-12 08:00,2016,7,12,08:00,15.8,13.5,86.0,12.0,7.0,48.3,101.52,,,Rain,katkam-20160712080000.jpg
2016-07-12 09:00,2016,7,12,09:00,16.6,13.6,82.0,9.0,7.0,24.1,101.54,,,Rain,katkam-20160712090000.jpg
2016-07-12 10:00,2016,7,12,10:00,17.4,13.8,79.0,10.0,6.0,32.2,101.56,,,Cloudy,katkam-20160712100000.jpg
2016-07-12 13:00,2016,7,12,13:00,20.2,14.2,68.0,26.0,8.0,32.2,101.65,,,Cloudy,katkam-20160712130000.jpg
2016-07-12 16:00,2016,7,12,16:00,20.7,11.5,55.0,24.0,7.0,48.3,101.66,,,Mostly Cloudy,katkam-20160712160000.jpg
2016-07-12 19:00,2016,7,12,19:00,19.5,12.8,65.0,19.0,11.0,48.3,101.7,,,Mostly Cloudy,katkam-20160712190000.jpg
2016-07-13 07:00,2016,7,13,07:00,16.0,14.4,90.0,10.0,10.0,24.1,102.24,,,Cloudy,katkam-20160713070000.jpg
2016-07-13 10:00,2016,7,13,10:00,17.6,14.0,79.0,36.0,3.0,24.1,102.37,,,Mostly Cloudy,katkam-20160713100000.jpg
2016-07-13 13:00,2016,7,13,13:00,19.6,14.3,71.0,27.0,15.0,48.3,102.37,,,Mainly Clear,katkam-20160713130000.jpg
2016-07-13 16:00,2016,7,13,16:00,20.0,12.6,62.0,24.0,14.0,48.3,102.32,,,Mainly Clear,katkam-20160713160000.jpg
2016-07-13 19:00,2016,7,13,19:00,19.0,12.8,67.0,25.0,11.0,48.3,102.26,,,Clear,katkam-20160713190000.jpg
2016-07-14 07:00,2016,7,14,07:00,16.8,13.0,78.0,11.0,4.0,48.3,102.31,,,Cloudy,katkam-20160714070000.jpg
2016-07-14 10:00,2016,7,14,10:00,19.4,13.7,69.0,27.0,20.0,48.3,102.31,,,Mostly Cloudy,katkam-20160714100000.jpg
2016-07-14 13:00,2016,7,14,13:00,20.2,14.9,71.0,28.0,21.0,48.3,102.25,,,Mostly Cloudy,katkam-20160714130000.jpg
2016-07-14 16:00,2016,7,14,16:00,17.4,11.5,68.0,27.0,27.0,48.3,102.2,,,Rain,katkam-20160714160000.jpg
2016-07-14 19:00,2016,7,14,19:00,17.5,12.5,72.0,23.0,12.0,48.3,102.1,,,Mainly Clear,katkam-20160714190000.jpg
2016-07-15 07:00,2016,7,15,07:00,15.0,12.5,85.0,10.0,10.0,32.2,102.03,,,Mostly Cloudy,katkam-20160715070000.jpg
2016-07-15 10:00,2016,7,15,10:00,16.7,13.8,83.0,23.0,9.0,32.2,102.04,,,Mostly Cloudy,katkam-20160715100000.jpg
2016-07-15 13:00,2016,7,15,13:00,19.0,14.5,75.0,24.0,16.0,48.3,101.97,,,Mainly Clear,katkam-20160715130000.jpg
2016-07-15 16:00,2016,7,15,16:00,20.9,13.5,62.0,20.0,15.0,48.3,101.85,,,Mainly Clear,katkam-20160715160000.jpg
2016-07-15 19:00,2016,7,15,19:00,20.9,11.7,55.0,15.0,9.0,32.2,101.74,,,Mostly Cloudy,katkam-20160715190000.jpg
2016-07-16 07:00,2016,7,16,07:00,15.8,13.8,88.0,13.0,13.0,24.1,101.72,,,Cloudy,katkam-20160716070000.jpg
2016-07-16 08:00,2016,7,16,08:00,16.0,14.0,88.0,11.0,13.0,24.1,101.74,,,Drizzle,katkam-20160716080000.jpg
2016-07-16 10:00,2016,7,16,10:00,17.1,13.5,79.0,13.0,16.0,24.1,101.77,,,Cloudy,katkam-20160716100000.jpg
2016-07-16 13:00,2016,7,16,13:00,19.3,14.2,72.0,11.0,14.0,24.1,101.77,,,Cloudy,katkam-20160716130000.jpg
2016-07-16 16:00,2016,7,16,16:00,19.6,15.3,76.0,22.0,16.0,24.1,101.64,,,Mainly Clear,katkam-20160716160000.jpg
2016-07-16 19:00,2016,7,16,19:00,19.2,15.1,77.0,18.0,9.0,24.1,101.59,,,Mainly Clear,katkam-20160716190000.jpg
2016-07-17 07:00,2016,7,17,07:00,17.6,15.4,87.0,24.0,5.0,32.2,101.5,,,Mostly Cloudy,katkam-20160717070000.jpg
2016-07-17 10:00,2016,7,17,10:00,19.1,16.9,87.0,26.0,15.0,24.1,101.47,,,Mostly Cloudy,katkam-20160717100000.jpg
2016-07-17 13:00,2016,7,17,13:00,22.0,15.9,68.0,29.0,14.0,48.3,101.32,27.0,,Mostly Cloudy,katkam-20160717130000.jpg
2016-07-17 16:00,2016,7,17,16:00,21.3,15.7,70.0,23.0,13.0,48.3,101.21,26.0,,Mostly Cloudy,katkam-20160717160000.jpg
2016-07-17 19:00,2016,7,17,19:00,19.7,17.0,84.0,30.0,4.0,32.2,101.23,,,Mostly Cloudy,katkam-20160717190000.jpg
2016-07-18 07:00,2016,7,18,07:00,18.4,14.9,80.0,11.0,12.0,32.2,101.37,,,Mostly Cloudy,katkam-20160718070000.jpg
2016-07-18 10:00,2016,7,18,10:00,21.4,15.3,68.0,14.0,10.0,32.2,101.33,26.0,,Mainly Clear,katkam-20160718100000.jpg
2016-07-18 13:00,2016,7,18,13:00,22.9,17.7,72.0,20.0,21.0,32.2,101.29,29.0,,Mainly Clear,katkam-20160718130000.jpg
2016-07-18 16:00,2016,7,18,16:00,21.8,15.3,66.0,17.0,16.0,32.2,101.4,26.0,,Mostly Cloudy,katkam-20160718160000.jpg
2016-07-18 19:00,2016,7,18,19:00,19.4,14.9,75.0,10.0,27.0,32.2,101.46,,,Mostly Cloudy,katkam-20160718190000.jpg
2016-07-19 10:00,2016,7,19,10:00,18.1,14.1,77.0,10.0,16.0,24.1,101.87,,,Cloudy,katkam-20160719100000.jpg
2016-07-19 13:00,2016,7,19,13:00,22.8,13.4,55.0,20.0,15.0,32.2,101.85,26.0,,Mainly Clear,katkam-20160719130000.jpg
2016-07-19 16:00,2016,7,19,16:00,21.3,14.3,64.0,25.0,13.0,48.3,101.8,25.0,,Mainly Clear,katkam-20160719160000.jpg
2016-07-19 19:00,2016,7,19,19:00,19.8,13.6,67.0,24.0,10.0,48.3,101.74,,,Mainly Clear,katkam-20160719190000.jpg
2016-07-20 07:00,2016,7,20,07:00,17.3,13.9,80.0,12.0,14.0,48.3,101.93,,,Cloudy,katkam-20160720070000.jpg
2016-07-20 10:00,2016,7,20,10:00,21.5,14.5,64.0,12.0,16.0,48.3,102.0,25.0,,Mainly Clear,katkam-20160720100000.jpg
2016-07-20 13:00,2016,7,20,13:00,22.7,14.7,60.0,21.0,16.0,48.3,101.95,26.0,,Mainly Clear,katkam-20160720130000.jpg
2016-07-20 16:00,2016,7,20,16:00,21.8,14.8,64.0,25.0,10.0,48.3,101.88,26.0,,Mainly Clear,katkam-20160720160000.jpg
2016-07-20 19:00,2016,7,20,19:00,20.6,14.8,69.0,29.0,12.0,48.3,101.78,,,Clear,katkam-20160720190000.jpg
2016-07-21 07:00,2016,7,21,07:00,18.6,13.5,72.0,23.0,5.0,48.3,101.81,,,Clear,katkam-20160721070000.jpg
2016-07-21 10:00,2016,7,21,10:00,21.0,16.1,73.0,30.0,20.0,48.3,101.79,26.0,,Clear,katkam-20160721100000.jpg
2016-07-21 13:00,2016,7,21,13:00,23.4,16.3,64.0,29.0,22.0,48.3,101.68,28.0,,Clear,katkam-20160721130000.jpg
2016-07-21 16:00,2016,7,21,16:00,23.2,17.1,68.0,28.0,18.0,48.3,101.55,29.0,,Mostly Cloudy,katkam-20160721160000.jpg
2016-07-21 19:00,2016,7,21,19:00,20.0,16.3,79.0,30.0,9.0,48.3,101.48,25.0,,Mainly Clear,katkam-20160721190000.jpg
2016-07-22 07:00,2016,7,22,07:00,17.2,13.2,77.0,8.0,21.0,48.3,102.0,,,Mostly Cloudy,katkam-20160722070000.jpg
2016-07-22 10:00,2016,7,22,10:00,20.4,13.2,63.0,10.0,27.0,32.2,102.11,,,Mainly Clear,katkam-20160722100000.jpg
2016-07-22 13:00,2016,7,22,13:00,22.9,13.8,56.0,10.0,17.0,48.3,102.2,26.0,,Mainly Clear,katkam-20160722130000.jpg
2016-07-22 16:00,2016,7,22,16:00,23.1,12.3,50.0,13.0,21.0,48.3,102.18,26.0,,Cloudy,katkam-20160722160000.jpg
2016-07-22 19:00,2016,7,22,19:00,20.3,13.4,64.0,13.0,9.0,48.3,102.2,,,Cloudy,katkam-20160722190000.jpg
2016-07-23 07:00,2016,7,23,07:00,16.0,12.4,79.0,10.0,17.0,32.2,102.34,,,Mainly Clear,katkam-20160723070000.jpg
2016-07-23 10:00,2016,7,23,10:00,19.2,11.8,62.0,15.0,10.0,48.3,102.41,,,Mainly Clear,katkam-20160723100000.jpg
2016-07-23 13:00,2016,7,23,13:00,20.4,14.6,69.0,26.0,15.0,48.3,102.34,,,Mainly Clear,katkam-20160723130000.jpg
2016-07-23 16:00,2016,7,23,16:00,20.8,15.0,69.0,24.0,14.0,48.3,102.29,25.0,,Mainly Clear,katkam-20160723160000.jpg
2016-07-23 19:00,2016,7,23,19:00,20.3,13.1,63.0,18.0,9.0,48.3,102.19,,,Mainly Clear,katkam-20160723190000.jpg
2016-07-24 07:00,2016,7,24,07:00,17.4,13.2,76.0,18.0,4.0,48.3,102.02,,,Mainly Clear,katkam-20160724070000.jpg
2016-07-24 10:00,2016,7,24,10:00,19.5,13.7,69.0,23.0,13.0,48.3,101.95,,,Mainly Clear,katkam-20160724100000.jpg
2016-07-24 13:00,2016,7,24,13:00,21.0,12.8,59.0,23.0,11.0,48.3,101.84,,,Mainly Clear,katkam-20160724130000.jpg
2016-07-24 16:00,2016,7,24,16:00,22.1,14.8,63.0,24.0,13.0,48.3,101.7,26.0,,Mainly Clear,katkam-20160724160000.jpg
2016-07-24 19:00,2016,7,24,19:00,21.5,15.2,67.0,23.0,10.0,48.3,101.57,26.0,,Mainly Clear,katkam-20160724190000.jpg
2016-07-25 07:00,2016,7,25,07:00,18.4,14.6,78.0,11.0,8.0,48.3,101.72,,,Mostly Cloudy,katkam-20160725070000.jpg
2016-07-25 10:00,2016,7,25,10:00,21.4,15.6,69.0,22.0,13.0,48.3,101.78,26.0,,Mostly Cloudy,katkam-20160725100000.jpg
2016-07-25 13:00,2016,7,25,13:00,22.4,16.5,69.0,23.0,15.0,48.3,101.7,27.0,,Mostly Cloudy,katkam-20160725130000.jpg
2016-07-25 19:00,2016,7,25,19:00,22.9,18.5,76.0,26.0,9.0,48.3,101.53,29.0,,Mostly Cloudy,katkam-20160725190000.jpg
2016-07-26 07:00,2016,7,26,07:00,15.9,13.6,86.0,11.0,19.0,24.1,101.97,,,Mostly Cloudy,katkam-20160726070000.jpg
2016-07-26 10:00,2016,7,26,10:00,19.9,13.7,67.0,14.0,12.0,32.2,102.01,,,Mainly Clear,katkam-20160726100000.jpg
2016-07-26 13:00,2016,7,26,13:00,20.6,16.3,76.0,24.0,17.0,48.3,101.91,25.0,,Mainly Clear,katkam-20160726130000.jpg
2016-07-26 16:00,2016,7,26,16:00,22.1,16.7,71.0,22.0,14.0,48.3,101.8,27.0,,Mainly Clear,katkam-20160726160000.jpg
2016-07-27 07:00,2016,7,27,07:00,18.9,16.4,85.0,30.0,20.0,24.1,102.01,,,Mostly Cloudy,katkam-20160727070000.jpg
2016-07-27 10:00,2016,7,27,10:00,21.5,16.8,74.0,29.0,22.0,48.3,102.0,27.0,,Clear,katkam-20160727100000.jpg
2016-07-27 13:00,2016,7,27,13:00,22.4,17.4,73.0,28.0,23.0,48.3,101.92,28.0,,Clear,katkam-20160727130000.jpg
2016-07-27 16:00,2016,7,27,16:00,24.3,17.7,66.0,28.0,17.0,48.3,101.77,30.0,,Mainly Clear,katkam-20160727160000.jpg
2016-07-27 19:00,2016,7,27,19:00,22.4,17.2,72.0,29.0,13.0,48.3,101.68,28.0,,Clear,katkam-20160727190000.jpg
2016-07-28 07:00,2016,7,28,07:00,19.2,16.1,82.0,30.0,26.0,48.3,101.99,,,Clear,katkam-20160728070000.jpg
2016-07-28 10:00,2016,7,28,10:00,21.1,16.4,74.0,29.0,28.0,48.3,101.97,26.0,,Clear,katkam-20160728100000.jpg
2016-07-28 13:00,2016,7,28,13:00,22.6,17.2,71.0,30.0,28.0,48.3,101.84,28.0,,Clear,katkam-20160728130000.jpg
2016-07-28 16:00,2016,7,28,16:00,23.1,17.4,70.0,29.0,20.0,48.3,101.69,29.0,,Clear,katkam-20160728160000.jpg
2016-07-28 19:00,2016,7,28,19:00,21.5,17.2,76.0,29.0,11.0,48.3,101.51,27.0,,Clear,katkam-20160728190000.jpg
2016-07-29 07:00,2016,7,29,07:00,18.9,16.0,83.0,30.0,26.0,48.3,101.57,,,Clear,katkam-20160729070000.jpg
2016-07-29 10:00,2016,7,29,10:00,20.6,16.1,75.0,30.0,33.0,48.3,101.53,25.0,,Clear,katkam-20160729100000.jpg
2016-07-29 13:00,2016,7,29,13:00,22.2,16.1,68.0,30.0,27.0,48.3,101.38,27.0,,Clear,katkam-20160729130000.jpg
2016-07-29 16:00,2016,7,29,16:00,22.9,16.1,65.0,29.0,16.0,48.3,101.22,28.0,,Clear,katkam-20160729160000.jpg
2016-07-29 19:00,2016,7,29,19:00,20.2,15.1,72.0,28.0,38.0,48.3,101.07,,,Clear,katkam-20160729190000.jpg
2016-07-30 07:00,2016,7,30,07:00,16.8,12.2,74.0,28.0,24.0,32.2,101.22,,,Mainly Clear,katkam-20160730070000.jpg
2016-07-30 10:00,2016,7,30,10:00,18.8,11.7,63.0,28.0,32.0,48.3,101.32,,,Mainly Clear,katkam-20160730100000.jpg
2016-07-30 13:00,2016,7,30,13:00,20.9,10.2,50.0,27.0,34.0,48.3,101.32,,,Clear,katkam-20160730130000.jpg
2016-07-30 16:00,2016,7,30,16:00,21.3,12.3,56.0,22.0,13.0,48.3,101.28,,,Clear,katkam-20160730160000.jpg
2016-07-30 19:00,2016,7,30,19:00,18.9,12.0,64.0,30.0,11.0,48.3,101.21,,,Mainly Clear,katkam-20160730190000.jpg
2016-07-31 07:00,2016,7,31,07:00,16.0,12.2,78.0,30.0,15.0,48.3,101.61,,,Mostly Cloudy,katkam-20160731070000.jpg
2016-07-31 10:00,2016,7,31,10:00,17.4,12.2,71.0,27.0,9.0,48.3,101.76,,,Mostly Cloudy,katkam-20160731100000.jpg
2016-07-31 13:00,2016,7,31,13:00,18.9,13.0,68.0,25.0,14.0,48.3,101.78,,,Mostly Cloudy,katkam-20160731130000.jpg
2016-07-31 16:00,2016,7,31,16:00,19.8,11.4,58.0,24.0,14.0,48.3,101.69,,,Clear,katkam-20160731160000.jpg
2016-07-31 19:00,2016,7,31,19:00,18.6,12.2,66.0,28.0,6.0,48.3,101.62,,,Mainly Clear,katkam-20160731190000.jpg
2016-08-01 07:00,2016,8,1,07:00,17.3,13.1,76.0,10.0,10.0,48.3,101.8,,,Clear,katkam-20160801070000.jpg
2016-08-01 10:00,2016,8,1,10:00,19.8,15.7,77.0,24.0,13.0,48.3,101.77,,,Mainly Clear,katkam-20160801100000.jpg
2016-08-01 13:00,2016,8,1,13:00,21.9,13.9,60.0,22.0,14.0,48.3,101.66,25.0,,Mainly Clear,katkam-20160801130000.jpg
2016-08-01 16:00,2016,8,1,16:00,21.7,14.9,65.0,24.0,15.0,48.3,101.5,26.0,,Mainly Clear,katkam-20160801160000.jpg
2016-08-01 19:00,2016,8,1,19:00,22.1,11.0,49.0,15.0,8.0,48.3,101.43,,,Mainly Clear,katkam-20160801190000.jpg
2016-08-02 06:00,2016,8,2,06:00,14.9,11.0,77.0,7.0,21.0,24.1,101.66,,,Thunderstorms,katkam-20160802060000.jpg
2016-08-02 07:00,2016,8,2,07:00,15.1,11.7,80.0,9.0,23.0,32.2,101.7,,,Cloudy,katkam-20160802070000.jpg
2016-08-02 08:00,2016,8,2,08:00,15.7,11.1,74.0,9.0,26.0,24.1,101.75,,,Thunderstorms,katkam-20160802080000.jpg
2016-08-02 09:00,2016,8,2,09:00,15.3,11.3,77.0,11.0,28.0,24.1,101.81,,,Rain Showers,katkam-20160802090000.jpg
2016-08-02 10:00,2016,8,2,10:00,15.2,11.4,78.0,9.0,19.0,24.1,101.86,,,Cloudy,katkam-20160802100000.jpg
2016-08-02 13:00,2016,8,2,13:00,15.6,12.8,83.0,8.0,16.0,24.1,101.97,,,Rain Showers,katkam-20160802130000.jpg
2016-08-02 15:00,2016,8,2,15:00,15.8,13.5,86.0,10.0,7.0,24.1,101.99,,,Rain,katkam-20160802150000.jpg
2016-08-02 16:00,2016,8,2,16:00,17.1,13.5,79.0,6.0,5.0,24.1,102.0,,,Cloudy,katkam-20160802160000.jpg
2016-08-02 18:00,2016,8,2,18:00,16.0,12.8,81.0,17.0,5.0,24.1,102.03,,,Rain,katkam-20160802180000.jpg
2016-08-02 19:00,2016,8,2,19:00,16.0,13.2,83.0,21.0,4.0,24.1,102.05,,,Cloudy,katkam-20160802190000.jpg
2016-08-03 06:00,2016,8,3,06:00,14.3,13.5,95.0,12.0,16.0,8.1,102.41,,,Fog,katkam-20160803060000.jpg
2016-08-03 07:00,2016,8,3,07:00,14.6,13.7,94.0,10.0,13.0,12.9,102.43,,,Cloudy,katkam-20160803070000.jpg
2016-08-03 10:00,2016,8,3,10:00,16.9,13.5,80.0,10.0,12.0,24.1,102.49,,,Cloudy,katkam-20160803100000.jpg
2016-08-03 13:00,2016,8,3,13:00,19.2,13.7,70.0,,0.0,24.1,102.48,,,Mostly Cloudy,katkam-20160803130000.jpg
2016-08-03 16:00,2016,8,3,16:00,20.2,14.2,68.0,24.0,10.0,32.2,102.35,,,Mainly Clear,katkam-20160803160000.jpg
2016-08-03 19:00,2016,8,3,19:00,18.0,13.8,76.0,25.0,9.0,24.1,102.19,,,Clear,katkam-20160803190000.jpg
2016-08-04 07:00,2016,8,4,07:00,16.8,14.5,86.0,31.0,4.0,32.2,101.98,,,Mostly Cloudy,katkam-20160804070000.jpg
2016-08-04 10:00,2016,8,4,10:00,20.1,15.2,73.0,28.0,13.0,24.1,101.89,,,Mainly Clear,katkam-20160804100000.jpg
2016-08-04 13:00,2016,8,4,13:00,20.7,14.9,69.0,24.0,13.0,48.3,101.72,25.0,,Mainly Clear,katkam-20160804130000.jpg
2016-08-04 16:00,2016,8,4,16:00,21.0,15.4,70.0,26.0,15.0,48.3,101.52,25.0,,Clear,katkam-20160804160000.jpg
2016-08-04 19:00,2016,8,4,19:00,19.5,15.2,76.0,30.0,15.0,48.3,101.29,,,Clear,katkam-20160804190000.jpg
2016-08-05 07:00,2016,8,5,07:00,16.6,13.0,79.0,29.0,27.0,24.1,101.18,,,Mostly Cloudy,katkam-20160805070000.jpg
2016-08-05 10:00,2016,8,5,10:00,18.9,13.2,69.0,30.0,12.0,32.2,101.23,,,Mainly Clear,katkam-20160805100000.jpg
2016-08-05 16:00,2016,8,5,16:00,20.8,11.3,54.0,26.0,12.0,48.3,101.2,,,Clear,katkam-20160805160000.jpg
2016-08-06 07:00,2016,8,6,07:00,14.4,11.6,83.0,11.0,20.0,24.1,101.4,,,Mostly Cloudy,katkam-20160806070000.jpg
2016-08-06 10:00,2016,8,6,10:00,17.3,10.5,64.0,11.0,22.0,32.2,101.47,,,Mostly Cloudy,katkam-20160806100000.jpg
2016-08-06 13:00,2016,8,6,13:00,19.6,11.0,57.0,12.0,8.0,32.2,101.42,,,Mostly Cloudy,katkam-20160806130000.jpg
2016-08-06 16:00,2016,8,6,16:00,18.6,10.8,60.0,22.0,11.0,32.2,101.32,,,Mostly Cloudy,katkam-20160806160000.jpg
2016-08-06 19:00,2016,8,6,19:00,17.4,11.5,68.0,26.0,4.0,32.2,101.24,,,Mostly Cloudy,katkam-20160806190000.jpg
2016-08-07 07:00,2016,8,7,07:00,15.5,13.0,85.0,10.0,10.0,32.2,101.16,,,Mostly Cloudy,katkam-20160807070000.jpg
2016-08-07 10:00,2016,8,7,10:00,18.6,12.7,68.0,10.0,11.0,32.2,101.21,,,Mostly Cloudy,katkam-20160807100000.jpg
2016-08-07 13:00,2016,8,7,13:00,18.9,11.8,63.0,15.0,15.0,32.2,101.26,,,Cloudy,katkam-20160807130000.jpg
2016-08-07 19:00,2016,8,7,19:00,18.4,10.6,60.0,13.0,5.0,32.2,101.24,,,Mostly Cloudy,katkam-20160807190000.jpg
2016-08-08 07:00,2016,8,8,07:00,14.5,12.2,86.0,8.0,15.0,19.3,101.43,,,Mostly Cloudy,katkam-20160808070000.jpg
2016-08-08 10:00,2016,8,8,10:00,16.7,13.7,82.0,21.0,12.0,24.1,101.44,,,Mostly Cloudy,katkam-20160808100000.jpg
2016-08-08 16:00,2016,8,8,16:00,18.3,13.9,75.0,26.0,15.0,32.2,101.36,,,Mostly Cloudy,katkam-20160808160000.jpg
2016-08-08 19:00,2016,8,8,19:00,17.9,15.2,84.0,26.0,10.0,48.3,101.33,,,Mostly Cloudy,katkam-20160808190000.jpg
2016-08-09 07:00,2016,8,9,07:00,15.8,15.2,96.0,7.0,9.0,6.4,101.46,,,"Rain,Fog",katkam-20160809070000.jpg
2016-08-09 08:00,2016,8,9,08:00,16.0,15.4,96.0,25.0,13.0,6.4,101.48,,,"Rain,Fog",katkam-20160809080000.jpg
2016-08-09 10:00,2016,8,9,10:00,15.4,14.8,96.0,14.0,14.0,2.4,101.52,,,"Drizzle,Fog",katkam-20160809100000.jpg
2016-08-09 11:00,2016,8,9,11:00,15.7,14.9,95.0,13.0,12.0,4.8,101.55,,,Fog,katkam-20160809110000.jpg
2016-08-09 13:00,2016,8,9,13:00,17.7,15.2,85.0,12.0,13.0,12.9,101.56,,,Cloudy,katkam-20160809130000.jpg
2016-08-09 19:00,2016,8,9,19:00,17.9,13.7,76.0,10.0,13.0,32.2,101.55,,,Mostly Cloudy,katkam-20160809190000.jpg
2016-08-10 07:00,2016,8,10,07:00,16.9,14.2,84.0,19.0,4.0,24.1,101.78,,,Cloudy,katkam-20160810070000.jpg
2016-08-10 13:00,2016,8,10,13:00,20.7,15.8,73.0,26.0,13.0,24.1,101.86,25.0,,Mostly Cloudy,katkam-20160810130000.jpg
2016-08-10 16:00,2016,8,10,16:00,21.4,15.3,68.0,26.0,17.0,48.3,101.78,26.0,,Mainly Clear,katkam-20160810160000.jpg
2016-08-10 19:00,2016,8,10,19:00,19.4,14.7,74.0,27.0,11.0,48.3,101.76,,,Clear,katkam-20160810190000.jpg
2016-08-11 07:00,2016,8,11,07:00,17.8,15.6,87.0,30.0,21.0,48.3,102.03,,,Clear,katkam-20160811070000.jpg
2016-08-11 10:00,2016,8,11,10:00,19.8,14.9,73.0,29.0,32.0,48.3,102.06,,,Clear,katkam-20160811100000.jpg
2016-08-11 16:00,2016,8,11,16:00,21.7,15.9,69.0,30.0,29.0,48.3,101.82,26.0,,Mainly Clear,katkam-20160811160000.jpg
2016-08-11 19:00,2016,8,11,19:00,20.1,15.8,76.0,30.0,16.0,48.3,101.75,25.0,,Clear,katkam-20160811190000.jpg
2016-08-12 07:00,2016,8,12,07:00,18.8,16.8,88.0,30.0,22.0,48.3,101.94,,,Clear,katkam-20160812070000.jpg
2016-08-12 10:00,2016,8,12,10:00,20.9,16.4,75.0,30.0,25.0,48.3,101.88,26.0,,Clear,katkam-20160812100000.jpg
2016-08-12 13:00,2016,8,12,13:00,23.2,17.1,68.0,30.0,17.0,48.3,101.8,29.0,,Mostly Cloudy,katkam-20160812130000.jpg
2016-08-12 19:00,2016,8,12,19:00,20.7,16.6,77.0,27.0,13.0,48.3,101.5,26.0,,Mainly Clear,katkam-20160812190000.jpg
2016-08-13 07:00,2016,8,13,07:00,19.4,16.7,84.0,31.0,18.0,48.3,101.6,,,Mainly Clear,katkam-20160813070000.jpg
2016-08-13 16:00,2016,8,13,16:00,22.9,17.0,69.0,29.0,11.0,48.3,101.4,28.0,,Mainly Clear,katkam-20160813160000.jpg
2016-08-13 19:00,2016,8,13,19:00,21.2,16.9,76.0,25.0,5.0,48.3,101.34,26.0,,Mainly Clear,katkam-20160813190000.jpg
2016-08-14 07:00,2016,8,14,07:00,18.3,15.0,81.0,30.0,17.0,48.3,101.56,,,Mainly Clear,katkam-20160814070000.jpg
2016-08-14 10:00,2016,8,14,10:00,20.5,15.1,71.0,30.0,22.0,48.3,101.6,25.0,,Mainly Clear,katkam-20160814100000.jpg
2016-08-14 13:00,2016,8,14,13:00,22.3,14.5,61.0,29.0,16.0,48.3,101.57,26.0,,Clear,katkam-20160814130000.jpg
2016-08-14 16:00,2016,8,14,16:00,21.4,14.9,66.0,23.0,10.0,48.3,101.48,25.0,,Clear,katkam-20160814160000.jpg
2016-08-14 19:00,2016,8,14,19:00,21.7,13.7,60.0,22.0,3.0,48.3,101.45,25.0,,Mainly Clear,katkam-20160814190000.jpg
2016-08-15 10:00,2016,8,15,10:00,21.8,14.8,64.0,16.0,4.0,48.3,101.83,26.0,,Clear,katkam-20160815100000.jpg
2016-08-15 13:00,2016,8,15,13:00,21.9,15.1,65.0,24.0,11.0,48.3,101.78,26.0,,Clear,katkam-20160815130000.jpg
2016-08-15 16:00,2016,8,15,16:00,20.9,16.2,74.0,24.0,10.0,48.3,101.64,26.0,,Clear,katkam-20160815160000.jpg
2016-08-15 19:00,2016,8,15,19:00,20.8,15.7,72.0,27.0,4.0,48.3,101.61,25.0,,Clear,katkam-20160815190000.jpg
2016-08-16 10:00,2016,8,16,10:00,20.4,15.7,74.0,28.0,20.0,48.3,101.89,25.0,,Clear,katkam-20160816100000.jpg
2016-08-16 13:00,2016,8,16,13:00,21.7,15.2,66.0,27.0,14.0,48.3,101.82,26.0,,Clear,katkam-20160816130000.jpg
2016-08-16 16:00,2016,8,16,16:00,21.9,15.8,68.0,25.0,13.0,48.3,101.68,26.0,,Mainly Clear,katkam-20160816160000.jpg
2016-08-17 07:00,2016,8,17,07:00,17.2,13.0,76.0,31.0,29.0,48.3,101.88,,,Clear,katkam-20160817070000.jpg
2016-08-17 10:00,2016,8,17,10:00,19.4,13.9,70.0,29.0,33.0,48.3,101.84,,,Clear,katkam-20160817100000.jpg
2016-08-17 19:00,2016,8,17,19:00,19.0,14.7,76.0,31.0,14.0,48.3,101.48,,,Clear,katkam-20160817190000.jpg
2016-08-18 07:00,2016,8,18,07:00,17.4,14.3,82.0,30.0,28.0,48.3,101.8,,,Clear,katkam-20160818070000.jpg
2016-08-18 10:00,2016,8,18,10:00,19.8,14.5,71.0,31.0,33.0,48.3,101.79,,,Mainly Clear,katkam-20160818100000.jpg
2016-08-18 13:00,2016,8,18,13:00,22.3,15.5,65.0,30.0,20.0,48.3,101.69,27.0,,Mainly Clear,katkam-20160818130000.jpg
2016-08-18 19:00,2016,8,18,19:00,21.3,14.3,64.0,32.0,15.0,48.3,101.42,25.0,,Mainly Clear,katkam-20160818190000.jpg
2016-08-19 07:00,2016,8,19,07:00,21.0,14.5,66.0,31.0,16.0,48.3,101.66,25.0,,Mainly Clear,katkam-20160819070000.jpg
2016-08-19 10:00,2016,8,19,10:00,21.6,14.8,65.0,31.0,34.0,48.3,101.68,25.0,,Mainly Clear,katkam-20160819100000.jpg
2016-08-19 13:00,2016,8,19,13:00,25.0,15.5,55.0,30.0,21.0,48.3,101.61,29.0,,Mainly Clear,katkam-20160819130000.jpg
2016-08-19 19:00,2016,8,19,19:00,20.5,15.6,73.0,27.0,7.0,48.3,101.23,25.0,,Mostly Cloudy,katkam-20160819190000.jpg
2016-08-20 07:00,2016,8,20,07:00,18.3,15.8,85.0,31.0,20.0,48.3,101.32,,,Mainly Clear,katkam-20160820070000.jpg
2016-08-20 10:00,2016,8,20,10:00,21.2,15.8,71.0,29.0,27.0,48.3,101.29,26.0,,Mainly Clear,katkam-20160820100000.jpg
2016-08-20 13:00,2016,8,20,13:00,23.1,16.7,67.0,29.0,18.0,48.3,101.19,28.0,,Clear,katkam-20160820130000.jpg
2016-08-20 16:00,2016,8,20,16:00,23.5,16.4,64.0,30.0,16.0,48.3,100.97,28.0,,Clear,katkam-20160820160000.jpg
2016-08-20 19:00,2016,8,20,19:00,20.4,15.7,74.0,27.0,4.0,48.3,100.82,25.0,,Clear,katkam-20160820190000.jpg
2016-08-21 07:00,2016,8,21,07:00,18.3,15.6,84.0,12.0,14.0,48.3,100.8,,,Mainly Clear,katkam-20160821070000.jpg
2016-08-21 10:00,2016,8,21,10:00,19.4,12.5,64.0,12.0,23.0,48.3,100.91,,,Mainly Clear,katkam-20160821100000.jpg
2016-08-21 13:00,2016,8,21,13:00,20.1,12.9,63.0,14.0,9.0,48.3,101.02,,,Mostly Cloudy,katkam-20160821130000.jpg
2016-08-21 16:00,2016,8,21,16:00,19.1,13.6,70.0,24.0,12.0,32.2,101.03,,,Mostly Cloudy,katkam-20160821160000.jpg
2016-08-21 19:00,2016,8,21,19:00,16.6,12.8,78.0,30.0,19.0,48.3,101.07,,,Mostly Cloudy,katkam-20160821190000.jpg
2016-08-22 07:00,2016,8,22,07:00,16.4,11.6,73.0,31.0,10.0,48.3,101.61,,,Mainly Clear,katkam-20160822070000.jpg
2016-08-22 10:00,2016,8,22,10:00,18.3,12.2,67.0,31.0,5.0,48.3,101.78,,,Mostly Cloudy,katkam-20160822100000.jpg
2016-08-22 13:00,2016,8,22,13:00,19.2,10.8,58.0,20.0,14.0,48.3,101.84,,,Mainly Clear,katkam-20160822130000.jpg
2016-08-22 16:00,2016,8,22,16:00,19.7,9.7,52.0,22.0,14.0,48.3,101.85,,,Mainly Clear,katkam-20160822160000.jpg
2016-08-22 19:00,2016,8,22,19:00,17.9,11.1,64.0,19.0,10.0,48.3,101.83,,,Clear,katkam-20160822190000.jpg
2016-08-23 07:00,2016,8,23,07:00,16.2,13.2,82.0,29.0,18.0,48.3,102.2,,,Mainly Clear,katkam-20160823070000.jpg
2016-08-23 10:00,2016,8,23,10:00,18.4,13.3,72.0,28.0,21.0,48.3,102.27,,,Mainly Clear,katkam-20160823100000.jpg
2016-08-23 13:00,2016,8,23,13:00,20.0,13.6,66.0,30.0,18.0,48.3,102.21,,,Mainly Clear,katkam-20160823130000.jpg
2016-08-23 16:00,2016,8,23,16:00,20.6,14.4,67.0,29.0,18.0,48.3,102.11,,,Mainly Clear,katkam-20160823160000.jpg
2016-08-23 19:00,2016,8,23,19:00,18.3,14.5,78.0,30.0,14.0,48.3,102.05,,,Mainly Clear,katkam-20160823190000.jpg
2016-08-24 07:00,2016,8,24,07:00,17.3,14.8,85.0,30.0,24.0,48.3,102.42,,,Mainly Clear,katkam-20160824070000.jpg
2016-08-24 10:00,2016,8,24,10:00,19.7,14.8,73.0,29.0,23.0,48.3,102.42,,,Clear,katkam-20160824100000.jpg
2016-08-24 13:00,2016,8,24,13:00,21.8,15.3,66.0,30.0,20.0,48.3,102.28,26.0,,Clear,katkam-20160824130000.jpg
2016-08-24 16:00,2016,8,24,16:00,23.3,15.0,59.0,30.0,15.0,48.3,102.09,27.0,,Clear,katkam-20160824160000.jpg
2016-08-24 19:00,2016,8,24,19:00,19.6,15.3,76.0,31.0,11.0,48.3,101.97,,,Mainly Clear,katkam-20160824190000.jpg
2016-08-25 07:00,2016,8,25,07:00,18.5,15.4,82.0,31.0,15.0,48.3,102.04,,,Mainly Clear,katkam-20160825070000.jpg
2016-08-25 10:00,2016,8,25,10:00,21.8,14.8,64.0,30.0,23.0,48.3,101.96,26.0,,Mainly Clear,katkam-20160825100000.jpg
2016-08-25 13:00,2016,8,25,13:00,24.0,15.4,58.0,29.0,17.0,48.3,101.78,28.0,,Mainly Clear,katkam-20160825130000.jpg
2016-08-25 16:00,2016,8,25,16:00,25.5,13.6,47.0,28.0,8.0,48.3,101.57,29.0,,Mainly Clear,katkam-20160825160000.jpg
2016-08-25 19:00,2016,8,25,19:00,20.9,13.7,63.0,30.0,7.0,48.3,101.42,,,Clear,katkam-20160825190000.jpg
2016-08-26 07:00,2016,8,26,07:00,18.3,14.3,77.0,34.0,12.0,48.3,101.36,,,Cloudy,katkam-20160826070000.jpg
2016-08-26 10:00,2016,8,26,10:00,22.5,16.2,67.0,23.0,13.0,48.3,101.27,27.0,,Mostly Cloudy,katkam-20160826100000.jpg
2016-08-26 13:00,2016,8,26,13:00,24.3,13.7,51.0,26.0,7.0,48.3,101.14,27.0,,Cloudy,katkam-20160826130000.jpg
2016-08-26 16:00,2016,8,26,16:00,25.2,13.3,47.0,23.0,6.0,48.3,100.92,28.0,,Cloudy,katkam-20160826160000.jpg
2016-08-26 19:00,2016,8,26,19:00,20.8,14.8,68.0,30.0,9.0,48.3,100.76,25.0,,Mostly Cloudy,katkam-20160826190000.jpg
2016-08-27 07:00,2016,8,27,07:00,19.1,15.0,77.0,29.0,20.0,48.3,100.69,,,Mostly Cloudy,katkam-20160827070000.jpg
2016-08-27 10:00,2016,8,27,10:00,19.1,12.9,67.0,27.0,25.0,48.3,100.78,,,Mostly Cloudy,katkam-20160827100000.jpg
2016-08-27 13:00,2016,8,27,13:00,21.6,11.5,52.0,23.0,14.0,48.3,100.9,,,Mostly Cloudy,katkam-20160827130000.jpg
2016-08-27 16:00,2016,8,27,16:00,21.1,12.9,59.0,12.0,16.0,48.3,100.97,,,Mostly Cloudy,katkam-20160827160000.jpg
2016-08-27 19:00,2016,8,27,19:00,18.4,11.3,63.0,10.0,26.0,32.2,101.09,,,Mostly Cloudy,katkam-20160827190000.jpg
2016-08-28 07:00,2016,8,28,07:00,15.8,11.2,74.0,10.0,26.0,32.2,101.75,,,Mostly Cloudy,katkam-20160828070000.jpg
2016-08-28 10:00,2016,8,28,10:00,16.1,11.7,75.0,13.0,14.0,48.3,101.84,,,Cloudy,katkam-20160828100000.jpg
2016-08-28 13:00,2016,8,28,13:00,18.3,12.8,70.0,20.0,17.0,48.3,101.86,,,Cloudy,katkam-20160828130000.jpg
2016-08-28 14:00,2016,8,28,14:00,16.7,12.9,78.0,16.0,13.0,32.2,101.87,,,Rain Showers,katkam-20160828140000.jpg
2016-08-28 16:00,2016,8,28,16:00,17.6,12.8,73.0,13.0,11.0,48.3,101.88,,,Cloudy,katkam-20160828160000.jpg
2016-08-28 17:00,2016,8,28,17:00,16.2,13.4,83.0,15.0,13.0,32.2,101.84,,,Rain Showers,katkam-20160828170000.jpg
2016-08-28 19:00,2016,8,28,19:00,16.4,13.9,85.0,36.0,5.0,32.2,101.76,,,Mostly Cloudy,katkam-20160828190000.jpg
2016-08-29 06:00,2016,8,29,06:00,14.1,13.6,97.0,10.0,10.0,4.8,101.75,,,Fog,katkam-20160829060000.jpg
2016-08-29 07:00,2016,8,29,07:00,14.2,13.6,96.0,11.0,14.0,4.8,101.76,,,Fog,katkam-20160829070000.jpg
2016-08-29 08:00,2016,8,29,08:00,15.3,14.5,95.0,9.0,18.0,4.8,101.73,,,Fog,katkam-20160829080000.jpg
2016-08-29 09:00,2016,8,29,09:00,16.4,14.8,90.0,13.0,13.0,4.8,101.71,,,Fog,katkam-20160829090000.jpg
2016-08-29 10:00,2016,8,29,10:00,18.8,14.3,75.0,11.0,14.0,32.2,101.65,,,Mainly Clear,katkam-20160829100000.jpg
2016-08-29 13:00,2016,8,29,13:00,20.1,15.4,74.0,22.0,20.0,48.3,101.5,,,Mostly Cloudy,katkam-20160829130000.jpg
2016-08-29 16:00,2016,8,29,16:00,22.4,13.3,56.0,15.0,12.0,48.3,101.38,25.0,,Mostly Cloudy,katkam-20160829160000.jpg
2016-08-29 19:00,2016,8,29,19:00,19.6,11.7,60.0,13.0,10.0,48.3,101.36,,,Mostly Cloudy,katkam-20160829190000.jpg
2016-08-30 07:00,2016,8,30,07:00,15.1,13.2,88.0,10.0,22.0,32.2,101.6,,,Cloudy,katkam-20160830070000.jpg
2016-08-30 10:00,2016,8,30,10:00,18.6,13.3,71.0,12.0,18.0,32.2,101.52,,,Mostly Cloudy,katkam-20160830100000.jpg
2016-08-30 13:00,2016,8,30,13:00,20.6,13.2,62.0,15.0,17.0,48.3,101.42,,,Mostly Cloudy,katkam-20160830130000.jpg
2016-08-30 16:00,2016,8,30,16:00,20.5,12.1,58.0,14.0,22.0,48.3,101.36,,,Mostly Cloudy,katkam-20160830160000.jpg
2016-08-30 19:00,2016,8,30,19:00,17.1,12.1,72.0,10.0,16.0,32.2,101.36,,,Mostly Cloudy,katkam-20160830190000.jpg
2016-08-31 06:00,2016,8,31,06:00,16.0,14.2,89.0,8.0,13.0,24.1,101.34,,,Rain Showers,katkam-20160831060000.jpg
2016-08-31 07:00,2016,8,31,07:00,16.3,14.3,88.0,8.0,13.0,24.1,101.33,,,Cloudy,katkam-20160831070000.jpg
2016-08-31 08:00,2016,8,31,08:00,16.2,14.8,91.0,10.0,13.0,24.1,101.36,,,Rain,katkam-20160831080000.jpg
2016-08-31 10:00,2016,8,31,10:00,17.8,15.1,84.0,9.0,16.0,24.1,101.38,,,Cloudy,katkam-20160831100000.jpg
2016-08-31 11:00,2016,8,31,11:00,17.0,14.1,83.0,11.0,21.0,32.2,101.39,,,Rain,katkam-20160831110000.jpg
2016-08-31 12:00,2016,8,31,12:00,17.5,16.0,91.0,8.0,15.0,24.1,101.37,,,Rain,katkam-20160831120000.jpg
2016-08-31 13:00,2016,8,31,13:00,17.9,14.8,82.0,12.0,23.0,24.1,101.38,,,Rain Showers,katkam-20160831130000.jpg
2016-08-31 14:00,2016,8,31,14:00,17.6,15.1,85.0,10.0,24.0,24.1,101.33,,,Rain Showers,katkam-20160831140000.jpg
2016-08-31 16:00,2016,8,31,16:00,17.5,14.6,83.0,12.0,18.0,24.1,101.34,,,Rain Showers,katkam-20160831160000.jpg
2016-08-31 19:00,2016,8,31,19:00,16.0,13.9,87.0,10.0,17.0,24.1,101.31,,,Cloudy,katkam-20160831190000.jpg
2016-09-01 07:00,2016,9,1,07:00,14.9,12.3,84.0,11.0,14.0,32.2,101.46,,,Mostly Cloudy,katkam-20160901070000.jpg
2016-09-01 10:00,2016,9,1,10:00,15.8,12.8,82.0,12.0,16.0,24.1,101.5,,,Rain,katkam-20160901100000.jpg
2016-09-01 13:00,2016,9,1,13:00,17.9,11.8,67.0,15.0,20.0,24.1,101.5,,,Cloudy,katkam-20160901130000.jpg
2016-09-01 15:00,2016,9,1,15:00,18.0,12.3,69.0,15.0,22.0,24.1,101.41,,,Rain Showers,katkam-20160901150000.jpg
2016-09-01 16:00,2016,9,1,16:00,16.6,13.0,79.0,18.0,13.0,24.1,101.4,,,Rain,katkam-20160901160000.jpg
2016-09-01 17:00,2016,9,1,17:00,16.0,13.3,84.0,18.0,9.0,24.1,101.36,,,Rain,katkam-20160901170000.jpg
2016-09-01 18:00,2016,9,1,18:00,14.9,12.4,85.0,19.0,9.0,19.3,101.33,,,Rain,katkam-20160901180000.jpg
2016-09-01 19:00,2016,9,1,19:00,14.2,12.4,89.0,11.0,4.0,24.1,101.3,,,Rain,katkam-20160901190000.jpg
2016-09-01 20:00,2016,9,1,20:00,14.6,12.7,88.0,7.0,7.0,24.1,101.27,,,Rain,katkam-20160901200000.jpg
2016-09-02 06:00,2016,9,2,06:00,12.9,12.0,94.0,10.0,16.0,12.9,101.22,,,Rain Showers,katkam-20160902060000.jpg
2016-09-02 07:00,2016,9,2,07:00,13.3,12.4,94.0,14.0,13.0,16.1,101.28,,,Cloudy,katkam-20160902070000.jpg
2016-09-02 09:00,2016,9,2,09:00,14.1,12.8,92.0,14.0,17.0,12.9,101.31,,,Rain Showers,katkam-20160902090000.jpg
2016-09-02 10:00,2016,9,2,10:00,15.0,12.9,87.0,19.0,11.0,16.1,101.33,,,Cloudy,katkam-20160902100000.jpg
2016-09-02 13:00,2016,9,2,13:00,17.1,13.1,77.0,23.0,13.0,24.1,101.39,,,Mostly Cloudy,katkam-20160902130000.jpg
2016-09-02 16:00,2016,9,2,16:00,16.3,12.1,76.0,23.0,10.0,32.2,101.4,,,Mostly Cloudy,katkam-20160902160000.jpg
2016-09-02 19:00,2016,9,2,19:00,15.7,11.5,76.0,36.0,2.0,48.3,101.42,,,Mostly Cloudy,katkam-20160902190000.jpg
2016-09-03 06:00,2016,9,3,06:00,12.5,11.7,95.0,8.0,9.0,6.4,101.51,,,"Moderate Rain Showers,Fog",katkam-20160903060000.jpg
2016-09-03 07:00,2016,9,3,07:00,12.6,11.8,95.0,8.0,12.0,16.1,101.53,,,Rain Showers,katkam-20160903070000.jpg
2016-09-03 10:00,2016,9,3,10:00,15.1,12.3,83.0,9.0,10.0,19.3,101.59,,,Mostly Cloudy,katkam-20160903100000.jpg
2016-09-03 13:00,2016,9,3,13:00,16.9,12.1,73.0,24.0,12.0,24.1,101.59,,,Mostly Cloudy,katkam-20160903130000.jpg
2016-09-03 16:00,2016,9,3,16:00,17.0,11.6,70.0,26.0,14.0,32.2,101.5,,,Mainly Clear,katkam-20160903160000.jpg
2016-09-03 19:00,2016,9,3,19:00,13.9,10.9,82.0,27.0,5.0,32.2,101.48,,,Mainly Clear,katkam-20160903190000.jpg
2016-09-04 07:00,2016,9,4,07:00,12.2,10.8,91.0,11.0,5.0,32.2,101.56,,,Mostly Cloudy,katkam-20160904070000.jpg
2016-09-04 10:00,2016,9,4,10:00,15.8,12.2,79.0,29.0,16.0,32.2,101.55,,,Mostly Cloudy,katkam-20160904100000.jpg
2016-09-04 13:00,2016,9,4,13:00,18.3,13.0,71.0,27.0,9.0,48.3,101.42,,,Mainly Clear,katkam-20160904130000.jpg
2016-09-04 16:00,2016,9,4,16:00,17.7,13.1,74.0,23.0,11.0,48.3,101.34,,,Mainly Clear,katkam-20160904160000.jpg
2016-09-04 19:00,2016,9,4,19:00,16.1,11.3,73.0,15.0,7.0,48.3,101.34,,,Mainly Clear,katkam-20160904190000.jpg
2016-09-05 07:00,2016,9,5,07:00,12.6,11.0,90.0,9.0,16.0,24.1,101.51,,,Mostly Cloudy,katkam-20160905070000.jpg
2016-09-05 10:00,2016,9,5,10:00,14.1,10.6,79.0,12.0,23.0,24.1,101.57,,,Cloudy,katkam-20160905100000.jpg
2016-09-05 13:00,2016,9,5,13:00,14.9,10.6,75.0,11.0,24.0,32.2,101.57,,,Cloudy,katkam-20160905130000.jpg
2016-09-05 15:00,2016,9,5,15:00,15.4,11.2,76.0,12.0,14.0,24.1,101.51,,,Rain Showers,katkam-20160905150000.jpg
2016-09-05 16:00,2016,9,5,16:00,15.5,10.3,71.0,14.0,17.0,24.1,101.5,,,Cloudy,katkam-20160905160000.jpg
2016-09-05 19:00,2016,9,5,19:00,14.3,10.6,78.0,13.0,10.0,32.2,101.47,,,Cloudy,katkam-20160905190000.jpg
2016-09-05 20:00,2016,9,5,20:00,13.9,11.1,83.0,10.0,12.0,32.2,101.46,,,Rain Showers,katkam-20160905200000.jpg
2016-09-06 07:00,2016,9,6,07:00,13.1,11.8,92.0,11.0,10.0,24.1,101.35,,,Cloudy,katkam-20160906070000.jpg
2016-09-06 10:00,2016,9,6,10:00,14.8,11.6,81.0,17.0,5.0,24.1,101.43,,,Cloudy,katkam-20160906100000.jpg
2016-09-06 13:00,2016,9,6,13:00,16.7,12.7,77.0,24.0,13.0,24.1,101.5,,,Mainly Clear,katkam-20160906130000.jpg
2016-09-06 16:00,2016,9,6,16:00,17.0,13.0,77.0,24.0,8.0,48.3,101.56,,,Mainly Clear,katkam-20160906160000.jpg
2016-09-06 19:00,2016,9,6,19:00,16.0,10.8,71.0,23.0,4.0,48.3,101.62,,,Mostly Cloudy,katkam-20160906190000.jpg
2016-09-07 07:00,2016,9,7,07:00,14.6,12.1,85.0,10.0,12.0,24.1,101.9,,,Cloudy,katkam-20160907070000.jpg
2016-09-07 10:00,2016,9,7,10:00,16.1,12.5,79.0,14.0,14.0,24.1,101.93,,,Cloudy,katkam-20160907100000.jpg
2016-09-07 13:00,2016,9,7,13:00,16.4,12.8,79.0,13.0,10.0,24.1,101.92,,,Rain,katkam-20160907130000.jpg
2016-09-07 14:00,2016,9,7,14:00,15.6,13.6,88.0,14.0,11.0,19.3,101.94,,,Rain,katkam-20160907140000.jpg
2016-09-07 15:00,2016,9,7,15:00,15.2,12.9,86.0,20.0,21.0,24.1,101.94,,,Rain,katkam-20160907150000.jpg
2016-09-07 16:00,2016,9,7,16:00,14.9,12.3,84.0,19.0,15.0,24.1,101.94,,,Cloudy,katkam-20160907160000.jpg
2016-09-07 17:00,2016,9,7,17:00,14.6,12.1,85.0,14.0,10.0,24.1,101.92,,,Rain,katkam-20160907170000.jpg
2016-09-07 19:00,2016,9,7,19:00,13.8,12.2,90.0,9.0,18.0,24.1,101.91,,,Cloudy,katkam-20160907190000.jpg
2016-09-08 07:00,2016,9,8,07:00,15.1,14.0,93.0,27.0,13.0,24.1,102.14,,,Mainly Clear,katkam-20160908070000.jpg
2016-09-08 10:00,2016,9,8,10:00,16.9,13.5,80.0,26.0,27.0,32.2,102.25,,,Mostly Cloudy,katkam-20160908100000.jpg
2016-09-08 13:00,2016,9,8,13:00,17.9,12.6,71.0,26.0,27.0,32.2,102.32,,,Mainly Clear,katkam-20160908130000.jpg
2016-09-08 16:00,2016,9,8,16:00,18.8,11.9,64.0,28.0,23.0,48.3,102.33,,,Mainly Clear,katkam-20160908160000.jpg
2016-09-08 19:00,2016,9,8,19:00,15.8,10.6,71.0,26.0,7.0,48.3,102.41,,,Mainly Clear,katkam-20160908190000.jpg
2016-09-09 07:00,2016,9,9,07:00,12.6,10.9,89.0,16.0,5.0,48.3,102.75,,,Mostly Cloudy,katkam-20160909070000.jpg
2016-09-09 10:00,2016,9,9,10:00,15.9,11.9,77.0,23.0,10.0,48.3,102.72,,,Mostly Cloudy,katkam-20160909100000.jpg
2016-09-09 13:00,2016,9,9,13:00,17.5,11.2,66.0,25.0,11.0,48.3,102.64,,,Mostly Cloudy,katkam-20160909130000.jpg
2016-09-09 16:00,2016,9,9,16:00,20.7,11.2,54.0,27.0,4.0,48.3,102.45,,,Mostly Cloudy,katkam-20160909160000.jpg
2016-09-09 19:00,2016,9,9,19:00,15.9,11.1,73.0,36.0,2.0,48.3,102.29,,,Mainly Clear,katkam-20160909190000.jpg
2016-09-10 07:00,2016,9,10,07:00,14.9,11.7,81.0,13.0,11.0,48.3,102.01,,,Mostly Cloudy,katkam-20160910070000.jpg
2016-09-10 10:00,2016,9,10,10:00,19.6,11.2,58.0,15.0,16.0,48.3,101.91,,,Mainly Clear,katkam-20160910100000.jpg
2016-09-10 13:00,2016,9,10,13:00,19.6,14.1,70.0,29.0,17.0,48.3,101.81,,,Mostly Cloudy,katkam-20160910130000.jpg
2016-09-10 16:00,2016,9,10,16:00,17.6,13.4,76.0,28.0,17.0,48.3,101.76,,,Mostly Cloudy,katkam-20160910160000.jpg
2016-09-10 19:00,2016,9,10,19:00,16.9,13.1,78.0,28.0,29.0,48.3,101.64,,,Mostly Cloudy,katkam-20160910190000.jpg
2016-09-11 07:00,2016,9,11,07:00,14.0,10.3,78.0,1.0,10.0,48.3,102.0,,,Mainly Clear,katkam-20160911070000.jpg
2016-09-11 10:00,2016,9,11,10:00,17.3,11.6,69.0,30.0,21.0,48.3,102.12,,,Mainly Clear,katkam-20160911100000.jpg
2016-09-11 13:00,2016,9,11,13:00,17.7,11.8,68.0,28.0,24.0,48.3,102.14,,,Mainly Clear,katkam-20160911130000.jpg
2016-09-11 16:00,2016,9,11,16:00,17.4,12.4,72.0,28.0,19.0,48.3,102.07,,,Clear,katkam-20160911160000.jpg
2016-09-11 19:00,2016,9,11,19:00,14.1,11.6,85.0,30.0,9.0,48.3,102.07,,,Mainly Clear,katkam-20160911190000.jpg
2016-09-12 07:00,2016,9,12,07:00,14.2,12.4,89.0,30.0,16.0,48.3,102.39,,,Clear,katkam-20160912070000.jpg
2016-09-12 10:00,2016,9,12,10:00,16.7,12.9,78.0,28.0,26.0,48.3,102.39,,,Clear,katkam-20160912100000.jpg
2016-09-12 13:00,2016,9,12,13:00,18.0,12.7,71.0,31.0,26.0,48.3,102.24,,,Clear,katkam-20160912130000.jpg
2016-09-12 16:00,2016,9,12,16:00,18.7,12.8,68.0,29.0,16.0,48.3,102.07,,,Clear,katkam-20160912160000.jpg
2016-09-12 19:00,2016,9,12,19:00,15.0,11.6,80.0,30.0,15.0,48.3,101.95,,,Mainly Clear,katkam-20160912190000.jpg
2016-09-13 07:00,2016,9,13,07:00,12.1,9.7,85.0,1.0,4.0,48.3,101.89,,,Mainly Clear,katkam-20160913070000.jpg
2016-09-13 10:00,2016,9,13,10:00,17.4,11.5,68.0,29.0,21.0,48.3,101.83,,,Clear,katkam-20160913100000.jpg
2016-09-13 13:00,2016,9,13,13:00,18.8,12.6,67.0,29.0,15.0,48.3,101.66,,,Clear,katkam-20160913130000.jpg
2016-09-13 16:00,2016,9,13,16:00,18.6,12.0,65.0,28.0,13.0,48.3,101.41,,,Clear,katkam-20160913160000.jpg
2016-09-13 19:00,2016,9,13,19:00,15.6,12.0,79.0,26.0,7.0,48.3,101.29,,,Clear,katkam-20160913190000.jpg
2016-09-14 07:00,2016,9,14,07:00,13.0,10.6,85.0,13.0,6.0,48.3,101.6,,,Mainly Clear,katkam-20160914070000.jpg
2016-09-14 10:00,2016,9,14,10:00,17.5,11.2,66.0,26.0,10.0,48.3,101.67,,,Mainly Clear,katkam-20160914100000.jpg
2016-09-14 13:00,2016,9,14,13:00,19.4,11.0,58.0,25.0,10.0,48.3,101.66,,,Mainly Clear,katkam-20160914130000.jpg
2016-09-14 16:00,2016,9,14,16:00,17.1,13.5,79.0,24.0,7.0,48.3,101.66,,,Mainly Clear,katkam-20160914160000.jpg
2016-09-14 19:00,2016,9,14,19:00,15.1,13.0,87.0,36.0,2.0,48.3,101.7,,,Mostly Cloudy,katkam-20160914190000.jpg
2016-09-15 07:00,2016,9,15,07:00,13.0,11.1,88.0,10.0,10.0,48.3,102.13,,,Clear,katkam-20160915070000.jpg
2016-09-15 10:00,2016,9,15,10:00,18.2,11.4,64.0,11.0,9.0,48.3,102.14,,,Mainly Clear,katkam-20160915100000.jpg
2016-09-15 13:00,2016,9,15,13:00,18.4,13.3,72.0,24.0,16.0,48.3,102.03,,,Mainly Clear,katkam-20160915130000.jpg
2016-09-15 16:00,2016,9,15,16:00,18.1,12.8,71.0,25.0,10.0,48.3,101.91,,,Mainly Clear,katkam-20160915160000.jpg
2016-09-15 19:00,2016,9,15,19:00,15.7,13.0,84.0,36.0,1.0,48.3,101.87,,,Mainly Clear,katkam-20160915190000.jpg
2016-09-16 07:00,2016,9,16,07:00,14.5,11.9,84.0,13.0,14.0,32.2,101.76,,,Mostly Cloudy,katkam-20160916070000.jpg
2016-09-16 10:00,2016,9,16,10:00,19.4,12.3,63.0,13.0,17.0,32.2,101.69,,,Mostly Cloudy,katkam-20160916100000.jpg
2016-09-16 13:00,2016,9,16,13:00,18.9,12.3,65.0,14.0,14.0,32.2,101.57,,,Cloudy,katkam-20160916130000.jpg
2016-09-16 16:00,2016,9,16,16:00,17.6,12.4,71.0,19.0,16.0,32.2,101.47,,,Cloudy,katkam-20160916160000.jpg
2016-09-16 19:00,2016,9,16,19:00,15.6,13.3,86.0,6.0,7.0,19.3,101.38,,,Rain,katkam-20160916190000.jpg
2016-09-17 06:00,2016,9,17,06:00,12.9,12.4,97.0,10.0,16.0,8.1,101.06,,,"Rain,Fog",katkam-20160917060000.jpg
2016-09-17 07:00,2016,9,17,07:00,12.9,12.3,96.0,9.0,16.0,12.9,100.98,,,Rain,katkam-20160917070000.jpg
2016-09-17 08:00,2016,9,17,08:00,13.3,12.5,95.0,9.0,15.0,12.9,100.9,,,Rain,katkam-20160917080000.jpg
2016-09-17 09:00,2016,9,17,09:00,13.4,12.8,96.0,13.0,19.0,8.1,100.89,,,"Rain,Fog",katkam-20160917090000.jpg
2016-09-17 10:00,2016,9,17,10:00,13.6,13.0,96.0,11.0,15.0,12.9,100.87,,,Rain,katkam-20160917100000.jpg
2016-09-17 11:00,2016,9,17,11:00,14.1,13.2,94.0,7.0,9.0,12.9,100.9,,,Rain,katkam-20160917110000.jpg
2016-09-17 13:00,2016,9,17,13:00,14.9,13.6,92.0,8.0,12.0,16.1,100.88,,,Cloudy,katkam-20160917130000.jpg
2016-09-17 16:00,2016,9,17,16:00,17.8,13.6,76.0,21.0,14.0,24.1,100.94,,,Mainly Clear,katkam-20160917160000.jpg
2016-09-17 19:00,2016,9,17,19:00,15.8,11.6,76.0,21.0,26.0,32.2,101.07,,,Mainly Clear,katkam-20160917190000.jpg
2016-09-18 07:00,2016,9,18,07:00,12.4,11.2,92.0,9.0,16.0,32.2,101.64,,,Mainly Clear,katkam-20160918070000.jpg
2016-09-18 10:00,2016,9,18,10:00,16.8,11.6,71.0,9.0,19.0,32.2,101.68,,,Mainly Clear,katkam-20160918100000.jpg
2016-09-18 13:00,2016,9,18,13:00,19.1,10.2,56.0,12.0,13.0,32.2,101.66,,,Mainly Clear,katkam-20160918130000.jpg
2016-09-18 16:00,2016,9,18,16:00,18.9,10.0,56.0,16.0,18.0,32.2,101.57,,,Mostly Cloudy,katkam-20160918160000.jpg
2016-09-18 19:00,2016,9,18,19:00,15.3,10.5,73.0,15.0,9.0,24.1,101.59,,,Mostly Cloudy,katkam-20160918190000.jpg
2016-09-19 06:00,2016,9,19,06:00,13.3,12.2,93.0,7.0,6.0,12.9,101.49,,,Rain Showers,katkam-20160919060000.jpg
2016-09-19 07:00,2016,9,19,07:00,13.1,12.2,94.0,15.0,17.0,12.9,101.5,,,Rain Showers,katkam-20160919070000.jpg
2016-09-19 08:00,2016,9,19,08:00,12.5,11.4,93.0,21.0,21.0,8.1,101.55,,,"Moderate Rain Showers,Fog",katkam-20160919080000.jpg
2016-09-19 09:00,2016,9,19,09:00,13.0,11.6,91.0,16.0,12.0,12.9,101.56,,,Rain Showers,katkam-20160919090000.jpg
2016-09-19 10:00,2016,9,19,10:00,14.2,11.7,85.0,14.0,11.0,24.1,101.66,,,Mostly Cloudy,katkam-20160919100000.jpg
2016-09-19 13:00,2016,9,19,13:00,17.2,10.2,63.0,20.0,17.0,32.2,101.73,,,Mainly Clear,katkam-20160919130000.jpg
2016-09-19 14:00,2016,9,19,14:00,15.8,11.0,73.0,21.0,23.0,32.2,101.74,,,Rain Showers,katkam-20160919140000.jpg
2016-09-19 15:00,2016,9,19,15:00,15.1,9.5,69.0,24.0,11.0,32.2,101.78,,,Rain Showers,katkam-20160919150000.jpg
2016-09-19 16:00,2016,9,19,16:00,15.9,10.5,70.0,25.0,4.0,32.2,101.79,,,Mostly Cloudy,katkam-20160919160000.jpg
2016-09-19 19:00,2016,9,19,19:00,14.1,10.2,77.0,8.0,19.0,32.2,101.91,,,Mostly Cloudy,katkam-20160919190000.jpg
2016-09-20 07:00,2016,9,20,07:00,11.5,11.1,97.0,36.0,1.0,48.3,102.15,,,Mostly Cloudy,katkam-20160920070000.jpg
2016-09-20 10:00,2016,9,20,10:00,15.7,10.5,71.0,30.0,16.0,48.3,102.11,,,Mainly Clear,katkam-20160920100000.jpg
2016-09-20 13:00,2016,9,20,13:00,15.8,12.2,79.0,28.0,29.0,48.3,102.04,,,Mainly Clear,katkam-20160920130000.jpg
2016-09-20 16:00,2016,9,20,16:00,16.1,11.7,75.0,29.0,30.0,48.3,101.89,,,Mainly Clear,katkam-20160920160000.jpg
2016-09-20 19:00,2016,9,20,19:00,14.5,11.9,84.0,31.0,22.0,48.3,101.86,,,Mainly Clear,katkam-20160920190000.jpg
2016-09-21 07:00,2016,9,21,07:00,12.9,11.5,91.0,30.0,20.0,48.3,101.93,,,Clear,katkam-20160921070000.jpg
2016-09-21 10:00,2016,9,21,10:00,15.1,12.1,82.0,29.0,30.0,48.3,101.88,,,Clear,katkam-20160921100000.jpg
2016-09-21 13:00,2016,9,21,13:00,16.3,12.7,79.0,29.0,28.0,48.3,101.72,,,Clear,katkam-20160921130000.jpg
2016-09-21 16:00,2016,9,21,16:00,16.7,12.3,75.0,31.0,19.0,48.3,101.51,,,Mainly Clear,katkam-20160921160000.jpg
2016-09-21 19:00,2016,9,21,19:00,14.3,11.7,84.0,31.0,20.0,32.2,101.36,,,Clear,katkam-20160921190000.jpg
2016-09-22 07:00,2016,9,22,07:00,10.3,8.4,88.0,7.0,5.0,48.3,101.53,,,Clear,katkam-20160922070000.jpg
2016-09-22 10:00,2016,9,22,10:00,16.6,11.0,69.0,14.0,10.0,48.3,101.61,,,Clear,katkam-20160922100000.jpg
2016-09-22 13:00,2016,9,22,13:00,16.2,11.8,75.0,24.0,12.0,48.3,101.6,,,Clear,katkam-20160922130000.jpg
2016-09-22 16:00,2016,9,22,16:00,18.9,8.9,52.0,16.0,12.0,48.3,101.53,,,Clear,katkam-20160922160000.jpg
2016-09-22 19:00,2016,9,22,19:00,14.8,9.7,71.0,8.0,18.0,32.2,101.5,,,Mainly Clear,katkam-20160922190000.jpg
2016-09-23 06:00,2016,9,23,06:00,11.8,10.9,94.0,10.0,21.0,9.7,101.52,,,"Rain,Fog",katkam-20160923060000.jpg
2016-09-23 07:00,2016,9,23,07:00,11.9,11.0,94.0,9.0,18.0,8.1,101.49,,,"Rain,Fog",katkam-20160923070000.jpg
2016-09-23 08:00,2016,9,23,08:00,12.4,10.7,89.0,7.0,21.0,24.1,101.42,,,Rain,katkam-20160923080000.jpg
2016-09-23 09:00,2016,9,23,09:00,12.2,10.0,86.0,6.0,25.0,24.1,101.4,,,Rain,katkam-20160923090000.jpg
2016-09-23 10:00,2016,9,23,10:00,11.8,9.7,87.0,7.0,23.0,16.1,101.42,,,Rain,katkam-20160923100000.jpg
2016-09-23 11:00,2016,9,23,11:00,11.8,10.2,90.0,8.0,17.0,12.9,101.44,,,Rain,katkam-20160923110000.jpg
2016-09-23 12:00,2016,9,23,12:00,11.5,10.3,92.0,6.0,22.0,19.3,101.45,,,Drizzle,katkam-20160923120000.jpg
2016-09-23 13:00,2016,9,23,13:00,11.9,10.3,90.0,8.0,24.0,16.1,101.45,,,Drizzle,katkam-20160923130000.jpg
2016-09-23 14:00,2016,9,23,14:00,11.9,10.7,92.0,6.0,18.0,16.1,101.49,,,"Rain,Drizzle",katkam-20160923140000.jpg
2016-09-23 15:00,2016,9,23,15:00,12.2,11.1,93.0,6.0,13.0,16.1,101.56,,,Drizzle,katkam-20160923150000.jpg
2016-09-23 16:00,2016,9,23,16:00,12.3,11.2,93.0,7.0,19.0,16.1,101.6,,,Rain Showers,katkam-20160923160000.jpg
2016-09-23 19:00,2016,9,23,19:00,12.7,11.3,91.0,35.0,4.0,12.9,101.82,,,Drizzle,katkam-20160923190000.jpg
2016-09-24 07:00,2016,9,24,07:00,11.6,10.4,92.0,7.0,4.0,24.1,102.68,,,Mostly Cloudy,katkam-20160924070000.jpg
2016-09-24 10:00,2016,9,24,10:00,13.3,11.0,86.0,22.0,9.0,24.1,102.9,,,Cloudy,katkam-20160924100000.jpg
2016-09-24 13:00,2016,9,24,13:00,15.8,9.8,67.0,17.0,9.0,32.2,102.83,,,Cloudy,katkam-20160924130000.jpg
2016-09-24 16:00,2016,9,24,16:00,15.3,11.3,77.0,31.0,4.0,32.2,102.7,,,Cloudy,katkam-20160924160000.jpg
2016-09-24 19:00,2016,9,24,19:00,14.4,12.1,86.0,36.0,7.0,24.1,102.78,,,Rain,katkam-20160924190000.jpg
2016-09-25 07:00,2016,9,25,07:00,13.6,10.1,79.0,5.0,8.0,24.1,102.92,,,Cloudy,katkam-20160925070000.jpg
2016-09-25 10:00,2016,9,25,10:00,15.3,10.9,75.0,5.0,14.0,32.2,103.0,,,Cloudy,katkam-20160925100000.jpg
2016-09-25 13:00,2016,9,25,13:00,18.3,10.0,58.0,9.0,9.0,40.2,102.95,,,Mostly Cloudy,katkam-20160925130000.jpg
2016-09-25 16:00,2016,9,25,16:00,19.3,11.7,61.0,1.0,7.0,48.3,102.77,,,Mostly Cloudy,katkam-20160925160000.jpg
2016-09-25 19:00,2016,9,25,19:00,13.5,11.6,88.0,33.0,5.0,48.3,102.62,,,Mostly Cloudy,katkam-20160925190000.jpg
2016-09-26 07:00,2016,9,26,07:00,13.6,13.1,97.0,30.0,7.0,48.3,102.02,,,Mostly Cloudy,katkam-20160926070000.jpg
2016-09-26 10:00,2016,9,26,10:00,16.2,13.0,81.0,24.0,7.0,48.3,101.89,,,Mostly Cloudy,katkam-20160926100000.jpg
2016-09-26 13:00,2016,9,26,13:00,16.2,13.4,83.0,28.0,8.0,48.3,101.72,,,Mostly Cloudy,katkam-20160926130000.jpg
2016-09-26 16:00,2016,9,26,16:00,14.7,13.6,93.0,28.0,9.0,48.3,101.6,,,Mostly Cloudy,katkam-20160926160000.jpg
2016-09-26 19:00,2016,9,26,19:00,14.7,13.6,93.0,27.0,7.0,32.2,101.59,,,Mostly Cloudy,katkam-20160926190000.jpg
2016-09-27 07:00,2016,9,27,07:00,12.5,9.5,82.0,29.0,38.0,48.3,102.12,,,Mainly Clear,katkam-20160927070000.jpg
2016-09-27 10:00,2016,9,27,10:00,14.3,10.9,80.0,30.0,28.0,32.2,102.29,,,Mostly Cloudy,katkam-20160927100000.jpg
2016-09-27 13:00,2016,9,27,13:00,15.4,10.8,74.0,30.0,23.0,48.3,102.27,,,Mainly Clear,katkam-20160927130000.jpg
2016-09-27 16:00,2016,9,27,16:00,14.7,11.0,78.0,30.0,24.0,48.3,102.15,,,Mostly Cloudy,katkam-20160927160000.jpg
2016-09-27 19:00,2016,9,27,19:00,13.1,11.2,88.0,30.0,19.0,48.3,102.05,,,Mainly Clear,katkam-20160927190000.jpg
2016-09-28 07:00,2016,9,28,07:00,11.5,10.3,92.0,30.0,28.0,40.2,101.97,,,Mainly Clear,katkam-20160928070000.jpg
2016-09-28 10:00,2016,9,28,10:00,13.1,10.5,84.0,30.0,32.0,48.3,102.0,,,Mainly Clear,katkam-20160928100000.jpg
2016-09-28 13:00,2016,9,28,13:00,14.4,11.2,81.0,30.0,26.0,48.3,101.85,,,Clear,katkam-20160928130000.jpg
2016-09-28 16:00,2016,9,28,16:00,14.1,11.5,84.0,29.0,16.0,48.3,101.71,,,Mainly Clear,katkam-20160928160000.jpg
2016-09-28 19:00,2016,9,28,19:00,11.7,9.8,88.0,36.0,3.0,48.3,101.67,,,Clear,katkam-20160928190000.jpg
2016-09-29 07:00,2016,9,29,07:00,8.6,7.7,94.0,32.0,5.0,48.3,101.79,,,Cloudy,katkam-20160929070000.jpg
2016-09-29 10:00,2016,9,29,10:00,13.1,10.3,83.0,29.0,21.0,48.3,101.84,,,Mainly Clear,katkam-20160929100000.jpg
2016-09-29 13:00,2016,9,29,13:00,14.7,10.8,77.0,29.0,17.0,48.3,101.78,,,Mainly Clear,katkam-20160929130000.jpg
2016-09-29 16:00,2016,9,29,16:00,13.1,9.6,79.0,26.0,10.0,48.3,101.72,,,Cloudy,katkam-20160929160000.jpg
2016-09-29 19:00,2016,9,29,19:00,12.1,8.6,79.0,16.0,5.0,48.3,101.73,,,Mostly Cloudy,katkam-20160929190000.jpg
2016-09-30 07:00,2016,9,30,07:00,9.4,8.7,95.0,11.0,10.0,12.9,101.72,,,Cloudy,katkam-20160930070000.jpg
2016-09-30 10:00,2016,9,30,10:00,12.5,10.6,88.0,23.0,9.0,12.9,101.68,,,Mostly Cloudy,katkam-20160930100000.jpg
2016-09-30 13:00,2016,9,30,13:00,13.0,10.6,85.0,27.0,11.0,24.1,101.52,,,Mainly Clear,katkam-20160930130000.jpg
2016-09-30 16:00,2016,9,30,16:00,14.2,9.9,75.0,28.0,6.0,24.1,101.38,,,Mainly Clear,katkam-20160930160000.jpg
2016-09-30 19:00,2016,9,30,19:00,9.6,8.1,90.0,2.0,3.0,32.2,101.32,,,Mainly Clear,katkam-20160930190000.jpg
2016-10-01 07:00,2016,10,1,07:00,11.7,8.2,79.0,5.0,12.0,24.1,101.24,,,Cloudy,katkam-20161001070000.jpg
2016-10-01 08:00,2016,10,1,08:00,12.5,7.8,73.0,6.0,16.0,24.1,101.24,,,Rain Showers,katkam-20161001080000.jpg
2016-10-01 09:00,2016,10,1,09:00,13.6,9.3,75.0,8.0,16.0,24.1,101.21,,,Rain Showers,katkam-20161001090000.jpg
2016-10-01 10:00,2016,10,1,10:00,14.3,8.3,67.0,10.0,23.0,24.1,101.22,,,Mostly Cloudy,katkam-20161001100000.jpg
2016-10-01 13:00,2016,10,1,13:00,14.1,8.6,69.0,13.0,24.0,19.3,101.27,,,Cloudy,katkam-20161001130000.jpg
2016-10-01 14:00,2016,10,1,14:00,13.7,10.7,82.0,12.0,18.0,24.1,101.32,,,Rain Showers,katkam-20161001140000.jpg
2016-10-01 15:00,2016,10,1,15:00,13.7,10.7,82.0,10.0,15.0,19.3,101.36,,,Rain Showers,katkam-20161001150000.jpg
2016-10-01 16:00,2016,10,1,16:00,13.6,9.7,77.0,12.0,27.0,24.1,101.4,,,Mostly Cloudy,katkam-20161001160000.jpg
2016-10-01 19:00,2016,10,1,19:00,12.7,9.2,79.0,9.0,14.0,24.1,101.44,,,Mostly Cloudy,katkam-20161001190000.jpg
2016-10-02 06:00,2016,10,2,06:00,10.8,8.9,88.0,10.0,8.0,24.1,101.38,,,Rain Showers,katkam-20161002060000.jpg
2016-10-02 07:00,2016,10,2,07:00,10.8,8.9,88.0,24.0,4.0,32.2,101.38,,,Mostly Cloudy,katkam-20161002070000.jpg
2016-10-02 10:00,2016,10,2,10:00,13.2,10.4,83.0,33.0,10.0,32.2,101.43,,,Mostly Cloudy,katkam-20161002100000.jpg
2016-10-02 13:00,2016,10,2,13:00,14.6,10.7,77.0,29.0,21.0,48.3,101.3,,,Mainly Clear,katkam-20161002130000.jpg
2016-10-02 16:00,2016,10,2,16:00,14.3,10.6,78.0,28.0,21.0,48.3,101.19,,,Mainly Clear,katkam-20161002160000.jpg
2016-10-02 19:00,2016,10,2,19:00,10.1,9.0,93.0,30.0,9.0,32.2,101.17,,,Mainly Clear,katkam-20161002190000.jpg
2016-10-03 07:00,2016,10,3,07:00,10.2,8.7,90.0,10.0,13.0,24.1,101.2,,,Mostly Cloudy,katkam-20161003070000.jpg
2016-10-03 10:00,2016,10,3,10:00,12.7,9.6,81.0,11.0,21.0,24.1,101.24,,,Mostly Cloudy,katkam-20161003100000.jpg
2016-10-03 13:00,2016,10,3,13:00,14.9,9.3,69.0,11.0,21.0,32.2,101.13,,,Mostly Cloudy,katkam-20161003130000.jpg
2016-10-03 16:00,2016,10,3,16:00,14.7,6.3,57.0,12.0,25.0,32.2,101.0,,,Cloudy,katkam-20161003160000.jpg
2016-10-03 19:00,2016,10,3,19:00,13.4,7.5,67.0,10.0,13.0,24.1,100.95,,,Cloudy,katkam-20161003190000.jpg
2016-10-04 07:00,2016,10,4,07:00,11.0,9.9,93.0,9.0,20.0,24.1,100.92,,,Cloudy,katkam-20161004070000.jpg
2016-10-04 10:00,2016,10,4,10:00,12.8,10.9,88.0,10.0,19.0,24.1,100.98,,,Cloudy,katkam-20161004100000.jpg
2016-10-04 13:00,2016,10,4,13:00,14.8,10.1,73.0,12.0,26.0,24.1,100.93,,,Cloudy,katkam-20161004130000.jpg
2016-10-04 16:00,2016,10,4,16:00,15.0,9.6,70.0,13.0,27.0,24.1,100.91,,,Cloudy,katkam-20161004160000.jpg
2016-10-04 19:00,2016,10,4,19:00,13.4,10.4,82.0,9.0,16.0,24.1,100.95,,,Rain,katkam-20161004190000.jpg
2016-10-05 07:00,2016,10,5,07:00,12.6,9.8,83.0,8.0,9.0,48.3,101.16,,,Cloudy,katkam-20161005070000.jpg
2016-10-05 10:00,2016,10,5,10:00,15.1,11.3,78.0,25.0,12.0,48.3,101.27,,,Mostly Cloudy,katkam-20161005100000.jpg
2016-10-05 13:00,2016,10,5,13:00,15.1,11.9,81.0,29.0,30.0,48.3,101.32,,,Mainly Clear,katkam-20161005130000.jpg
2016-10-05 16:00,2016,10,5,16:00,13.7,11.3,85.0,29.0,30.0,48.3,101.4,,,Mainly Clear,katkam-20161005160000.jpg
2016-10-05 19:00,2016,10,5,19:00,13.0,11.1,88.0,30.0,17.0,32.2,101.49,,,Cloudy,katkam-20161005190000.jpg
2016-10-06 07:00,2016,10,6,07:00,11.7,10.9,95.0,15.0,5.0,24.1,101.77,,,Cloudy,katkam-20161006070000.jpg
2016-10-06 10:00,2016,10,6,10:00,13.0,11.3,89.0,11.0,13.0,24.1,101.79,,,Cloudy,katkam-20161006100000.jpg
2016-10-06 13:00,2016,10,6,13:00,13.1,10.3,83.0,13.0,24.0,24.1,101.68,,,Cloudy,katkam-20161006130000.jpg
2016-10-06 16:00,2016,10,6,16:00,12.9,11.0,88.0,9.0,22.0,24.1,101.39,,,Rain,katkam-20161006160000.jpg
2016-10-06 17:00,2016,10,6,17:00,12.7,11.0,89.0,8.0,23.0,19.3,101.29,,,Rain,katkam-20161006170000.jpg
2016-10-06 18:00,2016,10,6,18:00,12.2,10.3,88.0,9.0,30.0,16.1,101.15,,,Rain,katkam-20161006180000.jpg
2016-10-06 19:00,2016,10,6,19:00,11.8,10.4,91.0,8.0,31.0,9.7,101.01,,,"Rain,Fog",katkam-20161006190000.jpg
2016-10-07 07:00,2016,10,7,07:00,12.4,7.7,73.0,17.0,34.0,24.1,100.7,,,Mostly Cloudy,katkam-20161007070000.jpg
2016-10-07 10:00,2016,10,7,10:00,13.8,8.7,71.0,19.0,22.0,24.1,101.13,,,Cloudy,katkam-20161007100000.jpg
2016-10-07 13:00,2016,10,7,13:00,14.6,8.4,66.0,22.0,10.0,48.3,101.48,,,Mostly Cloudy,katkam-20161007130000.jpg
2016-10-07 16:00,2016,10,7,16:00,14.8,8.4,65.0,20.0,9.0,48.3,101.63,,,Cloudy,katkam-20161007160000.jpg
2016-10-07 19:00,2016,10,7,19:00,12.7,6.8,67.0,15.0,12.0,32.2,101.71,,,Cloudy,katkam-20161007190000.jpg
2016-10-08 06:00,2016,10,8,06:00,10.0,9.1,94.0,10.0,10.0,16.1,101.14,,,Rain,katkam-20161008060000.jpg
2016-10-08 07:00,2016,10,8,07:00,10.1,9.3,95.0,4.0,7.0,16.1,101.07,,,Rain,katkam-20161008070000.jpg
2016-10-08 08:00,2016,10,8,08:00,10.0,9.1,94.0,8.0,13.0,16.1,100.93,,,Moderate Rain,katkam-20161008080000.jpg
2016-10-08 09:00,2016,10,8,09:00,9.7,8.6,93.0,1.0,9.0,16.1,100.91,,,Moderate Rain,katkam-20161008090000.jpg
2016-10-08 10:00,2016,10,8,10:00,10.0,9.1,94.0,36.0,1.0,16.1,100.86,,,Cloudy,katkam-20161008100000.jpg
2016-10-08 11:00,2016,10,8,11:00,10.2,9.1,93.0,36.0,1.0,16.1,100.88,,,"Rain,Drizzle",katkam-20161008110000.jpg
2016-10-08 12:00,2016,10,8,12:00,10.7,9.6,93.0,9.0,17.0,16.1,100.73,,,Drizzle,katkam-20161008120000.jpg
2016-10-08 13:00,2016,10,8,13:00,10.7,10.1,96.0,28.0,7.0,8.1,100.78,,,"Moderate Rain,Drizzle",katkam-20161008130000.jpg
2016-10-08 14:00,2016,10,8,14:00,9.3,8.6,95.0,32.0,26.0,6.4,100.78,,,"Rain,Drizzle",katkam-20161008140000.jpg
2016-10-08 15:00,2016,10,8,15:00,10.0,9.2,95.0,32.0,18.0,8.1,100.75,,,Drizzle,katkam-20161008150000.jpg
2016-10-08 16:00,2016,10,8,16:00,9.5,8.8,95.0,31.0,24.0,8.1,100.76,,,"Drizzle,Fog",katkam-20161008160000.jpg
2016-10-08 17:00,2016,10,8,17:00,9.2,8.0,92.0,32.0,26.0,12.9,100.77,,,"Drizzle,Fog",katkam-20161008170000.jpg
2016-10-08 19:00,2016,10,8,19:00,9.5,8.6,94.0,31.0,18.0,12.9,100.84,,,Cloudy,katkam-20161008190000.jpg
2016-10-09 07:00,2016,10,9,07:00,6.4,5.7,95.0,34.0,5.0,24.1,101.58,,,Mostly Cloudy,katkam-20161009070000.jpg
2016-10-09 10:00,2016,10,9,10:00,12.0,9.4,84.0,25.0,10.0,32.2,101.64,,,Mostly Cloudy,katkam-20161009100000.jpg
2016-10-09 13:00,2016,10,9,13:00,12.7,9.0,78.0,29.0,18.0,48.3,101.58,,,Mostly Cloudy,katkam-20161009130000.jpg
2016-10-09 16:00,2016,10,9,16:00,12.1,8.4,78.0,31.0,21.0,48.3,101.47,,,Mainly Clear,katkam-20161009160000.jpg
2016-10-09 19:00,2016,10,9,19:00,9.8,8.3,90.0,30.0,15.0,32.2,101.4,,,Mainly Clear,katkam-20161009190000.jpg
2016-10-10 07:00,2016,10,10,07:00,7.8,6.6,92.0,1.0,5.0,48.3,101.75,,,Mostly Cloudy,katkam-20161010070000.jpg
2016-10-10 10:00,2016,10,10,10:00,11.4,7.5,77.0,12.0,12.0,48.3,101.92,,,Mostly Cloudy,katkam-20161010100000.jpg
2016-10-10 13:00,2016,10,10,13:00,11.4,7.0,74.0,27.0,11.0,48.3,101.96,,,Mostly Cloudy,katkam-20161010130000.jpg
2016-10-10 16:00,2016,10,10,16:00,10.9,8.0,82.0,30.0,13.0,48.3,101.93,,,Mainly Clear,katkam-20161010160000.jpg
2016-10-10 19:00,2016,10,10,19:00,8.7,4.2,73.0,3.0,7.0,48.3,102.0,,,Mainly Clear,katkam-20161010190000.jpg
2016-10-11 07:00,2016,10,11,07:00,3.8,-1.4,69.0,36.0,2.0,48.3,102.33,,,Clear,katkam-20161011070000.jpg
2016-10-11 10:00,2016,10,11,10:00,10.2,0.8,52.0,22.0,7.0,48.3,102.44,,,Clear,katkam-20161011100000.jpg
2016-10-11 13:00,2016,10,11,13:00,11.7,1.1,48.0,28.0,18.0,48.3,102.37,,,Clear,katkam-20161011130000.jpg
2016-10-11 16:00,2016,10,11,16:00,11.5,5.2,65.0,30.0,14.0,48.3,102.22,,,Clear,katkam-20161011160000.jpg
2016-10-11 19:00,2016,10,11,19:00,8.6,3.5,70.0,1.0,9.0,48.3,102.14,,,Clear,katkam-20161011190000.jpg
2016-10-12 07:00,2016,10,12,07:00,3.3,1.5,88.0,10.0,13.0,48.3,101.96,,,Mainly Clear,katkam-20161012070000.jpg
2016-10-12 10:00,2016,10,12,10:00,10.7,3.1,59.0,12.0,5.0,48.3,101.82,,,Mainly Clear,katkam-20161012100000.jpg
2016-10-12 13:00,2016,10,12,13:00,11.3,4.8,64.0,23.0,14.0,48.3,101.6,,,Mostly Cloudy,katkam-20161012130000.jpg
2016-10-12 16:00,2016,10,12,16:00,12.0,5.0,62.0,2.0,10.0,48.3,101.27,,,Cloudy,katkam-20161012160000.jpg
2016-10-12 19:00,2016,10,12,19:00,13.8,3.3,49.0,6.0,16.0,32.2,100.94,,,Cloudy,katkam-20161012190000.jpg
2016-10-13 07:00,2016,10,13,07:00,11.4,10.2,92.0,10.0,25.0,24.1,100.23,,,Rain,katkam-20161013070000.jpg
2016-10-13 08:00,2016,10,13,08:00,11.6,10.7,94.0,13.0,24.0,19.3,100.21,,,Rain,katkam-20161013080000.jpg
2016-10-13 09:00,2016,10,13,09:00,11.8,11.0,95.0,11.0,21.0,24.1,100.18,,,Rain,katkam-20161013090000.jpg
2016-10-13 10:00,2016,10,13,10:00,12.8,11.6,92.0,10.0,20.0,24.1,100.18,,,Cloudy,katkam-20161013100000.jpg
2016-10-13 13:00,2016,10,13,13:00,13.2,11.6,90.0,9.0,18.0,24.1,100.07,,,Cloudy,katkam-20161013130000.jpg
2016-10-13 16:00,2016,10,13,16:00,13.9,11.1,83.0,7.0,18.0,24.1,99.72,,,Cloudy,katkam-20161013160000.jpg
2016-10-13 17:00,2016,10,13,17:00,13.6,11.5,87.0,6.0,14.0,24.1,99.54,,,Rain,katkam-20161013170000.jpg
2016-10-13 18:00,2016,10,13,18:00,12.8,11.4,91.0,10.0,21.0,24.1,99.25,,,Rain,katkam-20161013180000.jpg
2016-10-13 19:00,2016,10,13,19:00,12.0,11.1,94.0,8.0,16.0,24.1,98.97,,,Rain,katkam-20161013190000.jpg
2016-10-14 06:00,2016,10,14,06:00,11.4,10.5,94.0,14.0,18.0,12.9,98.95,,,Heavy Rain,katkam-20161014060000.jpg
2016-10-14 07:00,2016,10,14,07:00,11.2,10.4,95.0,11.0,16.0,8.1,98.89,,,"Rain,Fog",katkam-20161014070000.jpg
2016-10-14 08:00,2016,10,14,08:00,11.4,10.2,92.0,15.0,20.0,8.1,98.96,,,"Moderate Rain,Fog",katkam-20161014080000.jpg
2016-10-14 09:00,2016,10,14,09:00,11.8,9.6,86.0,12.0,25.0,12.9,98.85,,,Rain,katkam-20161014090000.jpg
2016-10-14 10:00,2016,10,14,10:00,11.6,9.7,88.0,12.0,41.0,12.9,98.79,,,Rain,katkam-20161014100000.jpg
2016-10-14 11:00,2016,10,14,11:00,12.5,9.9,84.0,13.0,52.0,12.9,98.69,,,Rain,katkam-20161014110000.jpg
2016-10-14 12:00,2016,10,14,12:00,12.5,9.9,84.0,13.0,58.0,16.1,98.62,,,Rain,katkam-20161014120000.jpg
2016-10-14 13:00,2016,10,14,13:00,11.7,10.5,92.0,13.0,44.0,8.1,98.64,,,"Rain,Fog",katkam-20161014130000.jpg
2016-10-14 14:00,2016,10,14,14:00,11.8,10.7,93.0,14.0,48.0,6.4,98.7,,,"Moderate Rain,Fog",katkam-20161014140000.jpg
2016-10-14 15:00,2016,10,14,15:00,13.1,9.8,80.0,17.0,42.0,12.9,98.83,,,Rain Showers,katkam-20161014150000.jpg
2016-10-14 16:00,2016,10,14,16:00,13.4,9.1,75.0,18.0,44.0,12.9,99.06,,,Mostly Cloudy,katkam-20161014160000.jpg
2016-10-14 19:00,2016,10,14,19:00,12.2,8.3,77.0,18.0,23.0,24.1,99.63,,,Cloudy,katkam-20161014190000.jpg
2016-10-15 07:00,2016,10,15,07:00,10.8,9.1,89.0,8.0,16.0,32.2,99.82,,,Cloudy,katkam-20161015070000.jpg
2016-10-15 10:00,2016,10,15,10:00,10.9,9.5,91.0,8.0,23.0,19.3,99.47,,,Rain,katkam-20161015100000.jpg
2016-10-15 11:00,2016,10,15,11:00,11.0,9.4,90.0,7.0,22.0,12.9,99.26,,,Rain,katkam-20161015110000.jpg
2016-10-15 12:00,2016,10,15,12:00,11.2,9.8,91.0,7.0,20.0,9.7,99.04,,,"Rain,Fog",katkam-20161015120000.jpg
2016-10-15 13:00,2016,10,15,13:00,11.1,9.0,87.0,7.0,25.0,8.1,98.83,,,"Moderate Rain,Fog",katkam-20161015130000.jpg
2016-10-15 16:00,2016,10,15,16:00,12.5,8.0,74.0,8.0,46.0,12.9,98.16,,,Rain Showers,katkam-20161015160000.jpg
2016-10-15 17:00,2016,10,15,17:00,11.8,8.9,82.0,8.0,44.0,16.1,98.15,,,Rain Showers,katkam-20161015170000.jpg
2016-10-15 18:00,2016,10,15,18:00,11.7,9.3,85.0,9.0,37.0,19.3,98.16,,,Rain Showers,katkam-20161015180000.jpg
2016-10-15 19:00,2016,10,15,19:00,12.5,10.6,88.0,15.0,26.0,16.1,98.31,,,Rain Showers,katkam-20161015190000.jpg
2016-10-16 06:00,2016,10,16,06:00,10.8,9.6,92.0,11.0,28.0,12.9,99.28,,,Rain,katkam-20161016060000.jpg
2016-10-16 07:00,2016,10,16,07:00,11.1,9.4,89.0,11.0,31.0,16.1,99.29,,,Cloudy,katkam-20161016070000.jpg
2016-10-16 08:00,2016,10,16,08:00,11.5,9.1,85.0,11.0,30.0,16.1,99.33,,,Rain Showers,katkam-20161016080000.jpg
2016-10-16 10:00,2016,10,16,10:00,11.3,9.6,89.0,12.0,21.0,16.1,99.39,,,Rain Showers,katkam-20161016100000.jpg
2016-10-16 13:00,2016,10,16,13:00,12.6,9.3,80.0,14.0,22.0,24.1,99.39,,,Cloudy,katkam-20161016130000.jpg
2016-10-16 15:00,2016,10,16,15:00,12.4,9.4,82.0,12.0,22.0,24.1,99.36,,,Rain Showers,katkam-20161016150000.jpg
2016-10-16 16:00,2016,10,16,16:00,12.8,9.3,79.0,11.0,26.0,24.1,99.31,,,Mostly Cloudy,katkam-20161016160000.jpg
2016-10-16 19:00,2016,10,16,19:00,11.5,9.4,87.0,8.0,10.0,24.1,99.27,,,Rain,katkam-20161016190000.jpg
2016-10-17 06:00,2016,10,17,06:00,10.0,9.1,94.0,9.0,18.0,12.9,99.79,,,Rain,katkam-20161017060000.jpg
2016-10-17 07:00,2016,10,17,07:00,10.1,9.3,95.0,9.0,15.0,16.1,99.89,,,Rain,katkam-20161017070000.jpg
2016-10-17 08:00,2016,10,17,08:00,10.4,9.8,96.0,11.0,16.0,6.4,99.99,,,"Rain,Fog",katkam-20161017080000.jpg
2016-10-17 09:00,2016,10,17,09:00,10.7,10.1,96.0,12.0,13.0,6.4,100.09,,,"Rain,Drizzle,Fog",katkam-20161017090000.jpg
2016-10-17 10:00,2016,10,17,10:00,11.4,10.5,94.0,12.0,16.0,12.9,100.16,,,Cloudy,katkam-20161017100000.jpg
2016-10-17 12:00,2016,10,17,12:00,11.7,10.1,90.0,13.0,13.0,16.1,100.33,,,Rain Showers,katkam-20161017120000.jpg
2016-10-17 13:00,2016,10,17,13:00,11.4,10.3,93.0,14.0,16.0,12.9,100.4,,,Rain Showers,katkam-20161017130000.jpg
2016-10-17 14:00,2016,10,17,14:00,11.9,11.0,94.0,12.0,14.0,12.9,100.46,,,Rain Showers,katkam-20161017140000.jpg
2016-10-17 16:00,2016,10,17,16:00,12.6,11.2,91.0,11.0,14.0,24.1,100.55,,,Mainly Clear,katkam-20161017160000.jpg
2016-10-17 19:00,2016,10,17,19:00,10.2,9.4,95.0,9.0,12.0,24.1,100.73,,,Mostly Cloudy,katkam-20161017190000.jpg
2016-10-18 07:00,2016,10,18,07:00,10.0,9.4,96.0,10.0,13.0,24.1,101.32,,,Cloudy,katkam-20161018070000.jpg
2016-10-18 10:00,2016,10,18,10:00,11.3,10.4,94.0,13.0,16.0,19.3,101.54,,,Rain,katkam-20161018100000.jpg
2016-10-18 11:00,2016,10,18,11:00,11.5,10.3,92.0,15.0,19.0,24.1,101.61,,,Rain,katkam-20161018110000.jpg
2016-10-18 12:00,2016,10,18,12:00,11.8,10.1,89.0,14.0,23.0,24.1,101.67,,,Rain,katkam-20161018120000.jpg
2016-10-18 13:00,2016,10,18,13:00,12.1,9.5,84.0,15.0,24.0,24.1,101.71,,,Rain,katkam-20161018130000.jpg
2016-10-18 16:00,2016,10,18,16:00,11.8,9.7,87.0,13.0,15.0,24.1,101.87,,,Cloudy,katkam-20161018160000.jpg
2016-10-18 19:00,2016,10,18,19:00,10.9,9.7,92.0,9.0,10.0,24.1,102.07,,,Mostly Cloudy,katkam-20161018190000.jpg
2016-10-19 07:00,2016,10,19,07:00,9.1,8.4,95.0,8.0,10.0,24.1,102.56,,,Cloudy,katkam-20161019070000.jpg
2016-10-19 10:00,2016,10,19,10:00,12.7,8.6,76.0,9.0,22.0,32.2,102.52,,,Cloudy,katkam-20161019100000.jpg
2016-10-19 13:00,2016,10,19,13:00,14.0,7.4,64.0,10.0,16.0,48.3,102.38,,,Cloudy,katkam-20161019130000.jpg
2016-10-19 16:00,2016,10,19,16:00,12.4,9.1,80.0,10.0,17.0,24.1,102.17,,,Rain,katkam-20161019160000.jpg
2016-10-19 17:00,2016,10,19,17:00,12.6,7.5,71.0,7.0,22.0,24.1,102.08,,,Rain,katkam-20161019170000.jpg
2016-10-19 18:00,2016,10,19,18:00,11.9,8.0,77.0,6.0,20.0,24.1,102.03,,,Rain Showers,katkam-20161019180000.jpg
2016-10-19 19:00,2016,10,19,19:00,10.8,8.4,85.0,8.0,22.0,16.1,102.04,,,Rain,katkam-20161019190000.jpg
2016-10-20 07:00,2016,10,20,07:00,10.3,9.5,95.0,9.0,14.0,24.1,101.3,,,Cloudy,katkam-20161020070000.jpg
2016-10-20 10:00,2016,10,20,10:00,12.8,11.4,91.0,9.0,16.0,24.1,101.35,,,Cloudy,katkam-20161020100000.jpg
2016-10-20 13:00,2016,10,20,13:00,14.5,10.4,76.0,23.0,8.0,24.1,101.53,,,Cloudy,katkam-20161020130000.jpg
2016-10-20 16:00,2016,10,20,16:00,13.8,10.1,78.0,23.0,14.0,48.3,101.63,,,Mainly Clear,katkam-20161020160000.jpg
2016-10-20 19:00,2016,10,20,19:00,11.8,8.7,81.0,10.0,7.0,32.2,101.73,,,Clear,katkam-20161020190000.jpg
2016-10-21 07:00,2016,10,21,07:00,9.4,8.5,94.0,9.0,17.0,24.1,101.51,,,Cloudy,katkam-20161021070000.jpg
2016-10-21 10:00,2016,10,21,10:00,11.8,8.7,81.0,9.0,18.0,32.2,101.36,,,Cloudy,katkam-20161021100000.jpg
2016-10-21 11:00,2016,10,21,11:00,12.0,9.1,82.0,9.0,9.0,24.1,101.38,,,Rain,katkam-20161021110000.jpg
2016-10-21 12:00,2016,10,21,12:00,12.2,8.3,77.0,13.0,4.0,24.1,101.36,,,Rain,katkam-20161021120000.jpg
2016-10-21 13:00,2016,10,21,13:00,10.9,9.7,92.0,31.0,9.0,19.3,101.33,,,Rain,katkam-20161021130000.jpg
2016-10-21 14:00,2016,10,21,14:00,11.1,9.9,92.0,11.0,10.0,19.3,101.3,,,Rain,katkam-20161021140000.jpg
2016-10-21 16:00,2016,10,21,16:00,11.4,8.5,82.0,8.0,10.0,32.2,101.21,,,Cloudy,katkam-20161021160000.jpg
2016-10-21 18:00,2016,10,21,18:00,10.4,9.0,91.0,11.0,16.0,16.1,101.24,,,Rain,katkam-20161021180000.jpg
2016-10-21 19:00,2016,10,21,19:00,9.8,8.7,93.0,9.0,18.0,24.1,101.24,,,Rain,katkam-20161021190000.jpg
2016-10-22 07:00,2016,10,22,07:00,9.1,8.7,97.0,10.0,15.0,12.9,101.49,,,Cloudy,katkam-20161022070000.jpg
2016-10-22 10:00,2016,10,22,10:00,12.1,9.5,84.0,8.0,18.0,24.1,101.49,,,Mostly Cloudy,katkam-20161022100000.jpg
2016-10-22 13:00,2016,10,22,13:00,12.9,7.4,69.0,7.0,15.0,48.3,101.29,,,Cloudy,katkam-20161022130000.jpg
2016-10-22 16:00,2016,10,22,16:00,13.3,7.4,67.0,7.0,14.0,48.3,100.94,,,Mostly Cloudy,katkam-20161022160000.jpg
2016-10-22 19:00,2016,10,22,19:00,10.0,6.7,80.0,9.0,8.0,48.3,100.82,,,Cloudy,katkam-20161022190000.jpg
2016-10-23 06:00,2016,10,23,06:00,9.6,8.7,94.0,9.0,13.0,24.1,101.12,,,Rain,katkam-20161023060000.jpg
2016-10-23 07:00,2016,10,23,07:00,9.7,8.8,94.0,8.0,10.0,24.1,101.15,,,Rain,katkam-20161023070000.jpg
2016-10-23 10:00,2016,10,23,10:00,11.9,9.5,85.0,8.0,13.0,40.2,101.26,,,Cloudy,katkam-20161023100000.jpg
2016-10-23 13:00,2016,10,23,13:00,15.1,8.2,63.0,9.0,16.0,48.3,101.19,,,Mostly Cloudy,katkam-20161023130000.jpg
2016-10-23 16:00,2016,10,23,16:00,14.2,8.4,68.0,6.0,11.0,48.3,101.0,,,Cloudy,katkam-20161023160000.jpg
2016-10-23 19:00,2016,10,23,19:00,13.0,8.3,73.0,6.0,9.0,48.3,100.84,,,Cloudy,katkam-20161023190000.jpg
2016-10-24 07:00,2016,10,24,07:00,10.3,8.7,90.0,27.0,10.0,48.3,100.22,,,Cloudy,katkam-20161024070000.jpg
2016-10-24 10:00,2016,10,24,10:00,11.2,9.8,91.0,34.0,7.0,48.3,100.08,,,Cloudy,katkam-20161024100000.jpg
2016-10-24 13:00,2016,10,24,13:00,10.7,9.9,95.0,26.0,18.0,32.2,100.15,,,Cloudy,katkam-20161024130000.jpg
2016-10-24 14:00,2016,10,24,14:00,10.7,9.9,95.0,34.0,17.0,40.2,100.25,,,Rain,katkam-20161024140000.jpg
2016-10-24 15:00,2016,10,24,15:00,11.7,9.5,86.0,2.0,13.0,40.2,100.3,,,Rain,katkam-20161024150000.jpg
2016-10-24 16:00,2016,10,24,16:00,11.2,9.8,91.0,23.0,4.0,32.2,100.38,,,Rain,katkam-20161024160000.jpg
2016-10-24 17:00,2016,10,24,17:00,11.7,10.3,91.0,7.0,15.0,24.1,100.36,,,Moderate Rain,katkam-20161024170000.jpg
2016-10-25 07:00,2016,10,25,07:00,13.0,6.9,66.0,12.0,31.0,32.2,100.94,,,Cloudy,katkam-20161025070000.jpg
2016-10-25 10:00,2016,10,25,10:00,13.3,7.6,68.0,11.0,25.0,48.3,101.16,,,Cloudy,katkam-20161025100000.jpg
2016-10-25 11:00,2016,10,25,11:00,12.8,8.7,76.0,14.0,21.0,19.3,101.28,,,Rain,katkam-20161025110000.jpg
2016-10-25 12:00,2016,10,25,12:00,12.2,9.4,83.0,9.0,13.0,19.3,101.34,,,Rain,katkam-20161025120000.jpg
2016-10-25 13:00,2016,10,25,13:00,13.0,9.9,81.0,5.0,13.0,24.1,101.38,,,Rain,katkam-20161025130000.jpg
2016-10-25 16:00,2016,10,25,16:00,14.3,9.2,71.0,11.0,11.0,32.2,101.47,,,Mostly Cloudy,katkam-20161025160000.jpg
2016-10-26 07:00,2016,10,26,07:00,9.4,7.5,88.0,18.0,4.0,48.3,101.05,,,Rain,katkam-20161026070000.jpg
2016-10-26 08:00,2016,10,26,08:00,9.0,7.8,92.0,10.0,7.0,24.1,101.08,,,Rain,katkam-20161026080000.jpg
2016-10-26 09:00,2016,10,26,09:00,9.7,7.8,88.0,3.0,10.0,16.1,101.09,,,Rain,katkam-20161026090000.jpg
2016-10-26 10:00,2016,10,26,10:00,9.7,8.0,89.0,8.0,14.0,24.1,100.98,,,Rain,katkam-20161026100000.jpg
2016-10-26 11:00,2016,10,26,11:00,9.8,8.6,92.0,9.0,12.0,24.1,100.89,,,Rain,katkam-20161026110000.jpg
2016-10-26 12:00,2016,10,26,12:00,10.0,8.8,92.0,8.0,16.0,16.1,100.8,,,Rain,katkam-20161026120000.jpg
2016-10-26 13:00,2016,10,26,13:00,10.6,9.5,93.0,10.0,11.0,24.1,100.71,,,Rain,katkam-20161026130000.jpg
2016-10-26 14:00,2016,10,26,14:00,10.2,9.4,95.0,32.0,10.0,12.9,100.75,,,Rain,katkam-20161026140000.jpg
2016-10-26 16:00,2016,10,26,16:00,11.5,10.4,93.0,9.0,21.0,24.1,100.68,,,Cloudy,katkam-20161026160000.jpg
2016-10-27 06:00,2016,10,27,06:00,12.0,10.4,90.0,14.0,20.0,24.1,100.83,,,Rain,katkam-20161027060000.jpg
2016-10-27 07:00,2016,10,27,07:00,11.8,10.1,89.0,13.0,20.0,24.1,100.82,,,Cloudy,katkam-20161027070000.jpg
2016-10-27 08:00,2016,10,27,08:00,11.9,9.7,86.0,14.0,21.0,24.1,100.83,,,Rain,katkam-20161027080000.jpg
2016-10-27 09:00,2016,10,27,09:00,11.7,10.0,89.0,12.0,16.0,24.1,100.85,,,Rain,katkam-20161027090000.jpg
2016-10-27 10:00,2016,10,27,10:00,11.8,10.4,91.0,9.0,10.0,24.1,100.88,,,Cloudy,katkam-20161027100000.jpg
2016-10-27 12:00,2016,10,27,12:00,12.6,10.9,89.0,10.0,12.0,24.1,100.89,,,Rain,katkam-20161027120000.jpg
2016-10-27 13:00,2016,10,27,13:00,12.6,10.9,89.0,12.0,12.0,24.1,100.9,,,Rain,katkam-20161027130000.jpg
2016-10-27 14:00,2016,10,27,14:00,12.2,10.5,89.0,13.0,16.0,24.1,100.91,,,Rain,katkam-20161027140000.jpg
2016-10-27 15:00,2016,10,27,15:00,11.6,10.7,94.0,12.0,9.0,24.1,100.92,,,Rain,katkam-20161027150000.jpg
2016-10-27 16:00,2016,10,27,16:00,11.5,10.6,94.0,7.0,9.0,19.3,100.93,,,Rain,katkam-20161027160000.jpg
2016-10-27 17:00,2016,10,27,17:00,11.5,10.7,95.0,8.0,4.0,24.1,100.91,,,Rain,katkam-20161027170000.jpg
2016-10-27 18:00,2016,10,27,18:00,11.6,10.8,95.0,8.0,9.0,19.3,100.94,,,Rain,katkam-20161027180000.jpg
2016-10-28 07:00,2016,10,28,07:00,11.2,9.0,86.0,7.0,14.0,32.2,101.32,,,Mostly Cloudy,katkam-20161028070000.jpg
2016-10-28 10:00,2016,10,28,10:00,12.9,10.3,84.0,11.0,15.0,32.2,101.4,,,Mostly Cloudy,katkam-20161028100000.jpg
2016-10-28 13:00,2016,10,28,13:00,15.9,8.9,63.0,6.0,12.0,32.2,101.25,,,Mostly Cloudy,katkam-20161028130000.jpg
2016-10-28 16:00,2016,10,28,16:00,15.9,9.2,64.0,4.0,14.0,32.2,101.27,,,Mostly Cloudy,katkam-20161028160000.jpg
2016-10-29 07:00,2016,10,29,07:00,8.7,8.1,96.0,32.0,3.0,32.2,101.05,,,Cloudy,katkam-20161029070000.jpg
2016-10-29 09:00,2016,10,29,09:00,9.7,8.3,91.0,7.0,13.0,16.1,101.15,,,Rain,katkam-20161029090000.jpg
2016-10-29 10:00,2016,10,29,10:00,9.8,8.6,92.0,10.0,9.0,12.9,101.22,,,Rain,katkam-20161029100000.jpg
2016-10-29 11:00,2016,10,29,11:00,9.7,8.3,91.0,8.0,19.0,8.1,101.25,,,"Rain,Fog",katkam-20161029110000.jpg
2016-10-29 12:00,2016,10,29,12:00,9.8,8.7,93.0,8.0,16.0,12.9,101.26,,,Rain,katkam-20161029120000.jpg
2016-10-29 13:00,2016,10,29,13:00,9.7,8.6,93.0,8.0,21.0,16.1,101.27,,,Rain,katkam-20161029130000.jpg
2016-10-29 16:00,2016,10,29,16:00,11.0,9.3,89.0,9.0,18.0,32.2,101.34,,,Mostly Cloudy,katkam-20161029160000.jpg
2016-10-30 07:00,2016,10,30,07:00,6.1,6.0,99.0,13.0,4.0,32.2,100.92,,,Mainly Clear,katkam-20161030070000.jpg
2016-10-30 10:00,2016,10,30,10:00,11.2,7.7,79.0,32.0,10.0,32.2,100.71,,,Mostly Cloudy,katkam-20161030100000.jpg
2016-10-30 13:00,2016,10,30,13:00,10.9,9.0,88.0,29.0,16.0,32.2,100.39,,,Mostly Cloudy,katkam-20161030130000.jpg
2016-10-30 16:00,2016,10,30,16:00,9.9,8.5,91.0,29.0,23.0,32.2,100.1,,,Mostly Cloudy,katkam-20161030160000.jpg
2016-10-30 17:00,2016,10,30,17:00,9.8,8.7,93.0,29.0,25.0,32.2,100.04,,,Rain,katkam-20161030170000.jpg
2016-10-30 18:00,2016,10,30,18:00,9.9,8.8,93.0,29.0,22.0,32.2,100.02,,,Rain,katkam-20161030180000.jpg
2016-10-31 06:00,2016,10,31,06:00,9.7,8.9,95.0,36.0,5.0,8.1,100.25,,,"Rain,Fog",katkam-20161031060000.jpg
2016-10-31 07:00,2016,10,31,07:00,9.4,9.0,97.0,33.0,7.0,8.1,100.26,,,"Rain,Fog",katkam-20161031070000.jpg
2016-10-31 08:00,2016,10,31,08:00,9.5,9.2,98.0,31.0,5.0,8.1,100.32,,,"Rain,Fog",katkam-20161031080000.jpg
2016-10-31 09:00,2016,10,31,09:00,9.8,9.2,96.0,36.0,1.0,8.1,100.37,,,"Rain,Fog",katkam-20161031090000.jpg
2016-10-31 10:00,2016,10,31,10:00,10.1,9.5,96.0,11.0,7.0,8.1,100.41,,,"Rain,Fog",katkam-20161031100000.jpg
2016-10-31 11:00,2016,10,31,11:00,9.2,8.6,96.0,29.0,18.0,8.1,100.52,,,"Rain,Fog",katkam-20161031110000.jpg
2016-10-31 12:00,2016,10,31,12:00,9.6,9.2,97.0,29.0,14.0,12.9,100.58,,,Rain,katkam-20161031120000.jpg
2016-10-31 13:00,2016,10,31,13:00,10.0,9.4,96.0,28.0,18.0,12.9,100.63,,,Cloudy,katkam-20161031130000.jpg
2016-11-01 07:00,2016,11,1,07:00,9.3,8.4,94.0,9.0,11.0,24.1,101.07,,,Cloudy,katkam-20161101070000.jpg
2016-11-01 10:00,2016,11,1,10:00,10.8,8.6,86.0,12.0,15.0,24.1,101.17,,,Mostly Cloudy,katkam-20161101100000.jpg
2016-11-01 13:00,2016,11,1,13:00,11.3,8.5,83.0,13.0,13.0,24.1,101.26,,,Rain,katkam-20161101130000.jpg
2016-11-01 14:00,2016,11,1,14:00,10.7,8.8,88.0,9.0,13.0,19.3,101.24,,,Rain Showers,katkam-20161101140000.jpg
2016-11-01 15:00,2016,11,1,15:00,10.5,9.3,92.0,12.0,10.0,19.3,101.27,,,Rain,katkam-20161101150000.jpg
2016-11-01 16:00,2016,11,1,16:00,10.1,9.2,94.0,10.0,16.0,11.3,101.27,,,Rain,katkam-20161101160000.jpg
2016-11-01 17:00,2016,11,1,17:00,9.6,8.5,93.0,7.0,16.0,19.3,101.33,,,Moderate Rain,katkam-20161101170000.jpg
2016-11-01 18:00,2016,11,1,18:00,9.8,9.0,95.0,7.0,18.0,16.1,101.33,,,Moderate Rain,katkam-20161101180000.jpg
2016-11-02 06:00,2016,11,2,06:00,10.4,8.7,89.0,9.0,25.0,24.1,101.32,,,Rain,katkam-20161102060000.jpg
2016-11-02 07:00,2016,11,2,07:00,10.4,8.7,89.0,8.0,27.0,19.3,101.33,,,Rain,katkam-20161102070000.jpg
2016-11-02 08:00,2016,11,2,08:00,10.6,8.5,87.0,8.0,30.0,24.1,101.34,,,Rain,katkam-20161102080000.jpg
2016-11-02 09:00,2016,11,2,09:00,10.6,8.7,88.0,8.0,30.0,24.1,101.35,,,Rain,katkam-20161102090000.jpg
2016-11-02 10:00,2016,11,2,10:00,10.4,9.0,91.0,9.0,29.0,19.3,101.4,,,Rain,katkam-20161102100000.jpg
2016-11-02 11:00,2016,11,2,11:00,10.8,9.2,90.0,8.0,29.0,19.3,101.39,,,Rain,katkam-20161102110000.jpg
2016-11-02 12:00,2016,11,2,12:00,10.8,9.6,92.0,8.0,26.0,16.1,101.39,,,Rain,katkam-20161102120000.jpg
2016-11-02 13:00,2016,11,2,13:00,11.1,9.9,92.0,8.0,24.0,19.3,101.36,,,Rain,katkam-20161102130000.jpg
2016-11-02 14:00,2016,11,2,14:00,11.1,9.7,91.0,8.0,29.0,19.3,101.31,,,Rain,katkam-20161102140000.jpg
2016-11-02 15:00,2016,11,2,15:00,11.7,10.0,89.0,7.0,28.0,24.1,101.24,,,Rain,katkam-20161102150000.jpg
2016-11-02 16:00,2016,11,2,16:00,12.4,9.8,84.0,8.0,27.0,24.1,101.2,,,Rain,katkam-20161102160000.jpg
2016-11-02 17:00,2016,11,2,17:00,11.9,10.0,88.0,9.0,26.0,19.3,101.22,,,Rain,katkam-20161102170000.jpg
2016-11-02 18:00,2016,11,2,18:00,11.8,10.1,89.0,8.0,22.0,19.3,101.33,,,Rain,katkam-20161102180000.jpg
2016-11-03 07:00,2016,11,3,07:00,11.3,9.6,89.0,8.0,18.0,32.2,102.23,,,Mostly Cloudy,katkam-20161103070000.jpg
2016-11-03 10:00,2016,11,3,10:00,12.6,9.6,82.0,12.0,25.0,32.2,102.37,,,Cloudy,katkam-20161103100000.jpg
2016-11-03 13:00,2016,11,3,13:00,14.5,10.2,75.0,11.0,25.0,32.2,102.34,,,Cloudy,katkam-20161103130000.jpg
2016-11-03 16:00,2016,11,3,16:00,15.1,9.5,69.0,6.0,13.0,48.3,102.17,,,Mainly Clear,katkam-20161103160000.jpg
2016-11-04 07:00,2016,11,4,07:00,4.8,3.8,93.0,36.0,2.0,48.3,101.59,,,Mostly Cloudy,katkam-20161104070000.jpg
2016-11-04 10:00,2016,11,4,10:00,9.8,6.5,80.0,11.0,10.0,48.3,101.56,,,Cloudy,katkam-20161104100000.jpg
2016-11-04 13:00,2016,11,4,13:00,12.1,7.5,73.0,9.0,12.0,48.3,101.4,,,Cloudy,katkam-20161104130000.jpg
2016-11-04 16:00,2016,11,4,16:00,15.4,6.8,56.0,8.0,22.0,48.3,101.21,,,Cloudy,katkam-20161104160000.jpg
2016-11-04 18:00,2016,11,4,18:00,14.4,8.4,67.0,8.0,13.0,32.2,101.24,,,Rain Showers,katkam-20161104180000.jpg
2016-11-05 06:00,2016,11,5,06:00,12.2,11.7,97.0,8.0,23.0,19.3,100.95,,,Rain,katkam-20161105060000.jpg
2016-11-05 07:00,2016,11,5,07:00,12.2,11.7,97.0,8.0,18.0,16.1,100.96,,,Rain,katkam-20161105070000.jpg
2016-11-05 08:00,2016,11,5,08:00,12.3,11.7,96.0,8.0,17.0,16.1,100.94,,,Rain,katkam-20161105080000.jpg
2016-11-05 10:00,2016,11,5,10:00,12.4,11.6,95.0,13.0,20.0,12.9,100.93,,,Cloudy,katkam-20161105100000.jpg
2016-11-05 12:00,2016,11,5,12:00,13.1,12.2,94.0,13.0,24.0,24.1,100.83,,,Rain,katkam-20161105120000.jpg
2016-11-05 13:00,2016,11,5,13:00,12.8,11.9,94.0,17.0,16.0,19.3,100.87,,,Moderate Rain,katkam-20161105130000.jpg
2016-11-05 14:00,2016,11,5,14:00,12.4,11.6,95.0,13.0,13.0,24.1,100.81,,,Rain,katkam-20161105140000.jpg
2016-11-05 16:00,2016,11,5,16:00,12.2,11.1,93.0,9.0,18.0,24.1,100.85,,,Cloudy,katkam-20161105160000.jpg
2016-11-05 19:00,2016,11,5,19:00,11.5,10.3,92.0,8.0,17.0,24.1,100.88,,,Cloudy,katkam-20161105190000.jpg
2016-11-06 06:00,2016,11,6,06:00,9.2,8.3,94.0,8.0,19.0,16.1,101.27,,,Rain Showers,katkam-20161106060000.jpg
2016-11-06 07:00,2016,11,6,07:00,9.4,8.7,95.0,10.0,18.0,12.9,101.36,,,Cloudy,katkam-20161106070000.jpg
2016-11-06 10:00,2016,11,6,10:00,10.9,9.3,90.0,9.0,15.0,19.3,101.5,,,Cloudy,katkam-20161106100000.jpg
2016-11-06 13:00,2016,11,6,13:00,13.1,9.4,78.0,11.0,29.0,32.2,101.51,,,Mostly Cloudy,katkam-20161106130000.jpg
2016-11-06 16:00,2016,11,6,16:00,12.3,9.7,84.0,8.0,14.0,32.2,101.58,,,Cloudy,katkam-20161106160000.jpg
2016-11-07 06:00,2016,11,7,06:00,11.6,8.7,82.0,8.0,24.0,19.3,101.68,,,Rain,katkam-20161107060000.jpg
2016-11-07 07:00,2016,11,7,07:00,10.9,9.0,88.0,9.0,21.0,19.3,101.72,,,Rain,katkam-20161107070000.jpg
2016-11-07 09:00,2016,11,7,09:00,11.6,9.5,87.0,8.0,18.0,19.3,101.86,,,Rain,katkam-20161107090000.jpg
2016-11-07 10:00,2016,11,7,10:00,12.4,9.3,81.0,8.0,17.0,32.2,101.88,,,Cloudy,katkam-20161107100000.jpg
2016-11-07 13:00,2016,11,7,13:00,13.6,9.5,76.0,6.0,17.0,32.2,101.86,,,Cloudy,katkam-20161107130000.jpg
2016-11-07 14:00,2016,11,7,14:00,13.3,10.0,80.0,5.0,16.0,32.2,101.86,,,Rain,katkam-20161107140000.jpg
2016-11-07 15:00,2016,11,7,15:00,13.2,10.4,83.0,9.0,21.0,48.3,101.8,,,Rain,katkam-20161107150000.jpg
2016-11-07 16:00,2016,11,7,16:00,13.6,9.9,78.0,7.0,16.0,48.3,101.73,,,Cloudy,katkam-20161107160000.jpg
2016-11-08 07:00,2016,11,8,07:00,14.8,10.1,73.0,9.0,15.0,24.1,101.5,,,Mostly Cloudy,katkam-20161108070000.jpg
2016-11-08 10:00,2016,11,8,10:00,16.2,9.5,64.0,9.0,18.0,48.3,101.64,,,Cloudy,katkam-20161108100000.jpg
2016-11-08 13:00,2016,11,8,13:00,18.4,10.6,60.0,9.0,20.0,48.3,101.55,,,Mostly Cloudy,katkam-20161108130000.jpg
2016-11-08 16:00,2016,11,8,16:00,17.6,11.5,67.0,10.0,18.0,48.3,101.38,,,Mostly Cloudy,katkam-20161108160000.jpg
2016-11-09 06:00,2016,11,9,06:00,13.1,12.3,95.0,11.0,14.0,19.3,101.69,,,Rain,katkam-20161109060000.jpg
2016-11-09 07:00,2016,11,9,07:00,13.0,12.4,96.0,9.0,7.0,16.1,101.76,,,Rain,katkam-20161109070000.jpg
2016-11-09 08:00,2016,11,9,08:00,13.1,12.5,96.0,14.0,9.0,24.1,101.82,,,Rain,katkam-20161109080000.jpg
2016-11-09 09:00,2016,11,9,09:00,13.3,12.5,95.0,14.0,10.0,8.1,101.91,,,"Rain,Fog",katkam-20161109090000.jpg
2016-11-09 11:00,2016,11,9,11:00,12.7,12.2,97.0,21.0,8.0,11.3,102.05,,,Drizzle,katkam-20161109110000.jpg
2016-11-09 13:00,2016,11,9,13:00,11.8,11.3,97.0,19.0,8.0,19.3,102.15,,,Cloudy,katkam-20161109130000.jpg
2016-11-09 16:00,2016,11,9,16:00,13.6,12.8,95.0,10.0,12.0,24.1,102.18,,,Cloudy,katkam-20161109160000.jpg
2016-11-10 07:00,2016,11,10,07:00,8.4,8.3,99.0,,0.0,48.3,101.84,,,Cloudy,katkam-20161110070000.jpg
2016-11-10 10:00,2016,11,10,10:00,11.8,9.7,87.0,17.0,8.0,48.3,101.87,,,Cloudy,katkam-20161110100000.jpg
2016-11-10 13:00,2016,11,10,13:00,15.1,10.8,75.0,10.0,8.0,48.3,101.64,,,Cloudy,katkam-20161110130000.jpg
2016-11-10 16:00,2016,11,10,16:00,12.8,9.5,80.0,12.0,9.0,48.3,101.49,,,Cloudy,katkam-20161110160000.jpg
2016-11-11 07:00,2016,11,11,07:00,12.0,10.8,92.0,8.0,9.0,24.1,101.4,,,Cloudy,katkam-20161111070000.jpg
2016-11-11 08:00,2016,11,11,08:00,11.6,10.2,91.0,25.0,13.0,24.1,101.46,,,Rain Showers,katkam-20161111080000.jpg
2016-11-11 09:00,2016,11,11,09:00,11.2,10.4,95.0,30.0,4.0,24.1,101.47,,,Rain Showers,katkam-20161111090000.jpg
2016-11-11 10:00,2016,11,11,10:00,13.0,11.6,91.0,33.0,4.0,24.1,101.36,,,Cloudy,katkam-20161111100000.jpg
2016-11-11 13:00,2016,11,11,13:00,11.3,10.2,93.0,24.0,17.0,32.2,101.27,,,Cloudy,katkam-20161111130000.jpg
2016-11-11 16:00,2016,11,11,16:00,12.7,10.6,87.0,16.0,16.0,32.2,101.13,,,Cloudy,katkam-20161111160000.jpg
2016-11-12 07:00,2016,11,12,07:00,12.6,11.7,94.0,9.0,22.0,16.1,100.68,,,Rain,katkam-20161112070000.jpg
2016-11-12 10:00,2016,11,12,10:00,12.9,11.8,93.0,13.0,14.0,12.9,100.85,,,Rain Showers,katkam-20161112100000.jpg
2016-11-12 13:00,2016,11,12,13:00,13.6,12.3,92.0,15.0,18.0,24.1,101.11,,,Mostly Cloudy,katkam-20161112130000.jpg
2016-11-12 16:00,2016,11,12,16:00,12.2,7.9,75.0,20.0,23.0,32.2,101.64,,,Mostly Cloudy,katkam-20161112160000.jpg
2016-11-13 07:00,2016,11,13,07:00,9.4,7.4,87.0,10.0,17.0,24.1,101.85,,,Cloudy,katkam-20161113070000.jpg
2016-11-13 08:00,2016,11,13,08:00,9.7,7.7,87.0,10.0,13.0,24.1,101.87,,,Rain,katkam-20161113080000.jpg
2016-11-13 09:00,2016,11,13,09:00,9.3,7.9,91.0,9.0,25.0,12.9,101.84,,,Rain,katkam-20161113090000.jpg
2016-11-13 10:00,2016,11,13,10:00,9.5,8.1,91.0,8.0,21.0,12.9,101.81,,,Rain,katkam-20161113100000.jpg
2016-11-13 11:00,2016,11,13,11:00,9.7,8.0,89.0,8.0,22.0,12.9,101.78,,,Rain,katkam-20161113110000.jpg
2016-11-13 12:00,2016,11,13,12:00,9.8,8.3,90.0,8.0,17.0,19.3,101.7,,,Rain,katkam-20161113120000.jpg
2016-11-13 13:00,2016,11,13,13:00,10.2,8.2,87.0,8.0,22.0,12.9,101.62,,,Rain,katkam-20161113130000.jpg
2016-11-13 14:00,2016,11,13,14:00,10.2,7.8,85.0,9.0,29.0,19.3,101.46,,,Rain,katkam-20161113140000.jpg
2016-11-13 15:00,2016,11,13,15:00,9.7,8.2,90.0,8.0,27.0,12.9,101.38,,,Rain,katkam-20161113150000.jpg
2016-11-13 16:00,2016,11,13,16:00,9.5,8.3,92.0,8.0,30.0,16.1,101.3,,,Rain,katkam-20161113160000.jpg
2016-11-13 17:00,2016,11,13,17:00,9.8,8.6,92.0,8.0,26.0,12.9,101.23,,,Rain,katkam-20161113170000.jpg
2016-11-13 18:00,2016,11,13,18:00,9.7,8.6,93.0,8.0,25.0,12.9,101.19,,,Rain,katkam-20161113180000.jpg
2016-11-14 07:00,2016,11,14,07:00,7.1,6.8,98.0,13.0,4.0,24.1,101.41,,,Mostly Cloudy,katkam-20161114070000.jpg
2016-11-14 10:00,2016,11,14,10:00,10.7,8.1,84.0,22.0,6.0,32.2,101.66,,,Mainly Clear,katkam-20161114100000.jpg
2016-11-14 13:00,2016,11,14,13:00,11.2,8.1,81.0,23.0,8.0,32.2,101.71,,,Mostly Cloudy,katkam-20161114130000.jpg
2016-11-14 16:00,2016,11,14,16:00,10.3,6.7,78.0,11.0,10.0,32.2,101.71,,,Mostly Cloudy,katkam-20161114160000.jpg
2016-11-15 06:00,2016,11,15,06:00,7.5,6.8,95.0,7.0,9.0,16.1,100.45,,,Rain,katkam-20161115060000.jpg
2016-11-15 07:00,2016,11,15,07:00,7.9,6.5,91.0,14.0,11.0,24.1,100.54,,,Rain,katkam-20161115070000.jpg
2016-11-15 08:00,2016,11,15,08:00,7.9,6.7,92.0,13.0,9.0,24.1,100.63,,,Rain,katkam-20161115080000.jpg
2016-11-15 09:00,2016,11,15,09:00,7.9,6.9,93.0,11.0,11.0,19.3,100.7,,,Rain,katkam-20161115090000.jpg
2016-11-15 10:00,2016,11,15,10:00,8.6,7.5,93.0,12.0,7.0,24.1,100.76,,,Cloudy,katkam-20161115100000.jpg
2016-11-15 13:00,2016,11,15,13:00,10.5,7.2,80.0,20.0,6.0,24.1,100.83,,,Mostly Cloudy,katkam-20161115130000.jpg
2016-11-15 15:00,2016,11,15,15:00,9.5,7.5,87.0,23.0,8.0,24.1,100.85,,,Rain,katkam-20161115150000.jpg
2016-11-15 16:00,2016,11,15,16:00,9.0,7.5,90.0,22.0,6.0,24.1,100.87,,,Cloudy,katkam-20161115160000.jpg
2016-11-16 06:00,2016,11,16,06:00,5.8,5.7,99.0,8.0,10.0,9.7,101.41,,,Fog,katkam-20161116060000.jpg
2016-11-16 07:00,2016,11,16,07:00,5.9,5.8,99.0,7.0,11.0,16.1,101.44,,,Cloudy,katkam-20161116070000.jpg
2016-11-16 10:00,2016,11,16,10:00,7.5,6.6,94.0,9.0,13.0,24.1,101.55,,,Cloudy,katkam-20161116100000.jpg
2016-11-16 13:00,2016,11,16,13:00,9.3,6.1,80.0,13.0,17.0,24.1,101.57,,,Cloudy,katkam-20161116130000.jpg
2016-11-16 16:00,2016,11,16,16:00,8.6,5.9,83.0,13.0,10.0,24.1,101.63,,,Cloudy,katkam-20161116160000.jpg
2016-11-16 17:00,2016,11,16,17:00,7.0,6.0,93.0,26.0,9.0,12.9,101.65,,,Moderate Rain,katkam-20161116170000.jpg
2016-11-16 18:00,2016,11,16,18:00,6.7,5.7,93.0,6.0,12.0,24.1,101.67,,,Rain,katkam-20161116180000.jpg
2016-11-17 07:00,2016,11,17,07:00,5.7,4.8,94.0,9.0,12.0,24.1,101.92,,,Cloudy,katkam-20161117070000.jpg
2016-11-17 10:00,2016,11,17,10:00,7.9,5.7,86.0,9.0,18.0,24.1,102.05,,,Cloudy,katkam-20161117100000.jpg
2016-11-17 13:00,2016,11,17,13:00,8.2,5.3,82.0,9.0,15.0,24.1,102.11,,,Cloudy,katkam-20161117130000.jpg
2016-11-17 16:00,2016,11,17,16:00,8.0,5.3,83.0,8.0,15.0,48.3,102.17,,,Mostly Cloudy,katkam-20161117160000.jpg
2016-11-18 07:00,2016,11,18,07:00,4.7,2.4,85.0,11.0,19.0,48.3,101.86,,,Cloudy,katkam-20161118070000.jpg
2016-11-18 10:00,2016,11,18,10:00,6.4,3.0,79.0,8.0,13.0,48.3,101.71,,,Cloudy,katkam-20161118100000.jpg
2016-11-18 13:00,2016,11,18,13:00,7.7,3.0,72.0,8.0,9.0,48.3,101.47,,,Cloudy,katkam-20161118130000.jpg
2016-11-18 16:00,2016,11,18,16:00,8.5,2.1,64.0,8.0,16.0,32.2,101.23,,,Cloudy,katkam-20161118160000.jpg
2016-11-19 06:00,2016,11,19,06:00,6.9,4.7,86.0,8.0,16.0,24.1,100.46,,,Rain,katkam-20161119060000.jpg
2016-11-19 07:00,2016,11,19,07:00,7.2,4.9,85.0,9.0,12.0,32.2,100.47,,,Cloudy,katkam-20161119070000.jpg
2016-11-19 10:00,2016,11,19,10:00,8.1,5.4,83.0,9.0,18.0,40.2,100.56,,,Mostly Cloudy,katkam-20161119100000.jpg
2016-11-19 13:00,2016,11,19,13:00,11.2,5.6,68.0,8.0,15.0,48.3,100.52,,,Cloudy,katkam-20161119130000.jpg
2016-11-19 16:00,2016,11,19,16:00,9.8,5.8,76.0,11.0,19.0,48.3,100.47,,,Cloudy,katkam-20161119160000.jpg
2016-11-20 07:00,2016,11,20,07:00,10.4,6.9,79.0,8.0,16.0,24.1,100.31,,,Cloudy,katkam-20161120070000.jpg
2016-11-20 08:00,2016,11,20,08:00,10.2,7.3,82.0,9.0,24.0,32.2,100.31,,,Rain,katkam-20161120080000.jpg
2016-11-20 10:00,2016,11,20,10:00,11.0,7.5,79.0,9.0,23.0,40.2,100.37,,,Cloudy,katkam-20161120100000.jpg
2016-11-20 13:00,2016,11,20,13:00,11.2,8.3,82.0,12.0,32.0,24.1,100.34,,,Cloudy,katkam-20161120130000.jpg
2016-11-20 14:00,2016,11,20,14:00,10.8,8.6,86.0,13.0,27.0,24.1,100.34,,,Rain,katkam-20161120140000.jpg
2016-11-20 15:00,2016,11,20,15:00,10.2,8.7,90.0,13.0,25.0,24.1,100.38,,,Rain,katkam-20161120150000.jpg
2016-11-20 16:00,2016,11,20,16:00,10.4,8.7,89.0,11.0,28.0,24.1,100.37,,,Rain,katkam-20161120160000.jpg
2016-11-21 07:00,2016,11,21,07:00,8.9,6.5,85.0,10.0,7.0,24.1,101.05,,,Cloudy,katkam-20161121070000.jpg
2016-11-21 10:00,2016,11,21,10:00,10.4,6.2,75.0,20.0,4.0,24.1,101.23,,,Mostly Cloudy,katkam-20161121100000.jpg
2016-11-21 13:00,2016,11,21,13:00,10.7,7.6,81.0,20.0,13.0,40.2,101.29,,,Mainly Clear,katkam-20161121130000.jpg
2016-11-21 16:00,2016,11,21,16:00,9.1,3.3,67.0,15.0,12.0,40.2,101.44,,,Mainly Clear,katkam-20161121160000.jpg
2016-11-22 07:00,2016,11,22,07:00,8.7,4.2,73.0,9.0,26.0,32.2,101.28,,,Rain,katkam-20161122070000.jpg
2016-11-22 08:00,2016,11,22,08:00,8.3,4.7,78.0,9.0,26.0,24.1,101.22,,,Rain,katkam-20161122080000.jpg
2016-11-22 09:00,2016,11,22,09:00,8.1,5.2,82.0,9.0,24.0,12.9,101.21,,,Rain,katkam-20161122090000.jpg
2016-11-22 10:00,2016,11,22,10:00,8.2,5.3,82.0,8.0,22.0,16.1,101.24,,,Rain,katkam-20161122100000.jpg
2016-11-22 11:00,2016,11,22,11:00,8.0,5.7,85.0,8.0,18.0,12.9,101.23,,,Rain,katkam-20161122110000.jpg
2016-11-22 12:00,2016,11,22,12:00,7.9,6.4,90.0,7.0,20.0,12.9,101.18,,,Moderate Rain,katkam-20161122120000.jpg
2016-11-22 13:00,2016,11,22,13:00,7.7,6.3,91.0,8.0,25.0,19.3,101.06,,,Rain,katkam-20161122130000.jpg
2016-11-22 14:00,2016,11,22,14:00,7.5,6.3,92.0,8.0,20.0,12.9,100.96,,,Rain,katkam-20161122140000.jpg
2016-11-22 15:00,2016,11,22,15:00,7.6,6.2,91.0,7.0,22.0,19.3,100.88,,,Rain,katkam-20161122150000.jpg
2016-11-22 16:00,2016,11,22,16:00,7.7,6.5,92.0,8.0,17.0,24.1,100.82,,,Rain,katkam-20161122160000.jpg
2016-11-22 17:00,2016,11,22,17:00,6.8,5.8,93.0,9.0,25.0,19.3,100.81,,,Rain,katkam-20161122170000.jpg
2016-11-23 07:00,2016,11,23,07:00,6.7,5.7,93.0,12.0,14.0,24.1,101.1,,,Mostly Cloudy,katkam-20161123070000.jpg
2016-11-23 10:00,2016,11,23,10:00,8.9,6.5,85.0,14.0,22.0,24.1,101.27,,,Mostly Cloudy,katkam-20161123100000.jpg
2016-11-23 12:00,2016,11,23,12:00,8.5,6.0,84.0,13.0,30.0,24.1,101.32,,,Rain,katkam-20161123120000.jpg
2016-11-23 13:00,2016,11,23,13:00,8.9,6.7,86.0,13.0,17.0,24.1,101.34,,,Rain,katkam-20161123130000.jpg
2016-11-23 16:00,2016,11,23,16:00,8.3,5.6,83.0,13.0,19.0,24.1,101.4,,,Cloudy,katkam-20161123160000.jpg
2016-11-24 06:00,2016,11,24,06:00,8.3,5.6,83.0,15.0,37.0,24.1,100.75,,,Rain,katkam-20161124060000.jpg
2016-11-24 07:00,2016,11,24,07:00,8.0,5.5,84.0,16.0,40.0,24.1,100.75,,,Rain,katkam-20161124070000.jpg
2016-11-24 10:00,2016,11,24,10:00,9.1,5.5,78.0,16.0,40.0,24.1,100.64,,,Cloudy,katkam-20161124100000.jpg
2016-11-24 11:00,2016,11,24,11:00,8.8,5.9,82.0,15.0,30.0,24.1,100.6,,,Rain,katkam-20161124110000.jpg
2016-11-24 12:00,2016,11,24,12:00,9.0,6.1,82.0,15.0,44.0,24.1,100.57,,,Rain,katkam-20161124120000.jpg
2016-11-24 13:00,2016,11,24,13:00,9.5,6.1,79.0,16.0,41.0,24.1,100.62,,,Cloudy,katkam-20161124130000.jpg
2016-11-24 14:00,2016,11,24,14:00,9.4,6.5,82.0,15.0,26.0,24.1,100.65,,,Rain,katkam-20161124140000.jpg
2016-11-24 16:00,2016,11,24,16:00,8.6,5.5,81.0,14.0,18.0,24.1,100.6,,,Cloudy,katkam-20161124160000.jpg
2016-11-24 17:00,2016,11,24,17:00,8.5,6.0,84.0,15.0,16.0,24.1,100.57,,,Rain,katkam-20161124170000.jpg
2016-11-25 07:00,2016,11,25,07:00,4.8,3.6,92.0,7.0,12.0,24.1,101.23,,,Mostly Cloudy,katkam-20161125070000.jpg
2016-11-25 10:00,2016,11,25,10:00,8.3,5.3,81.0,5.0,19.0,24.1,101.33,,,Mostly Cloudy,katkam-20161125100000.jpg
2016-11-25 13:00,2016,11,25,13:00,9.6,5.0,73.0,7.0,16.0,24.1,101.25,,,Cloudy,katkam-20161125130000.jpg
2016-11-25 16:00,2016,11,25,16:00,8.6,4.3,74.0,7.0,12.0,32.2,101.21,,,Cloudy,katkam-20161125160000.jpg
2016-11-26 06:00,2016,11,26,06:00,5.4,5.0,97.0,25.0,4.0,12.9,99.86,,,Moderate Rain,katkam-20161126060000.jpg
2016-11-26 07:00,2016,11,26,07:00,6.0,5.6,97.0,31.0,14.0,8.1,99.8,,,"Moderate Rain,Fog",katkam-20161126070000.jpg
2016-11-26 08:00,2016,11,26,08:00,6.0,5.6,97.0,36.0,1.0,8.1,99.77,,,"Rain,Fog",katkam-20161126080000.jpg
2016-11-26 09:00,2016,11,26,09:00,6.2,5.8,97.0,34.0,4.0,12.9,99.74,,,Rain,katkam-20161126090000.jpg
2016-11-26 10:00,2016,11,26,10:00,5.5,4.9,96.0,29.0,20.0,12.9,99.79,,,Rain,katkam-20161126100000.jpg
2016-11-26 11:00,2016,11,26,11:00,5.8,5.2,96.0,29.0,18.0,12.9,99.81,,,Rain,katkam-20161126110000.jpg
2016-11-26 12:00,2016,11,26,12:00,5.8,5.1,95.0,29.0,18.0,12.9,99.82,,,Rain,katkam-20161126120000.jpg
2016-11-26 13:00,2016,11,26,13:00,5.5,4.8,95.0,30.0,20.0,12.9,99.77,,,Rain,katkam-20161126130000.jpg
2016-11-26 14:00,2016,11,26,14:00,5.7,5.0,95.0,30.0,10.0,12.9,99.73,,,Rain,katkam-20161126140000.jpg
2016-11-26 15:00,2016,11,26,15:00,6.0,5.4,96.0,26.0,3.0,12.9,99.72,,,Rain,katkam-20161126150000.jpg
2016-11-26 16:00,2016,11,26,16:00,5.9,5.2,95.0,30.0,21.0,12.9,99.73,,,Rain,katkam-20161126160000.jpg
2016-11-26 17:00,2016,11,26,17:00,5.9,5.2,95.0,30.0,20.0,12.9,99.76,,,Rain,katkam-20161126170000.jpg
2016-11-27 07:00,2016,11,27,07:00,3.3,2.3,93.0,10.0,8.0,32.2,100.62,,,Mainly Clear,katkam-20161127070000.jpg
2016-11-27 10:00,2016,11,27,10:00,6.1,4.3,88.0,6.0,16.0,24.1,100.62,,,Cloudy,katkam-20161127100000.jpg
2016-11-27 11:00,2016,11,27,11:00,6.3,5.0,91.0,7.0,17.0,12.9,100.61,,,Rain Showers,katkam-20161127110000.jpg
2016-11-27 12:00,2016,11,27,12:00,6.4,5.7,95.0,6.0,9.0,6.4,100.56,,,"Rain Showers,Fog",katkam-20161127120000.jpg
2016-11-27 13:00,2016,11,27,13:00,7.0,6.3,95.0,14.0,12.0,8.1,100.46,,,"Rain Showers,Fog",katkam-20161127130000.jpg
2016-11-27 14:00,2016,11,27,14:00,7.2,6.3,94.0,12.0,23.0,12.9,100.28,,,Rain,katkam-20161127140000.jpg
2016-11-27 16:00,2016,11,27,16:00,6.8,5.8,93.0,10.0,23.0,12.9,99.97,,,Rain,katkam-20161127160000.jpg
2016-11-27 17:00,2016,11,27,17:00,6.7,6.1,96.0,8.0,26.0,8.1,99.79,,,"Rain,Fog",katkam-20161127170000.jpg
2016-11-28 07:00,2016,11,28,07:00,3.8,3.2,96.0,8.0,9.0,19.3,100.79,,,Mostly Cloudy,katkam-20161128070000.jpg
2016-11-28 10:00,2016,11,28,10:00,5.8,4.6,92.0,7.0,8.0,24.1,101.12,,,Mostly Cloudy,katkam-20161128100000.jpg
2016-11-28 13:00,2016,11,28,13:00,7.3,4.8,84.0,25.0,7.0,24.1,101.28,,,Mostly Cloudy,katkam-20161128130000.jpg
2016-11-28 16:00,2016,11,28,16:00,5.6,4.3,91.0,25.0,9.0,32.2,101.49,,,Mainly Clear,katkam-20161128160000.jpg
2016-11-29 07:00,2016,11,29,07:00,5.8,4.5,91.0,7.0,10.0,24.1,102.12,,,Cloudy,katkam-20161129070000.jpg
2016-11-29 10:00,2016,11,29,10:00,6.3,4.1,86.0,10.0,13.0,24.1,102.14,,,Cloudy,katkam-20161129100000.jpg
2016-11-29 11:00,2016,11,29,11:00,6.2,4.2,87.0,9.0,14.0,19.3,102.14,,,Rain,katkam-20161129110000.jpg
2016-11-29 12:00,2016,11,29,12:00,6.3,5.0,91.0,8.0,17.0,9.7,102.08,,,"Rain,Fog",katkam-20161129120000.jpg
2016-11-29 13:00,2016,11,29,13:00,6.6,5.6,93.0,8.0,18.0,24.1,101.97,,,Rain,katkam-20161129130000.jpg
2016-11-29 16:00,2016,11,29,16:00,7.3,5.0,85.0,8.0,20.0,24.1,101.65,,,Cloudy,katkam-20161129160000.jpg
2016-11-30 06:00,2016,11,30,06:00,6.5,5.1,91.0,9.0,27.0,16.1,100.76,,,Rain Showers,katkam-20161130060000.jpg
2016-11-30 07:00,2016,11,30,07:00,6.4,5.4,93.0,8.0,26.0,6.4,100.77,,,"Rain,Fog",katkam-20161130070000.jpg
2016-11-30 08:00,2016,11,30,08:00,6.4,5.7,95.0,9.0,22.0,4.0,100.78,,,"Rain,Fog",katkam-20161130080000.jpg
2016-11-30 09:00,2016,11,30,09:00,6.7,6.0,95.0,6.0,24.0,4.8,100.84,,,"Rain,Fog",katkam-20161130090000.jpg
2016-11-30 10:00,2016,11,30,10:00,6.7,6.0,95.0,6.0,22.0,4.8,100.92,,,"Heavy Rain,Fog",katkam-20161130100000.jpg
2016-11-30 11:00,2016,11,30,11:00,6.8,5.8,93.0,5.0,17.0,6.4,100.97,,,"Rain,Fog",katkam-20161130110000.jpg
2016-11-30 12:00,2016,11,30,12:00,6.7,5.8,94.0,32.0,23.0,11.3,101.14,,,Drizzle,katkam-20161130120000.jpg
2016-11-30 13:00,2016,11,30,13:00,7.4,6.2,92.0,30.0,32.0,24.1,101.23,,,Rain,katkam-20161130130000.jpg
2016-11-30 16:00,2016,11,30,16:00,8.3,4.7,78.0,28.0,47.0,32.2,101.35,,,Mostly Cloudy,katkam-20161130160000.jpg
2016-12-01 07:00,2016,12,1,07:00,2.4,1.4,93.0,10.0,9.0,32.2,102.24,,,Mainly Clear,katkam-20161201070000.jpg
2016-12-01 10:00,2016,12,1,10:00,5.3,3.5,88.0,10.0,9.0,48.3,102.39,,,Mostly Cloudy,katkam-20161201100000.jpg
2016-12-01 13:00,2016,12,1,13:00,7.4,4.5,82.0,9.0,9.0,32.2,102.49,,,Cloudy,katkam-20161201130000.jpg
2016-12-01 14:00,2016,12,1,14:00,6.9,4.9,87.0,10.0,16.0,24.1,102.49,,,Rain Showers,katkam-20161201140000.jpg
2016-12-01 15:00,2016,12,1,15:00,6.7,5.2,90.0,9.0,15.0,24.1,102.51,,,Rain,katkam-20161201150000.jpg
2016-12-01 16:00,2016,12,1,16:00,6.5,5.0,90.0,8.0,12.0,24.1,102.56,,,Rain,katkam-20161201160000.jpg
2016-12-01 17:00,2016,12,1,17:00,6.2,5.2,93.0,9.0,14.0,24.1,102.58,,,Rain,katkam-20161201170000.jpg
2016-12-02 06:00,2016,12,2,06:00,6.0,5.1,94.0,8.0,23.0,16.1,102.35,,,Rain,katkam-20161202060000.jpg
2016-12-02 07:00,2016,12,2,07:00,6.2,5.3,94.0,8.0,18.0,19.3,102.29,,,Rain,katkam-20161202070000.jpg
2016-12-02 08:00,2016,12,2,08:00,6.2,5.5,95.0,9.0,22.0,8.1,102.25,,,"Rain,Fog",katkam-20161202080000.jpg
2016-12-02 09:00,2016,12,2,09:00,6.3,5.7,96.0,9.0,22.0,19.3,102.17,,,Rain,katkam-20161202090000.jpg
2016-12-02 10:00,2016,12,2,10:00,6.7,6.1,96.0,8.0,23.0,8.1,102.07,,,"Rain,Fog",katkam-20161202100000.jpg
2016-12-02 12:00,2016,12,2,12:00,8.2,6.7,90.0,13.0,31.0,16.1,101.84,,,Rain,katkam-20161202120000.jpg
2016-12-02 13:00,2016,12,2,13:00,8.0,6.9,93.0,12.0,29.0,6.4,101.73,,,"Rain,Drizzle,Fog",katkam-20161202130000.jpg
2016-12-02 14:00,2016,12,2,14:00,7.9,7.2,95.0,13.0,34.0,3.2,101.64,,,"Rain,Drizzle,Fog",katkam-20161202140000.jpg
2016-12-02 15:00,2016,12,2,15:00,8.1,7.4,95.0,15.0,27.0,16.1,101.63,,,Rain,katkam-20161202150000.jpg
2016-12-02 16:00,2016,12,2,16:00,8.2,7.3,94.0,15.0,24.0,24.1,101.59,,,Cloudy,katkam-20161202160000.jpg
2016-12-03 07:00,2016,12,3,07:00,3.4,3.0,97.0,7.0,8.0,48.3,102.23,,,Mostly Cloudy,katkam-20161203070000.jpg
2016-12-03 10:00,2016,12,3,10:00,6.0,4.3,89.0,8.0,12.0,32.2,102.23,,,Cloudy,katkam-20161203100000.jpg
2016-12-03 13:00,2016,12,3,13:00,8.2,5.2,81.0,13.0,8.0,32.2,102.15,,,Rain,katkam-20161203130000.jpg
2016-12-03 14:00,2016,12,3,14:00,8.0,5.3,83.0,18.0,11.0,32.2,102.12,,,Rain Showers,katkam-20161203140000.jpg
2016-12-03 15:00,2016,12,3,15:00,7.8,5.3,84.0,19.0,18.0,24.1,102.07,,,Rain Showers,katkam-20161203150000.jpg
2016-12-03 16:00,2016,12,3,16:00,7.6,5.3,85.0,18.0,17.0,24.1,102.01,,,Rain,katkam-20161203160000.jpg
2016-12-03 17:00,2016,12,3,17:00,7.0,5.5,90.0,18.0,14.0,19.3,101.93,,,Rain,katkam-20161203170000.jpg
2016-12-04 07:00,2016,12,4,07:00,4.0,0.2,76.0,29.0,37.0,24.1,101.38,,,Mainly Clear,katkam-20161204070000.jpg
2016-12-04 10:00,2016,12,4,10:00,4.9,0.3,72.0,29.0,49.0,48.3,101.46,,,Clear,katkam-20161204100000.jpg
2016-12-04 13:00,2016,12,4,13:00,6.0,1.2,71.0,30.0,32.0,48.3,101.6,,,Mainly Clear,katkam-20161204130000.jpg
2016-12-04 16:00,2016,12,4,16:00,4.8,-0.2,70.0,28.0,26.0,48.3,101.67,,,Mostly Cloudy,katkam-20161204160000.jpg
2016-12-05 06:00,2016,12,5,06:00,0.3,-0.1,97.0,9.0,16.0,3.2,101.74,,,Snow Showers,katkam-20161205060000.jpg
2016-12-05 07:00,2016,12,5,07:00,0.2,-0.1,98.0,6.0,14.0,1.6,101.71,,,Snow,katkam-20161205070000.jpg
2016-12-05 08:00,2016,12,5,08:00,0.9,0.5,97.0,8.0,22.0,12.9,101.67,,,Snow,katkam-20161205080000.jpg
2016-12-05 09:00,2016,12,5,09:00,1.2,0.3,94.0,8.0,25.0,11.3,101.63,,,Snow,katkam-20161205090000.jpg
2016-12-05 10:00,2016,12,5,10:00,0.8,0.1,95.0,9.0,26.0,4.0,101.64,,,Snow,katkam-20161205100000.jpg
2016-12-05 11:00,2016,12,5,11:00,0.6,0.2,97.0,10.0,21.0,4.0,101.65,,,Snow,katkam-20161205110000.jpg
2016-12-05 12:00,2016,12,5,12:00,0.6,0.2,97.0,9.0,22.0,2.0,101.64,,,Snow,katkam-20161205120000.jpg
2016-12-05 13:00,2016,12,5,13:00,1.1,0.5,96.0,8.0,18.0,8.1,101.61,,,"Rain,Fog",katkam-20161205130000.jpg
2016-12-05 14:00,2016,12,5,14:00,1.0,0.4,96.0,8.0,16.0,4.8,101.61,,,"Rain,Fog",katkam-20161205140000.jpg
2016-12-05 15:00,2016,12,5,15:00,1.4,0.7,95.0,9.0,19.0,12.9,101.61,,,Fog,katkam-20161205150000.jpg
2016-12-05 16:00,2016,12,5,16:00,1.1,0.5,96.0,7.0,19.0,24.1,101.6,,,Cloudy,katkam-20161205160000.jpg
2016-12-06 07:00,2016,12,6,07:00,-2.0,-5.7,76.0,10.0,10.0,48.3,102.08,,-6.0,Clear,katkam-20161206070000.jpg
2016-12-06 10:00,2016,12,6,10:00,0.6,-4.1,71.0,10.0,15.0,48.3,102.29,,,Mainly Clear,katkam-20161206100000.jpg
2016-12-06 13:00,2016,12,6,13:00,2.9,-4.8,57.0,11.0,10.0,48.3,102.36,,,Mostly Cloudy,katkam-20161206130000.jpg
2016-12-06 16:00,2016,12,6,16:00,0.6,-5.9,62.0,10.0,8.0,48.3,102.52,,,Mostly Cloudy,katkam-20161206160000.jpg
2016-12-07 07:00,2016,12,7,07:00,-5.5,-10.3,69.0,11.0,12.0,48.3,103.24,,-10.0,Clear,katkam-20161207070000.jpg
2016-12-07 10:00,2016,12,7,10:00,-2.7,-9.7,59.0,11.0,13.0,48.3,103.29,,-7.0,Clear,katkam-20161207100000.jpg
2016-12-07 13:00,2016,12,7,13:00,-0.1,-9.9,48.0,15.0,6.0,48.3,103.21,,-2.0,Clear,katkam-20161207130000.jpg
2016-12-07 16:00,2016,12,7,16:00,-1.2,-8.2,59.0,36.0,2.0,48.3,103.12,,-2.0,Clear,katkam-20161207160000.jpg
2016-12-08 07:00,2016,12,8,07:00,-5.6,-11.4,64.0,7.0,6.0,48.3,102.35,,-8.0,Mainly Clear,katkam-20161208070000.jpg
2016-12-08 10:00,2016,12,8,10:00,-2.3,-8.6,62.0,6.0,4.0,48.3,102.18,,-4.0,Mainly Clear,katkam-20161208100000.jpg
2016-12-08 13:00,2016,12,8,13:00,0.8,-7.3,55.0,32.0,7.0,48.3,101.87,,,Mostly Cloudy,katkam-20161208130000.jpg
2016-12-08 16:00,2016,12,8,16:00,-0.4,-8.1,56.0,36.0,4.0,48.3,101.6,,-2.0,Mostly Cloudy,katkam-20161208160000.jpg
2016-12-09 07:00,2016,12,9,07:00,-1.1,-3.0,87.0,9.0,19.0,19.3,101.49,,-6.0,Snow,katkam-20161209070000.jpg
2016-12-09 08:00,2016,12,9,08:00,-1.6,-2.4,94.0,10.0,20.0,3.2,101.52,,-7.0,Snow,katkam-20161209080000.jpg
2016-12-09 09:00,2016,12,9,09:00,-1.7,-2.5,94.0,10.0,19.0,2.0,101.52,,-7.0,Snow,katkam-20161209090000.jpg
2016-12-09 10:00,2016,12,9,10:00,-1.3,-2.0,95.0,9.0,19.0,2.4,101.52,,-7.0,Snow,katkam-20161209100000.jpg
2016-12-09 12:00,2016,12,9,12:00,-0.7,-1.8,92.0,10.0,14.0,24.1,101.46,,-5.0,Snow,katkam-20161209120000.jpg
2016-12-09 13:00,2016,12,9,13:00,-0.7,-1.4,95.0,9.0,16.0,1.0,101.37,,-5.0,Snow,katkam-20161209130000.jpg
2016-12-09 14:00,2016,12,9,14:00,-0.5,-1.2,95.0,9.0,18.0,2.0,101.32,,-6.0,Snow,katkam-20161209140000.jpg
2016-12-09 15:00,2016,12,9,15:00,-0.6,-1.2,96.0,9.0,18.0,1.6,101.31,,-6.0,Snow,katkam-20161209150000.jpg
2016-12-09 16:00,2016,12,9,16:00,-0.4,-1.0,96.0,10.0,14.0,4.8,101.26,,-5.0,Snow,katkam-20161209160000.jpg
2016-12-09 17:00,2016,12,9,17:00,-0.4,-1.0,96.0,9.0,19.0,6.4,101.17,,-6.0,Snow,katkam-20161209170000.jpg
2016-12-10 07:00,2016,12,10,07:00,1.2,-0.1,91.0,8.0,19.0,24.1,100.94,,,Cloudy,katkam-20161210070000.jpg
2016-12-10 09:00,2016,12,10,09:00,1.3,0.1,92.0,8.0,22.0,8.1,100.96,,,"Rain,Fog",katkam-20161210090000.jpg
2016-12-10 10:00,2016,12,10,10:00,1.2,0.3,94.0,9.0,19.0,8.1,101.0,,,"Rain,Fog",katkam-20161210100000.jpg
2016-12-10 11:00,2016,12,10,11:00,1.4,0.5,94.0,9.0,22.0,8.1,100.97,,,"Rain,Fog",katkam-20161210110000.jpg
2016-12-10 12:00,2016,12,10,12:00,1.5,0.6,94.0,8.0,24.0,12.9,100.89,,,Rain,katkam-20161210120000.jpg
2016-12-10 13:00,2016,12,10,13:00,2.3,1.1,92.0,7.0,25.0,12.9,100.83,,,Rain,katkam-20161210130000.jpg
2016-12-10 14:00,2016,12,10,14:00,2.1,1.1,93.0,7.0,18.0,8.1,100.8,,,"Rain,Fog",katkam-20161210140000.jpg
2016-12-10 15:00,2016,12,10,15:00,2.1,1.1,93.0,9.0,25.0,6.4,100.77,,,"Rain,Fog",katkam-20161210150000.jpg
2016-12-10 16:00,2016,12,10,16:00,1.7,0.8,94.0,8.0,27.0,12.9,100.78,,,Cloudy,katkam-20161210160000.jpg
2016-12-10 17:00,2016,12,10,17:00,1.9,1.0,94.0,8.0,20.0,12.9,100.78,,,Rain,katkam-20161210170000.jpg
2016-12-11 07:00,2016,12,11,07:00,2.6,2.0,96.0,8.0,9.0,19.3,100.94,,,Cloudy,katkam-20161211070000.jpg
2016-12-11 10:00,2016,12,11,10:00,5.0,3.7,91.0,8.0,8.0,19.3,101.08,,,Mostly Cloudy,katkam-20161211100000.jpg
2016-12-11 13:00,2016,12,11,13:00,5.7,3.4,85.0,16.0,5.0,19.3,101.08,,,Rain Showers,katkam-20161211130000.jpg
2016-12-11 16:00,2016,12,11,16:00,3.2,2.2,93.0,9.0,18.0,24.1,101.17,,,Mostly Cloudy,katkam-20161211160000.jpg
2016-12-11 17:00,2016,12,11,17:00,3.1,2.2,94.0,9.0,16.0,16.1,101.22,,,Rain Showers,katkam-20161211170000.jpg
2016-12-12 06:00,2016,12,12,06:00,0.2,-0.7,94.0,9.0,12.0,6.4,101.94,,,Snow,katkam-20161212060000.jpg
2016-12-12 07:00,2016,12,12,07:00,0.1,-0.5,96.0,11.0,10.0,4.8,102.03,,,Snow,katkam-20161212070000.jpg
2016-12-12 10:00,2016,12,12,10:00,0.9,-1.8,82.0,36.0,1.0,16.1,102.29,,,Mostly Cloudy,katkam-20161212100000.jpg
2016-12-12 13:00,2016,12,12,13:00,1.5,-1.1,83.0,15.0,8.0,24.1,102.37,,,Mostly Cloudy,katkam-20161212130000.jpg
2016-12-12 16:00,2016,12,12,16:00,-0.4,-3.3,81.0,12.0,11.0,24.1,102.48,,-4.0,Mainly Clear,katkam-20161212160000.jpg
2016-12-13 07:00,2016,12,13,07:00,-5.0,-6.8,87.0,10.0,10.0,32.2,102.61,,-9.0,Mainly Clear,katkam-20161213070000.jpg
2016-12-13 10:00,2016,12,13,10:00,-2.7,-5.9,79.0,11.0,10.0,32.2,102.77,,-7.0,Mainly Clear,katkam-20161213100000.jpg
2016-12-13 13:00,2016,12,13,13:00,0.2,-4.5,71.0,36.0,1.0,32.2,102.74,,,Mainly Clear,katkam-20161213130000.jpg
2016-12-13 16:00,2016,12,13,16:00,-0.3,-3.9,77.0,14.0,5.0,48.3,102.74,,-2.0,Mainly Clear,katkam-20161213160000.jpg
2016-12-14 07:00,2016,12,14,07:00,-6.1,-9.7,76.0,9.0,11.0,48.3,102.43,,-11.0,Mainly Clear,katkam-20161214070000.jpg
2016-12-14 10:00,2016,12,14,10:00,-5.5,-8.4,80.0,10.0,12.0,48.3,102.26,,-10.0,Mainly Clear,katkam-20161214100000.jpg
2016-12-14 13:00,2016,12,14,13:00,-2.2,-5.9,76.0,10.0,6.0,32.2,101.91,,-5.0,Mostly Cloudy,katkam-20161214130000.jpg
2016-12-14 16:00,2016,12,14,16:00,-3.2,-6.0,81.0,10.0,9.0,32.2,101.55,,-7.0,Mostly Cloudy,katkam-20161214160000.jpg
2016-12-15 07:00,2016,12,15,07:00,-5.7,-6.8,92.0,11.0,6.0,32.2,101.3,,-9.0,Clear,katkam-20161215070000.jpg
2016-12-15 10:00,2016,12,15,10:00,-4.2,-6.7,83.0,9.0,13.0,48.3,101.47,,-9.0,Clear,katkam-20161215100000.jpg
2016-12-15 13:00,2016,12,15,13:00,-0.3,-5.9,66.0,16.0,3.0,48.3,101.43,,-1.0,Clear,katkam-20161215130000.jpg
2016-12-15 16:00,2016,12,15,16:00,-0.8,-4.7,75.0,18.0,6.0,48.3,101.43,,-3.0,Mainly Clear,katkam-20161215160000.jpg
2016-12-16 07:00,2016,12,16,07:00,-7.3,-13.0,64.0,11.0,15.0,32.2,101.88,,-13.0,Mainly Clear,katkam-20161216070000.jpg
2016-12-16 10:00,2016,12,16,10:00,-4.9,-12.6,55.0,10.0,15.0,48.3,102.16,,-10.0,Mainly Clear,katkam-20161216100000.jpg
2016-12-16 13:00,2016,12,16,13:00,-2.3,-11.4,50.0,11.0,15.0,48.3,102.25,,-7.0,Mainly Clear,katkam-20161216130000.jpg
2016-12-16 16:00,2016,12,16,16:00,-2.6,-12.7,46.0,2.0,3.0,48.3,102.4,,-4.0,Mainly Clear,katkam-20161216160000.jpg
2016-12-17 07:00,2016,12,17,07:00,-5.7,-8.9,78.0,10.0,12.0,32.2,102.82,,-11.0,Cloudy,katkam-20161217070000.jpg
2016-12-17 10:00,2016,12,17,10:00,-4.2,-7.5,78.0,10.0,7.0,48.3,103.07,,-7.0,Cloudy,katkam-20161217100000.jpg
2016-12-17 13:00,2016,12,17,13:00,-2.0,-8.1,63.0,10.0,11.0,48.3,103.06,,-6.0,Cloudy,katkam-20161217130000.jpg
2016-12-17 16:00,2016,12,17,16:00,-2.5,-7.8,67.0,10.0,7.0,48.3,103.16,,-5.0,Cloudy,katkam-20161217160000.jpg
2016-12-18 06:00,2016,12,18,06:00,-2.0,-2.7,95.0,7.0,18.0,1.6,103.3,,-7.0,Snow,katkam-20161218060000.jpg
2016-12-18 07:00,2016,12,18,07:00,-1.7,-2.4,95.0,8.0,19.0,1.6,103.28,,-7.0,Snow,katkam-20161218070000.jpg
2016-12-18 08:00,2016,12,18,08:00,-1.2,-2.5,91.0,6.0,16.0,4.8,103.29,,-6.0,Snow,katkam-20161218080000.jpg
2016-12-18 09:00,2016,12,18,09:00,-1.7,-2.4,95.0,8.0,14.0,1.6,103.3,,-6.0,Snow,katkam-20161218090000.jpg
2016-12-18 10:00,2016,12,18,10:00,-1.3,-1.9,96.0,8.0,16.0,1.6,103.3,,-6.0,Snow,katkam-20161218100000.jpg
2016-12-18 11:00,2016,12,18,11:00,-1.0,-1.6,96.0,8.0,17.0,2.4,103.26,,-6.0,Snow,katkam-20161218110000.jpg
2016-12-18 12:00,2016,12,18,12:00,-0.6,-1.3,95.0,9.0,14.0,12.9,103.2,,-5.0,Snow,katkam-20161218120000.jpg
2016-12-18 13:00,2016,12,18,13:00,-0.4,-1.3,94.0,9.0,17.0,4.8,103.13,,-5.0,"Snow,Fog",katkam-20161218130000.jpg
2016-12-18 14:00,2016,12,18,14:00,-0.2,-0.9,95.0,8.0,14.0,9.7,103.09,,-4.0,"Snow,Fog",katkam-20161218140000.jpg
2016-12-18 15:00,2016,12,18,15:00,0.1,-0.6,95.0,7.0,20.0,3.6,102.95,,,"Snow,Fog",katkam-20161218150000.jpg
2016-12-18 16:00,2016,12,18,16:00,0.3,-0.3,96.0,8.0,18.0,4.8,102.87,,,"Snow,Fog",katkam-20161218160000.jpg
2016-12-18 17:00,2016,12,18,17:00,0.8,-0.4,92.0,7.0,17.0,16.1,102.84,,,Snow,katkam-20161218170000.jpg
2016-12-19 06:00,2016,12,19,06:00,1.6,1.0,96.0,7.0,17.0,12.9,101.26,,,Rain,katkam-20161219060000.jpg
2016-12-19 07:00,2016,12,19,07:00,1.4,0.5,94.0,2.0,26.0,12.9,101.36,,,Rain,katkam-20161219070000.jpg
2016-12-19 10:00,2016,12,19,10:00,2.9,1.6,91.0,8.0,10.0,32.2,101.87,,,Mainly Clear,katkam-20161219100000.jpg
2016-12-19 13:00,2016,12,19,13:00,3.9,2.1,88.0,11.0,14.0,32.2,102.07,,,Mostly Cloudy,katkam-20161219130000.jpg
2016-12-19 16:00,2016,12,19,16:00,3.7,2.5,92.0,7.0,15.0,19.3,102.19,,,Cloudy,katkam-20161219160000.jpg
2016-12-20 07:00,2016,12,20,07:00,5.7,2.9,82.0,22.0,31.0,24.1,101.06,,,Mainly Clear,katkam-20161220070000.jpg
2016-12-20 10:00,2016,12,20,10:00,6.5,2.6,76.0,20.0,28.0,32.2,101.59,,,Mostly Cloudy,katkam-20161220100000.jpg
2016-12-20 13:00,2016,12,20,13:00,7.1,3.2,76.0,21.0,18.0,32.2,101.84,,,Mostly Cloudy,katkam-20161220130000.jpg
2016-12-20 16:00,2016,12,20,16:00,6.0,2.1,76.0,28.0,17.0,48.3,102.34,,,Mainly Clear,katkam-20161220160000.jpg
2016-12-21 07:00,2016,12,21,07:00,4.0,3.0,93.0,8.0,14.0,24.1,103.08,,,Cloudy,katkam-20161221070000.jpg
2016-12-21 10:00,2016,12,21,10:00,5.1,3.1,87.0,8.0,12.0,24.1,103.01,,,Cloudy,katkam-20161221100000.jpg
2016-12-21 13:00,2016,12,21,13:00,5.9,3.1,82.0,10.0,12.0,24.1,102.71,,,Cloudy,katkam-20161221130000.jpg
2016-12-21 16:00,2016,12,21,16:00,4.5,1.0,78.0,7.0,10.0,24.1,102.42,,,Cloudy,katkam-20161221160000.jpg
2016-12-22 07:00,2016,12,22,07:00,2.8,0.4,84.0,12.0,15.0,24.1,101.07,,,Cloudy,katkam-20161222070000.jpg
2016-12-22 10:00,2016,12,22,10:00,4.0,1.6,84.0,9.0,25.0,24.1,100.98,,,Rain Showers,katkam-20161222100000.jpg
2016-12-22 11:00,2016,12,22,11:00,4.0,1.9,86.0,7.0,29.0,24.1,100.95,,,Rain Showers,katkam-20161222110000.jpg
2016-12-22 13:00,2016,12,22,13:00,4.8,2.0,82.0,8.0,16.0,24.1,100.86,,,Cloudy,katkam-20161222130000.jpg
2016-12-22 16:00,2016,12,22,16:00,4.5,2.7,88.0,7.0,16.0,24.1,100.81,,,Mostly Cloudy,katkam-20161222160000.jpg
2016-12-23 06:00,2016,12,23,06:00,3.7,2.7,93.0,30.0,17.0,16.1,100.11,,,Rain,katkam-20161223060000.jpg
2016-12-23 07:00,2016,12,23,07:00,3.2,1.9,91.0,32.0,17.0,16.1,100.04,,,Rain,katkam-20161223070000.jpg
2016-12-23 08:00,2016,12,23,08:00,3.3,1.8,90.0,30.0,20.0,16.1,100.02,,,Rain,katkam-20161223080000.jpg
2016-12-23 09:00,2016,12,23,09:00,3.2,2.0,92.0,30.0,22.0,19.3,100.02,,,Rain,katkam-20161223090000.jpg
2016-12-23 10:00,2016,12,23,10:00,3.5,2.2,91.0,30.0,16.0,16.1,100.11,,,Rain,katkam-20161223100000.jpg
2016-12-23 11:00,2016,12,23,11:00,3.5,2.3,92.0,31.0,13.0,19.3,100.14,,,Rain,katkam-20161223110000.jpg
2016-12-23 12:00,2016,12,23,12:00,3.5,2.3,92.0,31.0,11.0,19.3,100.15,,,Rain,katkam-20161223120000.jpg
2016-12-23 13:00,2016,12,23,13:00,3.4,2.2,92.0,30.0,14.0,20.9,100.17,,,Rain,katkam-20161223130000.jpg
2016-12-23 14:00,2016,12,23,14:00,3.2,2.0,92.0,31.0,16.0,19.3,100.17,,,Rain,katkam-20161223140000.jpg
2016-12-23 15:00,2016,12,23,15:00,3.1,2.1,93.0,30.0,17.0,24.1,100.23,,,Rain,katkam-20161223150000.jpg
2016-12-23 16:00,2016,12,23,16:00,3.1,2.1,93.0,4.0,8.0,24.1,100.31,,,Rain,katkam-20161223160000.jpg
2016-12-23 17:00,2016,12,23,17:00,2.8,2.1,95.0,7.0,10.0,19.3,100.36,,,Rain,katkam-20161223170000.jpg
2016-12-24 07:00,2016,12,24,07:00,1.2,0.8,97.0,9.0,6.0,16.1,101.25,,,Cloudy,katkam-20161224070000.jpg
2016-12-24 10:00,2016,12,24,10:00,1.9,1.0,94.0,36.0,2.0,19.3,101.43,,,Mostly Cloudy,katkam-20161224100000.jpg
2016-12-24 13:00,2016,12,24,13:00,3.6,0.8,82.0,26.0,12.0,32.2,101.43,,,Mainly Clear,katkam-20161224130000.jpg
2016-12-24 16:00,2016,12,24,16:00,2.5,0.7,88.0,28.0,10.0,32.2,101.46,,,Mainly Clear,katkam-20161224160000.jpg
2016-12-25 07:00,2016,12,25,07:00,-3.2,-3.8,96.0,,0.0,32.2,101.9,,,Mainly Clear,katkam-20161225070000.jpg
2016-12-25 10:00,2016,12,25,10:00,-1.0,-2.0,93.0,10.0,13.0,32.2,102.06,,-5.0,Mainly Clear,katkam-20161225100000.jpg
2016-12-25 13:00,2016,12,25,13:00,1.2,-3.7,70.0,21.0,4.0,32.2,102.14,,,Mainly Clear,katkam-20161225130000.jpg
2016-12-25 16:00,2016,12,25,16:00,0.3,-3.6,75.0,9.0,4.0,48.3,102.12,,,Mostly Cloudy,katkam-20161225160000.jpg
2016-12-26 06:00,2016,12,26,06:00,0.1,-1.4,90.0,8.0,15.0,9.7,102.36,,,Snow,katkam-20161226060000.jpg
2016-12-26 07:00,2016,12,26,07:00,-0.1,-1.2,92.0,9.0,17.0,8.1,102.34,,-5.0,Snow,katkam-20161226070000.jpg
2016-12-26 08:00,2016,12,26,08:00,0.1,-0.5,96.0,8.0,17.0,2.4,102.34,,,Snow,katkam-20161226080000.jpg
2016-12-26 09:00,2016,12,26,09:00,0.3,-0.3,96.0,8.0,18.0,8.1,102.28,,,Snow,katkam-20161226090000.jpg
2016-12-26 10:00,2016,12,26,10:00,0.7,-0.3,93.0,9.0,19.0,8.1,102.25,,,Snow,katkam-20161226100000.jpg
2016-12-26 11:00,2016,12,26,11:00,0.4,-0.3,95.0,8.0,18.0,1.2,102.21,,,Snow,katkam-20161226110000.jpg
2016-12-26 12:00,2016,12,26,12:00,0.6,0.0,96.0,7.0,21.0,2.4,102.09,,,Snow,katkam-20161226120000.jpg
2016-12-26 13:00,2016,12,26,13:00,1.2,0.3,94.0,7.0,29.0,12.9,101.94,,,"Rain,Snow",katkam-20161226130000.jpg
2016-12-26 14:00,2016,12,26,14:00,1.6,0.6,93.0,8.0,30.0,12.9,101.78,,,Rain,katkam-20161226140000.jpg
2016-12-26 15:00,2016,12,26,15:00,1.8,0.8,93.0,8.0,30.0,12.9,101.73,,,Rain,katkam-20161226150000.jpg
2016-12-26 16:00,2016,12,26,16:00,1.4,0.7,95.0,7.0,31.0,8.1,101.63,,,"Rain,Fog",katkam-20161226160000.jpg
2016-12-26 17:00,2016,12,26,17:00,1.1,0.4,95.0,8.0,27.0,8.1,101.55,,,"Rain,Fog",katkam-20161226170000.jpg
2016-12-27 10:00,2016,12,27,10:00,6.0,2.7,79.0,21.0,15.0,32.2,101.17,,,Mostly Cloudy,katkam-20161227100000.jpg
2016-12-27 12:00,2016,12,27,12:00,5.4,0.8,72.0,16.0,7.0,24.1,101.24,,,Rain Showers,katkam-20161227120000.jpg
2016-12-27 13:00,2016,12,27,13:00,5.3,2.7,83.0,11.0,16.0,24.1,101.24,,,Mostly Cloudy,katkam-20161227130000.jpg
2016-12-27 16:00,2016,12,27,16:00,4.3,2.0,85.0,6.0,9.0,32.2,101.46,,,Mostly Cloudy,katkam-20161227160000.jpg
2016-12-28 07:00,2016,12,28,07:00,1.6,0.4,92.0,9.0,14.0,24.1,102.63,,,Cloudy,katkam-20161228070000.jpg
2016-12-28 09:00,2016,12,28,09:00,4.2,2.1,86.0,13.0,11.0,24.1,102.71,,,Rain,katkam-20161228090000.jpg
2016-12-28 10:00,2016,12,28,10:00,5.4,2.6,82.0,16.0,26.0,24.1,102.77,,,Cloudy,katkam-20161228100000.jpg
2016-12-29 10:00,2016,12,29,10:00,4.0,2.5,90.0,6.0,28.0,16.1,101.82,,,Rain,katkam-20161229100000.jpg
2016-12-29 11:00,2016,12,29,11:00,4.0,2.7,91.0,8.0,22.0,16.1,101.76,,,Rain,katkam-20161229110000.jpg
2016-12-29 13:00,2016,12,29,13:00,4.8,3.5,91.0,8.0,13.0,19.3,101.68,,,Rain,katkam-20161229130000.jpg
2016-12-29 14:00,2016,12,29,14:00,4.1,3.2,94.0,3.0,9.0,16.1,101.68,,,Rain,katkam-20161229140000.jpg
2016-12-29 15:00,2016,12,29,15:00,4.2,3.3,94.0,6.0,10.0,24.1,101.67,,,Rain,katkam-20161229150000.jpg
2016-12-29 16:00,2016,12,29,16:00,3.7,3.0,95.0,3.0,6.0,24.1,101.73,,,Cloudy,katkam-20161229160000.jpg
2016-12-30 06:00,2016,12,30,06:00,1.3,0.6,95.0,1.0,8.0,1.2,102.25,,,Fog,katkam-20161230060000.jpg
2016-12-30 07:00,2016,12,30,07:00,0.7,0.4,98.0,1.0,4.0,24.1,102.28,,,Mainly Clear,katkam-20161230070000.jpg
2016-12-30 08:00,2016,12,30,08:00,-0.4,-0.7,98.0,9.0,11.0,0.0,102.37,,-4.0,Freezing Fog,katkam-20161230080000.jpg
2016-12-30 09:00,2016,12,30,09:00,0.5,0.4,99.0,13.0,3.0,0.2,102.47,,,Fog,katkam-20161230090000.jpg
2016-12-30 10:00,2016,12,30,10:00,1.1,1.0,99.0,34.0,4.0,24.1,102.57,,,Mostly Cloudy,katkam-20161230100000.jpg
2016-12-31 06:00,2016,12,31,06:00,-0.8,-0.9,99.0,8.0,7.0,1.6,102.14,,-3.0,Fog,katkam-20161231060000.jpg
2016-12-31 07:00,2016,12,31,07:00,-0.6,-0.7,99.0,10.0,15.0,0.6,102.0,,-5.0,Freezing Fog,katkam-20161231070000.jpg
2016-12-31 08:00,2016,12,31,08:00,-0.2,-0.3,99.0,10.0,9.0,2.0,101.92,,-3.0,Fog,katkam-20161231080000.jpg
2016-12-31 10:00,2016,12,31,10:00,0.7,0.6,99.0,9.0,9.0,24.1,101.82,,,Cloudy,katkam-20161231100000.jpg
2016-12-31 11:00,2016,12,31,11:00,1.2,1.1,99.0,9.0,10.0,11.3,101.71,,,Rain,katkam-20161231110000.jpg
2016-12-31 12:00,2016,12,31,12:00,1.8,1.4,97.0,8.0,16.0,12.9,101.53,,,Rain,katkam-20161231120000.jpg
2016-12-31 13:00,2016,12,31,13:00,1.6,1.2,97.0,7.0,17.0,9.7,101.36,,,"Rain,Fog",katkam-20161231130000.jpg
2016-12-31 14:00,2016,12,31,14:00,1.1,0.7,97.0,7.0,12.0,4.8,101.2,,,"Rain,Fog",katkam-20161231140000.jpg
2016-12-31 15:00,2016,12,31,15:00,0.6,0.2,97.0,8.0,18.0,4.0,101.05,,,"Rain,Snow,Fog",katkam-20161231150000.jpg
2016-12-31 16:00,2016,12,31,16:00,0.3,0.0,98.0,8.0,18.0,2.0,100.9,,,"Snow,Fog",katkam-20161231160000.jpg
2017-01-01 07:00,2017,1,1,07:00,0.8,0.4,97.0,4.0,8.0,24.1,100.72,,,Cloudy,katkam-20170101070000.jpg
2017-01-01 10:00,2017,1,1,10:00,2.1,-5.3,58.0,35.0,23.0,48.3,100.9,,,Cloudy,katkam-20170101100000.jpg
2017-01-01 13:00,2017,1,1,13:00,1.4,-6.5,56.0,34.0,21.0,48.3,100.97,,,Cloudy,katkam-20170101130000.jpg
2017-01-01 16:00,2017,1,1,16:00,0.9,-7.6,53.0,2.0,14.0,48.3,101.03,,,Mostly Cloudy,katkam-20170101160000.jpg
2017-01-02 10:00,2017,1,2,10:00,-0.9,-12.9,40.0,3.0,13.0,48.3,101.86,,-5.0,Clear,katkam-20170102100000.jpg
2017-01-02 16:00,2017,1,2,16:00,0.2,-12.9,37.0,7.0,15.0,48.3,102.08,,,Clear,katkam-20170102160000.jpg
2017-01-03 07:00,2017,1,3,07:00,-6.0,-12.6,60.0,8.0,14.0,48.3,102.78,,-12.0,Clear,katkam-20170103070000.jpg
2017-01-03 13:00,2017,1,3,13:00,-0.3,-12.7,39.0,7.0,6.0,48.3,102.84,,-2.0,Clear,katkam-20170103130000.jpg
2017-01-04 13:00,2017,1,4,13:00,1.9,-2.6,72.0,29.0,17.0,48.3,102.65,,,Clear,katkam-20170104130000.jpg
2017-01-05 07:00,2017,1,5,07:00,-5.1,-8.2,79.0,10.0,9.0,48.3,102.69,,-9.0,Clear,katkam-20170105070000.jpg
2017-01-05 10:00,2017,1,5,10:00,-2.5,-6.3,75.0,9.0,13.0,48.3,102.68,,-7.0,Mostly Cloudy,katkam-20170105100000.jpg
2017-01-05 13:00,2017,1,5,13:00,0.3,-5.5,65.0,10.0,11.0,48.3,102.46,,,Mostly Cloudy,katkam-20170105130000.jpg
2017-01-05 16:00,2017,1,5,16:00,-0.2,-5.6,67.0,10.0,9.0,48.3,102.29,,-3.0,Cloudy,katkam-20170105160000.jpg
2017-01-06 13:00,2017,1,6,13:00,2.1,-5.1,59.0,7.0,16.0,24.1,101.61,,,Cloudy,katkam-20170106130000.jpg
2017-01-06 16:00,2017,1,6,16:00,2.2,-3.5,66.0,7.0,14.0,48.3,101.56,,,Cloudy,katkam-20170106160000.jpg
2017-01-08 07:00,2017,1,8,07:00,1.2,-4.1,68.0,1.0,6.0,32.2,100.98,,,Cloudy,katkam-20170108070000.jpg
2017-01-08 17:00,2017,1,8,17:00,1.4,0.8,96.0,25.0,6.0,8.1,99.7,,,"Rain,Fog",katkam-20170108170000.jpg
2017-01-09 13:00,2017,1,9,13:00,4.6,3.1,90.0,19.0,15.0,24.1,100.28,,,Rain Showers,katkam-20170109130000.jpg
2017-01-10 10:00,2017,1,10,10:00,0.0,-5.4,67.0,10.0,14.0,32.2,100.74,,-4.0,Mostly Cloudy,katkam-20170110100000.jpg
2017-01-11 07:00,2017,1,11,07:00,-4.0,-11.1,58.0,36.0,2.0,48.3,100.8,,-5.0,Mainly Clear,katkam-20170111070000.jpg
2017-01-11 10:00,2017,1,11,10:00,-1.9,-9.1,58.0,11.0,7.0,48.3,101.06,,-5.0,Clear,katkam-20170111100000.jpg
2017-01-11 13:00,2017,1,11,13:00,1.0,-9.1,47.0,23.0,8.0,48.3,101.18,,,Clear,katkam-20170111130000.jpg
2017-01-11 16:00,2017,1,11,16:00,0.9,-6.9,56.0,20.0,6.0,48.3,101.36,,,Clear,katkam-20170111160000.jpg
2017-01-13 07:00,2017,1,13,07:00,-5.9,-7.1,91.0,8.0,8.0,48.3,103.05,,-10.0,Mainly Clear,katkam-20170113070000.jpg
2017-01-13 10:00,2017,1,13,10:00,-3.3,-5.3,86.0,9.0,8.0,48.3,103.2,,-7.0,Cloudy,katkam-20170113100000.jpg
2017-01-13 13:00,2017,1,13,13:00,0.0,-5.6,66.0,36.0,2.0,48.3,103.11,,-1.0,Cloudy,katkam-20170113130000.jpg
2017-01-13 16:00,2017,1,13,16:00,0.4,-4.4,70.0,20.0,3.0,48.3,103.14,,,Cloudy,katkam-20170113160000.jpg
2017-01-14 13:00,2017,1,14,13:00,3.0,-1.2,74.0,28.0,10.0,48.3,102.77,,,Cloudy,katkam-20170114130000.jpg
2017-01-15 07:00,2017,1,15,07:00,-1.3,-2.9,89.0,10.0,11.0,32.2,102.54,,-5.0,Mostly Cloudy,katkam-20170115070000.jpg
2017-01-15 13:00,2017,1,15,13:00,4.0,0.3,77.0,23.0,6.0,32.2,102.52,,,Mostly Cloudy,katkam-20170115130000.jpg
2017-01-16 07:00,2017,1,16,07:00,1.8,-0.9,82.0,9.0,12.0,24.1,102.23,,,Cloudy,katkam-20170116070000.jpg
2017-01-17 14:00,2017,1,17,14:00,8.7,5.5,80.0,9.0,26.0,19.3,100.09,,,Rain,katkam-20170117140000.jpg
2017-01-17 15:00,2017,1,17,15:00,7.9,5.9,87.0,10.0,30.0,19.3,99.92,,,Rain,katkam-20170117150000.jpg
2017-01-18 06:00,2017,1,18,06:00,9.2,8.0,92.0,12.0,28.0,12.9,99.21,,,Rain,katkam-20170118060000.jpg
2017-01-18 07:00,2017,1,18,07:00,9.1,8.2,94.0,11.0,30.0,16.1,99.11,,,Rain,katkam-20170118070000.jpg
2017-01-18 08:00,2017,1,18,08:00,8.3,7.7,96.0,8.0,26.0,19.3,99.01,,,Rain,katkam-20170118080000.jpg
2017-01-18 09:00,2017,1,18,09:00,8.0,7.3,95.0,9.0,27.0,19.3,99.01,,,Rain,katkam-20170118090000.jpg
2017-01-18 10:00,2017,1,18,10:00,9.1,7.6,90.0,8.0,38.0,24.1,98.94,,,Cloudy,katkam-20170118100000.jpg
2017-01-18 12:00,2017,1,18,12:00,9.9,8.4,90.0,13.0,29.0,24.1,99.04,,,Rain,katkam-20170118120000.jpg
2017-01-18 13:00,2017,1,18,13:00,10.5,9.1,91.0,13.0,21.0,24.1,99.08,,,Rain,katkam-20170118130000.jpg
2017-01-18 16:00,2017,1,18,16:00,10.3,8.9,91.0,9.0,13.0,24.1,99.04,,,Rain,katkam-20170118160000.jpg
2017-01-18 17:00,2017,1,18,17:00,9.5,8.4,93.0,8.0,13.0,24.1,98.99,,,Rain,katkam-20170118170000.jpg
2017-01-19 06:00,2017,1,19,06:00,7.4,5.9,90.0,12.0,23.0,16.1,99.55,,,Rain Showers,katkam-20170119060000.jpg
2017-01-19 07:00,2017,1,19,07:00,6.9,5.9,93.0,13.0,17.0,24.1,99.58,,,Rain,katkam-20170119070000.jpg
2017-01-19 08:00,2017,1,19,08:00,6.8,5.8,93.0,14.0,22.0,24.1,99.61,,,Rain,katkam-20170119080000.jpg
2017-01-19 11:00,2017,1,19,11:00,7.5,6.3,92.0,14.0,18.0,24.1,99.72,,,Rain,katkam-20170119110000.jpg
2017-01-19 12:00,2017,1,19,12:00,8.0,6.6,91.0,12.0,14.0,24.1,99.68,,,Rain,katkam-20170119120000.jpg
2017-01-19 13:00,2017,1,19,13:00,8.2,6.3,88.0,12.0,15.0,24.1,99.65,,,Cloudy,katkam-20170119130000.jpg
2017-01-19 16:00,2017,1,19,16:00,7.8,6.0,88.0,13.0,20.0,24.1,99.64,,,Rain,katkam-20170119160000.jpg
2017-01-19 17:00,2017,1,19,17:00,7.0,6.3,95.0,10.0,12.0,12.9,99.65,,,Rain,katkam-20170119170000.jpg
2017-01-20 07:00,2017,1,20,07:00,3.6,1.6,87.0,19.0,8.0,32.2,98.96,,,Mainly Clear,katkam-20170120070000.jpg
2017-01-20 10:00,2017,1,20,10:00,3.9,2.9,93.0,32.0,9.0,48.3,98.88,,,Mostly Cloudy,katkam-20170120100000.jpg
2017-01-20 16:00,2017,1,20,16:00,5.3,4.3,93.0,29.0,14.0,48.3,98.64,,,Cloudy,katkam-20170120160000.jpg
2017-01-21 07:00,2017,1,21,07:00,6.2,3.7,84.0,4.0,15.0,24.1,99.18,,,Cloudy,katkam-20170121070000.jpg
2017-01-21 10:00,2017,1,21,10:00,7.4,3.8,78.0,7.0,17.0,32.2,99.39,,,Mostly Cloudy,katkam-20170121100000.jpg
2017-01-21 13:00,2017,1,21,13:00,10.3,4.1,65.0,13.0,10.0,32.2,99.52,,,Mostly Cloudy,katkam-20170121130000.jpg
2017-01-21 16:00,2017,1,21,16:00,9.6,4.4,70.0,9.0,12.0,32.2,99.69,,,Mostly Cloudy,katkam-20170121160000.jpg
2017-01-22 07:00,2017,1,22,07:00,4.2,2.4,88.0,7.0,7.0,32.2,99.59,,,Mostly Cloudy,katkam-20170122070000.jpg
2017-01-22 13:00,2017,1,22,13:00,6.0,4.2,88.0,8.0,21.0,12.9,99.96,,,Rain,katkam-20170122130000.jpg
2017-01-22 14:00,2017,1,22,14:00,6.2,4.0,86.0,8.0,22.0,12.9,99.99,,,Rain,katkam-20170122140000.jpg
2017-01-22 15:00,2017,1,22,15:00,5.8,4.1,89.0,7.0,22.0,16.1,100.05,,,Rain,katkam-20170122150000.jpg
2017-01-22 16:00,2017,1,22,16:00,5.9,4.1,88.0,3.0,18.0,24.1,100.1,,,Rain,katkam-20170122160000.jpg
2017-01-23 13:00,2017,1,23,13:00,6.3,4.1,86.0,30.0,24.0,48.3,101.06,,,Clear,katkam-20170123130000.jpg
2017-01-23 16:00,2017,1,23,16:00,6.0,4.3,89.0,30.0,15.0,48.3,101.17,,,Clear,katkam-20170123160000.jpg
2017-01-24 07:00,2017,1,24,07:00,1.8,1.2,96.0,10.0,5.0,24.1,101.85,,,Cloudy,katkam-20170124070000.jpg
2017-01-24 10:00,2017,1,24,10:00,2.4,1.2,92.0,31.0,3.0,24.1,102.0,,,Cloudy,katkam-20170124100000.jpg
2017-01-24 13:00,2017,1,24,13:00,4.4,2.6,88.0,12.0,8.0,19.3,102.04,,,Cloudy,katkam-20170124130000.jpg
2017-01-24 16:00,2017,1,24,16:00,4.2,2.2,87.0,14.0,7.0,24.1,102.11,,,Mostly Cloudy,katkam-20170124160000.jpg
2017-01-25 07:00,2017,1,25,07:00,2.6,2.0,96.0,36.0,1.0,32.2,102.37,,,Cloudy,katkam-20170125070000.jpg
2017-01-25 10:00,2017,1,25,10:00,4.0,2.2,88.0,17.0,4.0,48.3,102.46,,,Cloudy,katkam-20170125100000.jpg
2017-01-25 13:00,2017,1,25,13:00,5.1,1.8,79.0,36.0,1.0,48.3,102.49,,,Cloudy,katkam-20170125130000.jpg
2017-01-25 16:00,2017,1,25,16:00,5.5,2.0,78.0,11.0,5.0,48.3,102.52,,,Cloudy,katkam-20170125160000.jpg
2017-01-26 07:00,2017,1,26,07:00,2.5,1.5,93.0,1.0,12.0,24.1,103.16,,,Cloudy,katkam-20170126070000.jpg
2017-01-26 10:00,2017,1,26,10:00,4.3,2.7,89.0,27.0,4.0,48.3,103.31,,,Cloudy,katkam-20170126100000.jpg
2017-01-26 13:00,2017,1,26,13:00,6.7,2.4,74.0,36.0,3.0,48.3,103.31,,,Cloudy,katkam-20170126130000.jpg
2017-01-26 16:00,2017,1,26,16:00,5.3,2.0,79.0,36.0,1.0,48.3,103.37,,,Mostly Cloudy,katkam-20170126160000.jpg
2017-01-27 07:00,2017,1,27,07:00,3.9,0.8,80.0,9.0,9.0,32.2,103.66,,,Cloudy,katkam-20170127070000.jpg
2017-01-27 10:00,2017,1,27,10:00,5.5,1.8,77.0,10.0,10.0,48.3,103.84,,,Cloudy,katkam-20170127100000.jpg
2017-01-27 13:00,2017,1,27,13:00,8.5,2.1,64.0,11.0,10.0,48.3,103.74,,,Mostly Cloudy,katkam-20170127130000.jpg
2017-01-27 16:00,2017,1,27,16:00,5.8,3.8,87.0,30.0,7.0,48.3,103.68,,,Cloudy,katkam-20170127160000.jpg
2017-01-28 07:00,2017,1,28,07:00,2.0,0.5,90.0,1.0,7.0,32.2,103.53,,,Cloudy,katkam-20170128070000.jpg
2017-01-28 10:00,2017,1,28,10:00,3.7,0.9,82.0,10.0,17.0,48.3,103.54,,,Cloudy,katkam-20170128100000.jpg
2017-01-28 13:00,2017,1,28,13:00,7.7,2.4,69.0,9.0,14.0,48.3,103.4,,,Cloudy,katkam-20170128130000.jpg
2017-01-28 16:00,2017,1,28,16:00,8.7,2.7,66.0,14.0,9.0,48.3,103.26,,,Cloudy,katkam-20170128160000.jpg
2017-01-29 07:00,2017,1,29,07:00,5.7,0.5,69.0,11.0,12.0,32.2,102.7,,,Mostly Cloudy,katkam-20170129070000.jpg
2017-01-29 10:00,2017,1,29,10:00,5.9,1.4,73.0,10.0,26.0,32.2,102.58,,,Cloudy,katkam-20170129100000.jpg
2017-01-29 11:00,2017,1,29,11:00,6.4,2.9,78.0,10.0,18.0,16.1,102.64,,,Rain,katkam-20170129110000.jpg
2017-01-29 12:00,2017,1,29,12:00,6.4,4.6,88.0,8.0,25.0,19.3,102.64,,,Rain,katkam-20170129120000.jpg
2017-01-29 13:00,2017,1,29,13:00,7.0,5.0,87.0,9.0,25.0,24.1,102.6,,,Cloudy,katkam-20170129130000.jpg
2017-01-29 16:00,2017,1,29,16:00,8.3,5.6,83.0,11.0,13.0,32.2,102.69,,,Mostly Cloudy,katkam-20170129160000.jpg
2017-01-30 07:00,2017,1,30,07:00,4.0,2.7,91.0,31.0,16.0,24.1,102.91,,,Mostly Cloudy,katkam-20170130070000.jpg
2017-01-30 10:00,2017,1,30,10:00,4.8,3.0,88.0,29.0,13.0,24.1,102.91,,,Cloudy,katkam-20170130100000.jpg
2017-01-30 11:00,2017,1,30,11:00,5.3,3.6,89.0,32.0,11.0,24.1,102.91,,,Rain,katkam-20170130110000.jpg
2017-01-30 13:00,2017,1,30,13:00,5.2,2.2,81.0,30.0,22.0,24.1,102.85,,,Cloudy,katkam-20170130130000.jpg
2017-01-30 16:00,2017,1,30,16:00,4.7,1.9,82.0,30.0,20.0,24.1,102.66,,,Cloudy,katkam-20170130160000.jpg
2017-01-31 07:00,2017,1,31,07:00,0.3,-5.9,63.0,3.0,7.0,48.3,102.57,,,Mainly Clear,katkam-20170131070000.jpg
2017-01-31 10:00,2017,1,31,10:00,3.3,-4.0,59.0,29.0,4.0,48.3,102.65,,,Clear,katkam-20170131100000.jpg
2017-01-31 13:00,2017,1,31,13:00,5.9,-5.4,44.0,29.0,16.0,48.3,102.66,,,Clear,katkam-20170131130000.jpg
2017-01-31 16:00,2017,1,31,16:00,6.0,-14.2,22.0,6.0,11.0,48.3,102.64,,,Mainly Clear,katkam-20170131160000.jpg
2017-02-01 07:00,2017,2,1,07:00,-2.1,-10.0,55.0,9.0,7.0,48.3,102.98,,-5.0,Mainly Clear,katkam-20170201070000.jpg
2017-02-01 10:00,2017,2,1,10:00,2.9,-9.8,39.0,3.0,8.0,48.3,102.96,,,Mainly Clear,katkam-20170201100000.jpg
2017-02-01 13:00,2017,2,1,13:00,7.0,-15.2,19.0,5.0,19.0,48.3,102.79,,,Mainly Clear,katkam-20170201130000.jpg
2017-02-01 16:00,2017,2,1,16:00,4.3,-3.5,57.0,30.0,12.0,48.3,102.68,,,Mainly Clear,katkam-20170201160000.jpg
2017-02-02 07:00,2017,2,2,07:00,-1.6,-11.0,49.0,13.0,4.0,48.3,102.41,,-3.0,Mainly Clear,katkam-20170202070000.jpg
2017-02-02 10:00,2017,2,2,10:00,3.3,-10.1,37.0,36.0,3.0,48.3,102.38,,,Mostly Cloudy,katkam-20170202100000.jpg
2017-02-02 13:00,2017,2,2,13:00,5.7,-7.2,39.0,29.0,14.0,48.3,102.17,,,Cloudy,katkam-20170202130000.jpg
2017-02-02 16:00,2017,2,2,16:00,4.2,-3.3,58.0,29.0,17.0,48.3,101.9,,,Cloudy,katkam-20170202160000.jpg
2017-02-03 07:00,2017,2,3,07:00,-0.7,-3.7,80.0,36.0,3.0,9.7,100.54,,-2.0,Snow,katkam-20170203070000.jpg
2017-02-03 08:00,2017,2,3,08:00,-1.6,-2.4,94.0,14.0,12.0,0.6,100.48,,-6.0,Moderate Snow,katkam-20170203080000.jpg
2017-02-03 09:00,2017,2,3,09:00,-1.8,-2.4,96.0,8.0,8.0,0.6,100.38,,-5.0,Moderate Snow,katkam-20170203090000.jpg
2017-02-03 10:00,2017,2,3,10:00,-1.8,-2.4,96.0,9.0,6.0,4.8,100.31,,-4.0,Snow,katkam-20170203100000.jpg
2017-02-03 11:00,2017,2,3,11:00,-1.3,-2.4,92.0,14.0,5.0,4.8,100.23,,-3.0,Snow,katkam-20170203110000.jpg
2017-02-03 12:00,2017,2,3,12:00,-1.1,-2.4,91.0,10.0,8.0,4.8,100.1,,-4.0,Snow,katkam-20170203120000.jpg
2017-02-03 13:00,2017,2,3,13:00,-1.0,-1.8,94.0,12.0,7.0,1.2,99.95,,-4.0,Snow,katkam-20170203130000.jpg
2017-02-03 14:00,2017,2,3,14:00,-1.0,-1.6,96.0,20.0,4.0,0.8,99.83,,-2.0,Moderate Snow,katkam-20170203140000.jpg
2017-02-03 15:00,2017,2,3,15:00,-0.5,-1.1,96.0,18.0,4.0,1.6,99.75,,-2.0,Snow,katkam-20170203150000.jpg
2017-02-03 16:00,2017,2,3,16:00,-0.3,-0.7,97.0,20.0,6.0,2.0,99.71,,-2.0,Snow,katkam-20170203160000.jpg
2017-02-03 17:00,2017,2,3,17:00,-0.1,-0.5,97.0,19.0,7.0,1.2,99.69,,-3.0,Snow,katkam-20170203170000.jpg
2017-02-04 06:00,2017,2,4,06:00,0.4,0.0,97.0,9.0,14.0,12.9,100.18,,,Snow,katkam-20170204060000.jpg
2017-02-04 07:00,2017,2,4,07:00,0.5,-0.1,96.0,9.0,16.0,4.8,100.26,,,"Rain,Snow",katkam-20170204070000.jpg
2017-02-04 08:00,2017,2,4,08:00,0.3,-0.1,97.0,8.0,7.0,2.4,100.37,,,Snow,katkam-20170204080000.jpg
2017-02-04 09:00,2017,2,4,09:00,0.3,-0.1,97.0,11.0,12.0,2.4,100.46,,,Snow,katkam-20170204090000.jpg
2017-02-04 10:00,2017,2,4,10:00,0.2,-0.2,97.0,9.0,12.0,4.0,100.55,,,Snow,katkam-20170204100000.jpg
2017-02-04 11:00,2017,2,4,11:00,0.2,-0.7,94.0,9.0,20.0,12.9,100.6,,,Snow,katkam-20170204110000.jpg
2017-02-04 13:00,2017,2,4,13:00,0.7,-0.5,92.0,9.0,16.0,12.9,100.53,,,Cloudy,katkam-20170204130000.jpg
2017-02-04 14:00,2017,2,4,14:00,0.4,-0.5,94.0,10.0,12.0,2.4,100.45,,,Snow,katkam-20170204140000.jpg
2017-02-04 15:00,2017,2,4,15:00,0.4,-0.2,96.0,8.0,10.0,2.4,100.34,,,Snow,katkam-20170204150000.jpg
2017-02-04 16:00,2017,2,4,16:00,0.4,-0.2,96.0,10.0,17.0,4.8,100.28,,,Snow,katkam-20170204160000.jpg
2017-02-04 17:00,2017,2,4,17:00,0.4,-0.3,95.0,6.0,3.0,2.4,100.26,,,Snow,katkam-20170204170000.jpg
2017-02-05 16:00,2017,2,5,16:00,0.5,0.1,97.0,7.0,11.0,4.8,100.01,,,Snow,katkam-20170205160000.jpg
2017-02-06 06:00,2017,2,6,06:00,-2.6,-3.3,95.0,11.0,15.0,3.2,99.57,,-8.0,Snow Showers,katkam-20170206060000.jpg
2017-02-06 07:00,2017,2,6,07:00,-3.0,-3.8,94.0,10.0,20.0,2.4,99.66,,-9.0,Snow Showers,katkam-20170206070000.jpg
2017-02-06 08:00,2017,2,6,08:00,-3.3,-4.6,91.0,10.0,21.0,4.8,99.73,,-10.0,Snow Showers,katkam-20170206080000.jpg
2017-02-06 10:00,2017,2,6,10:00,-2.4,-5.9,77.0,10.0,18.0,16.1,99.86,,-8.0,Mostly Cloudy,katkam-20170206100000.jpg
2017-02-06 13:00,2017,2,6,13:00,-0.7,-5.5,70.0,9.0,15.0,19.3,99.97,,-5.0,Mostly Cloudy,katkam-20170206130000.jpg
2017-02-06 15:00,2017,2,6,15:00,-0.9,-4.4,77.0,9.0,17.0,12.9,100.03,,-6.0,Snow Showers,katkam-20170206150000.jpg
2017-02-06 16:00,2017,2,6,16:00,-1.9,-3.5,89.0,12.0,8.0,1.2,100.17,,-5.0,Snow Showers,katkam-20170206160000.jpg
2017-02-06 17:00,2017,2,6,17:00,-2.1,-2.7,96.0,36.0,1.0,1.2,100.28,,-2.0,Snow,katkam-20170206170000.jpg
2017-02-07 06:00,2017,2,7,06:00,-2.5,-3.9,90.0,9.0,14.0,24.1,100.68,,-7.0,Snow,katkam-20170207060000.jpg
2017-02-07 07:00,2017,2,7,07:00,-4.6,-5.7,92.0,10.0,12.0,19.3,100.6,,-9.0,Mostly Cloudy,katkam-20170207070000.jpg
2017-02-07 10:00,2017,2,7,10:00,-2.7,-5.5,81.0,14.0,9.0,32.2,100.67,,-6.0,Mainly Clear,katkam-20170207100000.jpg
2017-02-07 13:00,2017,2,7,13:00,0.2,-5.0,68.0,20.0,8.0,32.2,100.7,,,Mainly Clear,katkam-20170207130000.jpg
2017-02-07 16:00,2017,2,7,16:00,1.4,-2.6,75.0,22.0,7.0,32.2,100.91,,,Mostly Cloudy,katkam-20170207160000.jpg
2017-02-08 07:00,2017,2,8,07:00,-4.4,-8.4,74.0,9.0,12.0,48.3,101.63,,-9.0,Cloudy,katkam-20170208070000.jpg
2017-02-08 10:00,2017,2,8,10:00,-2.9,-7.3,72.0,10.0,9.0,48.3,101.44,,-6.0,Cloudy,katkam-20170208100000.jpg
2017-02-08 12:00,2017,2,8,12:00,-1.8,-6.6,70.0,10.0,9.0,24.1,101.34,,-5.0,Snow,katkam-20170208120000.jpg
2017-02-08 13:00,2017,2,8,13:00,-1.2,-4.7,77.0,31.0,5.0,48.3,101.24,,-3.0,Cloudy,katkam-20170208130000.jpg
2017-02-08 14:00,2017,2,8,14:00,-1.4,-3.3,87.0,19.0,8.0,0.8,101.16,,-4.0,Moderate Snow,katkam-20170208140000.jpg
2017-02-08 15:00,2017,2,8,15:00,-1.6,-2.4,94.0,17.0,8.0,11.3,101.01,,-5.0,Snow,katkam-20170208150000.jpg
2017-02-08 16:00,2017,2,8,16:00,-1.7,-2.8,92.0,15.0,9.0,16.1,100.91,,-5.0,Snow,katkam-20170208160000.jpg
2017-02-08 17:00,2017,2,8,17:00,-1.8,-2.6,94.0,13.0,9.0,1.2,100.76,,-5.0,Snow,katkam-20170208170000.jpg
2017-02-09 06:00,2017,2,9,06:00,0.3,0.0,98.0,10.0,11.0,9.7,99.27,,,"Rain,Fog",katkam-20170209060000.jpg
2017-02-09 07:00,2017,2,9,07:00,0.6,0.3,98.0,8.0,10.0,12.9,99.19,,,Rain,katkam-20170209070000.jpg
2017-02-09 08:00,2017,2,9,08:00,0.9,0.6,98.0,8.0,9.0,12.9,99.02,,,Rain,katkam-20170209080000.jpg
2017-02-09 09:00,2017,2,9,09:00,1.4,1.1,98.0,23.0,9.0,4.8,98.94,,,"Rain,Fog",katkam-20170209090000.jpg
2017-02-09 10:00,2017,2,9,10:00,2.2,1.9,98.0,26.0,9.0,3.2,98.92,,,"Moderate Rain,Fog",katkam-20170209100000.jpg
2017-02-09 11:00,2017,2,9,11:00,2.2,1.9,98.0,16.0,15.0,3.2,98.89,,,"Heavy Rain,Fog",katkam-20170209110000.jpg
2017-02-09 12:00,2017,2,9,12:00,1.6,1.3,98.0,27.0,10.0,4.8,98.8,,,"Rain,Fog",katkam-20170209120000.jpg
2017-02-09 13:00,2017,2,9,13:00,2.2,1.9,98.0,33.0,5.0,2.0,98.78,,,"Drizzle,Fog",katkam-20170209130000.jpg
2017-02-09 14:00,2017,2,9,14:00,2.4,2.1,98.0,9.0,16.0,12.9,98.7,,,Rain,katkam-20170209140000.jpg
2017-02-09 16:00,2017,2,9,16:00,4.8,3.5,91.0,10.0,22.0,24.1,98.99,,,Cloudy,katkam-20170209160000.jpg
2017-02-10 07:00,2017,2,10,07:00,4.5,3.2,91.0,10.0,20.0,24.1,100.2,,,Cloudy,katkam-20170210070000.jpg
2017-02-10 09:00,2017,2,10,09:00,4.9,3.3,89.0,11.0,18.0,24.1,100.21,,,Rain,katkam-20170210090000.jpg
2017-02-10 10:00,2017,2,10,10:00,5.9,3.1,82.0,13.0,24.0,24.1,100.26,,,Cloudy,katkam-20170210100000.jpg
2017-02-10 12:00,2017,2,10,12:00,6.0,2.7,79.0,14.0,22.0,24.1,100.24,,,Rain,katkam-20170210120000.jpg
2017-02-10 13:00,2017,2,10,13:00,5.5,3.5,87.0,13.0,19.0,24.1,100.29,,,Rain Showers,katkam-20170210130000.jpg
2017-02-10 16:00,2017,2,10,16:00,5.4,0.8,72.0,22.0,37.0,24.1,100.68,,,Cloudy,katkam-20170210160000.jpg
2017-02-11 07:00,2017,2,11,07:00,1.7,0.2,90.0,8.0,13.0,48.3,102.67,,,Cloudy,katkam-20170211070000.jpg
2017-02-11 10:00,2017,2,11,10:00,3.4,1.6,88.0,9.0,12.0,48.3,103.0,,,Cloudy,katkam-20170211100000.jpg
2017-02-11 13:00,2017,2,11,13:00,6.4,2.1,74.0,10.0,10.0,48.3,103.18,,,Cloudy,katkam-20170211130000.jpg
2017-02-11 16:00,2017,2,11,16:00,6.0,2.8,80.0,11.0,13.0,32.2,103.32,,,Cloudy,katkam-20170211160000.jpg
2017-02-12 07:00,2017,2,12,07:00,1.6,0.9,95.0,14.0,9.0,24.1,103.16,,,Cloudy,katkam-20170212070000.jpg
2017-02-12 10:00,2017,2,12,10:00,2.9,1.9,93.0,8.0,3.0,32.2,103.22,,,Mostly Cloudy,katkam-20170212100000.jpg
2017-02-12 13:00,2017,2,12,13:00,5.8,3.0,82.0,27.0,8.0,32.2,103.09,,,Mainly Clear,katkam-20170212130000.jpg
2017-02-12 16:00,2017,2,12,16:00,6.1,2.9,80.0,28.0,8.0,32.2,102.91,,,Mostly Cloudy,katkam-20170212160000.jpg
2017-02-13 07:00,2017,2,13,07:00,0.9,0.0,94.0,10.0,6.0,48.3,102.71,,,Mainly Clear,katkam-20170213070000.jpg
2017-02-13 10:00,2017,2,13,10:00,4.9,2.6,85.0,,0.0,48.3,102.63,,,Mainly Clear,katkam-20170213100000.jpg
2017-02-13 13:00,2017,2,13,13:00,7.3,5.5,88.0,30.0,14.0,48.3,102.43,,,Mainly Clear,katkam-20170213130000.jpg
2017-02-13 16:00,2017,2,13,16:00,7.1,5.3,88.0,30.0,9.0,48.3,102.17,,,Clear,katkam-20170213160000.jpg
2017-02-14 07:00,2017,2,14,07:00,2.7,1.5,92.0,10.0,12.0,48.3,101.79,,,Cloudy,katkam-20170214070000.jpg
2017-02-14 10:00,2017,2,14,10:00,6.8,2.7,75.0,13.0,14.0,48.3,101.75,,,Cloudy,katkam-20170214100000.jpg
2017-02-14 13:00,2017,2,14,13:00,10.6,3.4,61.0,10.0,15.0,48.3,101.4,,,Cloudy,katkam-20170214130000.jpg
2017-02-14 16:00,2017,2,14,16:00,9.6,3.8,67.0,12.0,8.0,48.3,101.08,,,Cloudy,katkam-20170214160000.jpg
2017-02-15 06:00,2017,2,15,06:00,9.2,8.3,94.0,9.0,21.0,12.9,100.47,,,Rain,katkam-20170215060000.jpg
2017-02-15 07:00,2017,2,15,07:00,9.6,8.4,92.0,11.0,20.0,24.1,100.52,,,Cloudy,katkam-20170215070000.jpg
2017-02-15 10:00,2017,2,15,10:00,10.2,8.8,91.0,9.0,19.0,24.1,100.53,,,Cloudy,katkam-20170215100000.jpg
2017-02-15 11:00,2017,2,15,11:00,10.6,9.2,91.0,10.0,25.0,24.1,100.42,,,Rain,katkam-20170215110000.jpg
2017-02-15 12:00,2017,2,15,12:00,11.0,9.9,93.0,11.0,21.0,9.7,100.37,,,"Rain,Fog",katkam-20170215120000.jpg
2017-02-15 13:00,2017,2,15,13:00,10.6,10.0,96.0,10.0,16.0,12.9,100.25,,,Rain,katkam-20170215130000.jpg
2017-02-15 14:00,2017,2,15,14:00,10.5,9.7,95.0,8.0,23.0,19.3,100.05,,,Rain,katkam-20170215140000.jpg
2017-02-15 15:00,2017,2,15,15:00,10.9,9.8,93.0,9.0,31.0,19.3,99.84,,,Rain,katkam-20170215150000.jpg
2017-02-15 16:00,2017,2,15,16:00,10.8,9.9,94.0,8.0,24.0,16.1,99.66,,,Moderate Rain,katkam-20170215160000.jpg
2017-02-15 17:00,2017,2,15,17:00,10.8,9.9,94.0,9.0,27.0,24.1,99.52,,,Rain,katkam-20170215170000.jpg
2017-02-16 07:00,2017,2,16,07:00,10.1,5.1,71.0,14.0,8.0,48.3,99.29,,,Cloudy,katkam-20170216070000.jpg
2017-02-16 10:00,2017,2,16,10:00,8.7,4.2,73.0,10.0,7.0,48.3,99.53,,,Mostly Cloudy,katkam-20170216100000.jpg
2017-02-16 13:00,2017,2,16,13:00,11.2,5.3,67.0,13.0,11.0,48.3,99.69,,,Mostly Cloudy,katkam-20170216130000.jpg
2017-02-16 16:00,2017,2,16,16:00,10.9,4.8,66.0,21.0,5.0,48.3,99.87,,,Mostly Cloudy,katkam-20170216160000.jpg
2017-02-17 07:00,2017,2,17,07:00,6.7,5.3,91.0,10.0,19.0,16.1,100.69,,,Rain Showers,katkam-20170217070000.jpg
2017-02-17 08:00,2017,2,17,08:00,6.6,5.9,95.0,9.0,13.0,9.7,100.71,,,"Rain Showers,Fog",katkam-20170217080000.jpg
2017-02-17 09:00,2017,2,17,09:00,7.0,6.1,94.0,9.0,13.0,16.1,100.72,,,Rain Showers,katkam-20170217090000.jpg
2017-02-17 10:00,2017,2,17,10:00,7.8,6.4,91.0,7.0,13.0,24.1,100.69,,,Mostly Cloudy,katkam-20170217100000.jpg
2017-02-17 13:00,2017,2,17,13:00,9.3,4.5,72.0,12.0,8.0,32.2,100.53,,,Mostly Cloudy,katkam-20170217130000.jpg
2017-02-17 16:00,2017,2,17,16:00,8.8,5.6,80.0,30.0,17.0,32.2,100.28,,,Mainly Clear,katkam-20170217160000.jpg
2017-02-18 07:00,2017,2,18,07:00,4.9,4.0,94.0,30.0,21.0,24.1,99.77,,,Rain Showers,katkam-20170218070000.jpg
2017-02-18 08:00,2017,2,18,08:00,4.9,4.0,94.0,31.0,18.0,19.3,99.76,,,Rain,katkam-20170218080000.jpg
2017-02-18 09:00,2017,2,18,09:00,5.1,3.9,92.0,33.0,13.0,19.3,99.72,,,Rain,katkam-20170218090000.jpg
2017-02-18 10:00,2017,2,18,10:00,5.5,3.8,89.0,31.0,8.0,16.1,99.68,,,Rain,katkam-20170218100000.jpg
2017-02-18 12:00,2017,2,18,12:00,5.7,3.9,88.0,30.0,19.0,24.1,99.59,,,Rain,katkam-20170218120000.jpg
2017-02-18 13:00,2017,2,18,13:00,5.7,4.7,93.0,31.0,17.0,16.1,99.56,,,Rain,katkam-20170218130000.jpg
2017-02-18 14:00,2017,2,18,14:00,5.9,4.4,90.0,31.0,13.0,16.1,99.53,,,Rain,katkam-20170218140000.jpg
2017-02-18 15:00,2017,2,18,15:00,5.7,4.2,90.0,30.0,10.0,16.1,99.53,,,Rain,katkam-20170218150000.jpg
2017-02-18 16:00,2017,2,18,16:00,5.7,4.4,91.0,31.0,8.0,19.3,99.53,,,Rain,katkam-20170218160000.jpg
2017-02-19 07:00,2017,2,19,07:00,5.5,4.0,90.0,11.0,12.0,24.1,99.48,,,Cloudy,katkam-20170219070000.jpg
2017-02-19 08:00,2017,2,19,08:00,5.5,4.2,91.0,9.0,17.0,24.1,99.49,,,Rain Showers,katkam-20170219080000.jpg
2017-02-19 09:00,2017,2,19,09:00,5.7,4.5,92.0,8.0,14.0,24.1,99.52,,,Rain Showers,katkam-20170219090000.jpg
2017-02-19 10:00,2017,2,19,10:00,6.2,4.9,91.0,10.0,10.0,19.3,99.55,,,Rain Showers,katkam-20170219100000.jpg
2017-02-19 12:00,2017,2,19,12:00,6.4,4.6,88.0,9.0,22.0,16.1,99.65,,,Rain Showers,katkam-20170219120000.jpg
2017-02-19 13:00,2017,2,19,13:00,6.7,4.7,87.0,8.0,19.0,16.1,99.64,,,Rain Showers,katkam-20170219130000.jpg
2017-02-19 14:00,2017,2,19,14:00,7.3,5.6,89.0,8.0,22.0,16.1,99.64,,,Rain Showers,katkam-20170219140000.jpg
2017-02-19 16:00,2017,2,19,16:00,8.1,4.5,78.0,12.0,30.0,24.1,99.7,,,Cloudy,katkam-20170219160000.jpg
2017-02-20 07:00,2017,2,20,07:00,4.9,3.4,90.0,4.0,14.0,32.2,99.99,,,Mostly Cloudy,katkam-20170220070000.jpg
2017-02-20 10:00,2017,2,20,10:00,7.4,4.4,81.0,33.0,9.0,32.2,100.01,,,Mostly Cloudy,katkam-20170220100000.jpg
2017-02-20 13:00,2017,2,20,13:00,7.5,6.0,90.0,29.0,30.0,32.2,100.08,,,Mostly Cloudy,katkam-20170220130000.jpg
2017-02-20 16:00,2017,2,20,16:00,6.6,5.1,90.0,29.0,24.0,32.2,100.36,,,Cloudy,katkam-20170220160000.jpg
2017-02-21 07:00,2017,2,21,07:00,4.3,3.0,91.0,29.0,26.0,32.2,100.79,,,Mostly Cloudy,katkam-20170221070000.jpg
2017-02-21 10:00,2017,2,21,10:00,6.3,4.1,86.0,29.0,30.0,32.2,101.09,,,Mostly Cloudy,katkam-20170221100000.jpg
2017-02-21 13:00,2017,2,21,13:00,6.6,3.9,83.0,29.0,25.0,32.2,101.29,,,Mostly Cloudy,katkam-20170221130000.jpg
2017-02-21 16:00,2017,2,21,16:00,7.0,2.7,74.0,25.0,3.0,48.3,101.45,,,Mostly Cloudy,katkam-20170221160000.jpg
2017-02-22 07:00,2017,2,22,07:00,2.4,1.1,91.0,8.0,8.0,48.3,102.12,,,Mostly Cloudy,katkam-20170222070000.jpg
2017-02-22 10:00,2017,2,22,10:00,4.6,1.8,82.0,20.0,6.0,32.2,102.22,,,Mostly Cloudy,katkam-20170222100000.jpg
2017-02-22 13:00,2017,2,22,13:00,6.3,2.4,76.0,26.0,17.0,32.2,102.19,,,Mainly Clear,katkam-20170222130000.jpg
2017-02-22 16:00,2017,2,22,16:00,6.1,1.8,74.0,29.0,21.0,48.3,102.16,,,Mainly Clear,katkam-20170222160000.jpg
2017-02-23 07:00,2017,2,23,07:00,1.3,-0.3,89.0,10.0,3.0,48.3,102.38,,,Mostly Cloudy,katkam-20170223070000.jpg
2017-02-23 10:00,2017,2,23,10:00,4.5,-0.3,71.0,31.0,4.0,48.3,102.46,,,Mostly Cloudy,katkam-20170223100000.jpg
2017-02-23 13:00,2017,2,23,13:00,5.5,1.3,74.0,29.0,22.0,48.3,102.4,,,Mainly Clear,katkam-20170223130000.jpg
2017-02-23 16:00,2017,2,23,16:00,5.0,-0.4,68.0,23.0,11.0,48.3,102.23,,,Mainly Clear,katkam-20170223160000.jpg
2017-02-24 07:00,2017,2,24,07:00,1.8,0.3,90.0,8.0,19.0,24.1,102.04,,,Cloudy,katkam-20170224070000.jpg
2017-02-24 10:00,2017,2,24,10:00,3.7,-0.5,74.0,6.0,17.0,32.2,102.17,,,Cloudy,katkam-20170224100000.jpg
2017-02-24 13:00,2017,2,24,13:00,6.1,-1.5,58.0,10.0,12.0,48.3,102.24,,,Mostly Cloudy,katkam-20170224130000.jpg
2017-02-24 16:00,2017,2,24,16:00,6.1,-0.9,61.0,24.0,13.0,48.3,102.23,,,Mainly Clear,katkam-20170224160000.jpg
2017-02-25 07:00,2017,2,25,07:00,-1.1,-2.8,88.0,7.0,8.0,32.2,102.4,,-4.0,Mainly Clear,katkam-20170225070000.jpg
2017-02-25 10:00,2017,2,25,10:00,2.9,-0.7,77.0,11.0,11.0,48.3,102.28,,,Cloudy,katkam-20170225100000.jpg
2017-02-25 13:00,2017,2,25,13:00,4.5,-0.3,71.0,22.0,9.0,48.3,102.08,,,Cloudy,katkam-20170225130000.jpg
2017-02-25 16:00,2017,2,25,16:00,5.3,0.1,69.0,11.0,8.0,48.3,101.73,,,Cloudy,katkam-20170225160000.jpg
2017-02-26 07:00,2017,2,26,07:00,1.8,-0.8,83.0,5.0,13.0,32.2,100.68,,,Cloudy,katkam-20170226070000.jpg
2017-02-26 10:00,2017,2,26,10:00,4.3,0.1,74.0,36.0,2.0,32.2,100.78,,,Cloudy,katkam-20170226100000.jpg
2017-02-26 13:00,2017,2,26,13:00,6.4,2.3,75.0,30.0,30.0,32.2,100.7,,,Mainly Clear,katkam-20170226130000.jpg
2017-02-26 16:00,2017,2,26,16:00,6.4,2.3,75.0,29.0,32.0,32.2,100.66,,,Mainly Clear,katkam-20170226160000.jpg
2017-02-27 07:00,2017,2,27,07:00,1.2,-4.9,64.0,5.0,14.0,24.1,100.63,,,Cloudy,katkam-20170227070000.jpg
2017-02-27 08:00,2017,2,27,08:00,0.9,-5.4,63.0,11.0,11.0,24.1,100.64,,,Snow Showers,katkam-20170227080000.jpg
2017-02-27 09:00,2017,2,27,09:00,0.2,-3.0,79.0,10.0,17.0,24.1,100.65,,,Snow Showers,katkam-20170227090000.jpg
2017-02-27 10:00,2017,2,27,10:00,-0.2,-1.3,92.0,7.0,16.0,6.4,100.63,,-5.0,Snow,katkam-20170227100000.jpg
2017-02-27 13:00,2017,2,27,13:00,2.0,-1.1,80.0,15.0,4.0,24.1,100.5,,,Cloudy,katkam-20170227130000.jpg
2017-02-27 16:00,2017,2,27,16:00,3.1,-0.7,76.0,29.0,13.0,48.3,100.51,,,Mainly Clear,katkam-20170227160000.jpg
2017-02-28 07:00,2017,2,28,07:00,0.4,-1.5,87.0,11.0,8.0,16.1,101.35,,,Snow Showers,katkam-20170228070000.jpg
2017-02-28 08:00,2017,2,28,08:00,-0.2,-1.2,93.0,10.0,11.0,1.6,101.47,,-4.0,Snow,katkam-20170228080000.jpg
2017-02-28 09:00,2017,2,28,09:00,0.2,-1.0,92.0,8.0,7.0,8.1,101.59,,,Snow,katkam-20170228090000.jpg
2017-02-28 10:00,2017,2,28,10:00,1.5,-0.3,88.0,11.0,10.0,24.1,101.65,,,Mostly Cloudy,katkam-20170228100000.jpg
2017-02-28 13:00,2017,2,28,13:00,4.2,-0.8,70.0,22.0,4.0,24.1,101.83,,,Mostly Cloudy,katkam-20170228130000.jpg
2017-02-28 16:00,2017,2,28,16:00,4.3,0.1,74.0,12.0,19.0,24.1,101.9,,,Rain,katkam-20170228160000.jpg
2017-03-01 07:00,2017,3,1,07:00,5.4,3.1,85.0,25.0,19.0,48.3,102.33,,,Cloudy,katkam-20170301070000.jpg
2017-03-01 10:00,2017,3,1,10:00,6.3,2.9,79.0,26.0,12.0,48.3,102.68,,,Cloudy,katkam-20170301100000.jpg
2017-03-01 13:00,2017,3,1,13:00,7.2,3.3,76.0,33.0,7.0,48.3,102.85,,,Cloudy,katkam-20170301130000.jpg
2017-03-01 16:00,2017,3,1,16:00,7.3,2.8,73.0,18.0,8.0,48.3,102.92,,,Cloudy,katkam-20170301160000.jpg
2017-03-02 07:00,2017,3,2,07:00,4.5,3.8,95.0,10.0,18.0,16.1,102.46,,,Cloudy,katkam-20170302070000.jpg
2017-03-02 09:00,2017,3,2,09:00,6.3,4.8,90.0,13.0,12.0,24.1,102.42,,,Rain,katkam-20170302090000.jpg
2017-03-02 10:00,2017,3,2,10:00,6.6,4.8,88.0,12.0,20.0,24.1,102.41,,,Rain,katkam-20170302100000.jpg
2017-03-02 11:00,2017,3,2,11:00,6.5,5.1,91.0,12.0,19.0,16.1,102.4,,,Rain,katkam-20170302110000.jpg
2017-03-02 13:00,2017,3,2,13:00,7.5,5.3,86.0,12.0,20.0,24.1,102.31,,,Rain,katkam-20170302130000.jpg
2017-03-02 16:00,2017,3,2,16:00,6.9,5.4,90.0,12.0,23.0,24.1,102.07,,,Rain,katkam-20170302160000.jpg
2017-03-02 17:00,2017,3,2,17:00,6.7,5.5,92.0,13.0,25.0,16.1,102.0,,,Rain,katkam-20170302170000.jpg
2017-03-03 07:00,2017,3,3,07:00,7.0,5.8,92.0,15.0,23.0,16.1,101.05,,,Rain,katkam-20170303070000.jpg
2017-03-03 10:00,2017,3,3,10:00,6.8,4.8,87.0,20.0,14.0,24.1,100.98,,,Cloudy,katkam-20170303100000.jpg
2017-03-03 11:00,2017,3,3,11:00,6.6,4.1,84.0,17.0,12.0,24.1,100.93,,,Rain,katkam-20170303110000.jpg
2017-03-03 12:00,2017,3,3,12:00,6.0,4.3,89.0,12.0,6.0,16.1,100.85,,,Rain,katkam-20170303120000.jpg
2017-03-03 13:00,2017,3,3,13:00,6.1,3.9,86.0,10.0,12.0,24.1,100.71,,,Rain,katkam-20170303130000.jpg
2017-03-03 14:00,2017,3,3,14:00,6.3,4.6,89.0,10.0,19.0,24.1,100.54,,,Rain,katkam-20170303140000.jpg
2017-03-03 15:00,2017,3,3,15:00,6.3,4.5,88.0,16.0,23.0,19.3,100.41,,,Rain,katkam-20170303150000.jpg
2017-03-03 16:00,2017,3,3,16:00,5.7,4.5,92.0,19.0,26.0,24.1,100.35,,,Rain,katkam-20170303160000.jpg
2017-03-04 06:00,2017,3,4,06:00,2.0,0.5,90.0,7.0,13.0,24.1,100.66,,,Rain,katkam-20170304060000.jpg
2017-03-04 07:00,2017,3,4,07:00,1.4,0.2,92.0,9.0,7.0,24.1,100.67,,,Mainly Clear,katkam-20170304070000.jpg
2017-03-04 10:00,2017,3,4,10:00,3.6,0.1,78.0,6.0,8.0,32.2,100.7,,,Mostly Cloudy,katkam-20170304100000.jpg
2017-03-04 13:00,2017,3,4,13:00,5.7,1.6,75.0,9.0,23.0,32.2,100.57,,,Mostly Cloudy,katkam-20170304130000.jpg
2017-03-04 16:00,2017,3,4,16:00,5.5,-1.4,61.0,10.0,18.0,32.2,100.34,,,Mostly Cloudy,katkam-20170304160000.jpg
2017-03-05 06:00,2017,3,5,06:00,0.0,-0.3,98.0,32.0,3.0,3.2,99.8,,-1.0,Snow,katkam-20170305060000.jpg
2017-03-05 07:00,2017,3,5,07:00,0.4,0.3,99.0,11.0,7.0,3.2,99.81,,,"Rain Showers,Snow Showers,Fog",katkam-20170305070000.jpg
2017-03-05 08:00,2017,3,5,08:00,0.4,0.3,99.0,8.0,10.0,4.8,99.82,,,Snow Showers,katkam-20170305080000.jpg
2017-03-05 10:00,2017,3,5,10:00,1.2,-0.1,91.0,5.0,13.0,12.9,99.85,,,Cloudy,katkam-20170305100000.jpg
2017-03-05 12:00,2017,3,5,12:00,2.3,1.1,92.0,8.0,16.0,12.9,99.86,,,Rain Showers,katkam-20170305120000.jpg
2017-03-05 13:00,2017,3,5,13:00,3.5,2.0,90.0,7.0,16.0,16.1,99.83,,,Mostly Cloudy,katkam-20170305130000.jpg
2017-03-05 14:00,2017,3,5,14:00,4.2,2.2,87.0,7.0,19.0,16.1,99.77,,,Rain Showers,katkam-20170305140000.jpg
2017-03-05 15:00,2017,3,5,15:00,2.7,1.5,92.0,5.0,18.0,12.9,99.77,,,Rain Showers,katkam-20170305150000.jpg
2017-03-05 16:00,2017,3,5,16:00,1.3,0.6,95.0,3.0,13.0,4.8,99.77,,,"Rain Showers,Snow Pellets",katkam-20170305160000.jpg
2017-03-06 07:00,2017,3,6,07:00,1.9,-2.8,71.0,24.0,11.0,32.2,100.6,,,Mostly Cloudy,katkam-20170306070000.jpg
2017-03-06 10:00,2017,3,6,10:00,4.7,0.8,76.0,4.0,8.0,32.2,100.82,,,Mostly Cloudy,katkam-20170306100000.jpg
2017-03-06 13:00,2017,3,6,13:00,4.8,-2.3,60.0,22.0,10.0,32.2,101.01,,,Mostly Cloudy,katkam-20170306130000.jpg
2017-03-06 16:00,2017,3,6,16:00,5.2,0.0,69.0,19.0,17.0,32.2,101.09,,,Mainly Clear,katkam-20170306160000.jpg
2017-03-07 07:00,2017,3,7,07:00,3.6,1.2,84.0,12.0,24.0,16.1,101.44,,,Cloudy,katkam-20170307070000.jpg
2017-03-07 09:00,2017,3,7,09:00,2.5,0.2,85.0,9.0,23.0,16.1,101.39,,,Rain Showers,katkam-20170307090000.jpg
2017-03-07 10:00,2017,3,7,10:00,1.8,0.2,89.0,10.0,25.0,9.7,101.34,,,"Rain Showers,Snow Showers",katkam-20170307100000.jpg
2017-03-07 11:00,2017,3,7,11:00,2.3,1.0,91.0,8.0,25.0,12.9,101.25,,,Rain,katkam-20170307110000.jpg
2017-03-07 12:00,2017,3,7,12:00,1.9,1.0,94.0,8.0,26.0,6.4,101.18,,,"Rain,Snow",katkam-20170307120000.jpg
2017-03-07 13:00,2017,3,7,13:00,1.4,0.8,96.0,9.0,20.0,4.8,101.14,,,"Rain,Snow",katkam-20170307130000.jpg
2017-03-07 14:00,2017,3,7,14:00,1.7,1.1,96.0,8.0,22.0,9.7,101.06,,,"Rain,Snow",katkam-20170307140000.jpg
2017-03-07 15:00,2017,3,7,15:00,1.8,1.2,96.0,8.0,21.0,9.7,101.0,,,"Rain,Snow",katkam-20170307150000.jpg
2017-03-07 16:00,2017,3,7,16:00,1.4,0.8,96.0,8.0,20.0,4.8,100.94,,,"Rain,Snow",katkam-20170307160000.jpg
2017-03-07 17:00,2017,3,7,17:00,1.9,1.2,95.0,9.0,22.0,12.9,100.89,,,Rain,katkam-20170307170000.jpg
2017-03-08 07:00,2017,3,8,07:00,1.7,-0.4,86.0,7.0,10.0,48.3,101.85,,,Cloudy,katkam-20170308070000.jpg
2017-03-08 10:00,2017,3,8,10:00,4.2,0.7,78.0,7.0,15.0,48.3,102.03,,,Cloudy,katkam-20170308100000.jpg
2017-03-08 13:00,2017,3,8,13:00,6.0,-0.9,61.0,20.0,13.0,48.3,102.0,,,Cloudy,katkam-20170308130000.jpg
2017-03-08 15:00,2017,3,8,15:00,6.2,-1.9,56.0,13.0,14.0,24.1,101.9,,,Rain Showers,katkam-20170308150000.jpg
2017-03-08 16:00,2017,3,8,16:00,5.2,0.4,71.0,17.0,26.0,24.1,101.9,,,Cloudy,katkam-20170308160000.jpg
2017-03-08 17:00,2017,3,8,17:00,3.7,1.4,85.0,14.0,13.0,24.1,101.91,,,Rain Showers,katkam-20170308170000.jpg
2017-03-09 07:00,2017,3,9,07:00,2.0,1.4,96.0,32.0,4.0,24.1,102.09,,,Drizzle,katkam-20170309070000.jpg
2017-03-09 10:00,2017,3,9,10:00,3.9,1.1,82.0,36.0,2.0,32.2,102.04,,,Cloudy,katkam-20170309100000.jpg
2017-03-09 13:00,2017,3,9,13:00,4.2,1.7,84.0,29.0,5.0,48.3,101.81,,,Cloudy,katkam-20170309130000.jpg
2017-03-09 14:00,2017,3,9,14:00,4.0,1.0,81.0,9.0,19.0,19.3,101.72,,,Rain,katkam-20170309140000.jpg
2017-03-09 15:00,2017,3,9,15:00,3.1,1.8,91.0,8.0,17.0,16.1,101.53,,,Moderate Rain,katkam-20170309150000.jpg
2017-03-09 16:00,2017,3,9,16:00,3.4,2.2,92.0,6.0,14.0,16.1,101.38,,,Rain,katkam-20170309160000.jpg
2017-03-09 17:00,2017,3,9,17:00,3.3,2.4,94.0,11.0,9.0,19.3,101.25,,,Rain,katkam-20170309170000.jpg
2017-03-10 07:00,2017,3,10,07:00,6.5,5.9,96.0,9.0,8.0,24.1,101.34,,,Cloudy,katkam-20170310070000.jpg
2017-03-10 10:00,2017,3,10,10:00,6.9,5.4,90.0,26.0,10.0,24.1,101.81,,,Cloudy,katkam-20170310100000.jpg
2017-03-10 13:00,2017,3,10,13:00,7.2,5.2,87.0,30.0,14.0,24.1,102.22,,,Cloudy,katkam-20170310130000.jpg
2017-03-10 16:00,2017,3,10,16:00,8.5,5.3,80.0,29.0,7.0,48.3,102.33,,,Cloudy,katkam-20170310160000.jpg
2017-03-11 07:00,2017,3,11,07:00,5.7,2.7,81.0,9.0,11.0,48.3,101.45,,,Cloudy,katkam-20170311070000.jpg
2017-03-11 10:00,2017,3,11,10:00,5.9,4.2,89.0,31.0,5.0,24.1,101.28,,,Rain,katkam-20170311100000.jpg
2017-03-11 11:00,2017,3,11,11:00,6.2,4.4,88.0,7.0,22.0,12.9,101.17,,,Rain,katkam-20170311110000.jpg
2017-03-11 12:00,2017,3,11,12:00,6.5,5.0,90.0,8.0,18.0,24.1,101.16,,,Rain,katkam-20170311120000.jpg
2017-03-11 13:00,2017,3,11,13:00,6.8,5.8,93.0,7.0,20.0,12.9,101.13,,,Moderate Rain,katkam-20170311130000.jpg
2017-03-11 14:00,2017,3,11,14:00,7.4,6.4,93.0,8.0,17.0,19.3,101.07,,,Rain,katkam-20170311140000.jpg
2017-03-11 15:00,2017,3,11,15:00,7.9,6.9,93.0,10.0,21.0,24.1,101.1,,,Rain,katkam-20170311150000.jpg
2017-03-11 16:00,2017,3,11,16:00,7.4,6.4,93.0,7.0,24.0,19.3,101.07,,,Rain,katkam-20170311160000.jpg
2017-03-11 17:00,2017,3,11,17:00,7.2,6.5,95.0,9.0,18.0,6.4,101.09,,,"Rain,Fog",katkam-20170311170000.jpg
2017-03-12 07:00,2017,3,12,07:00,7.2,6.2,93.0,7.0,13.0,32.2,102.3,,,Cloudy,katkam-20170312070000.jpg
2017-03-12 10:00,2017,3,12,10:00,9.1,7.1,87.0,11.0,21.0,32.2,102.41,,,Cloudy,katkam-20170312100000.jpg
2017-03-12 11:00,2017,3,12,11:00,8.9,7.8,93.0,12.0,19.0,16.1,102.42,,,Rain,katkam-20170312110000.jpg
2017-03-12 12:00,2017,3,12,12:00,8.8,8.1,95.0,14.0,17.0,16.1,102.45,,,Rain,katkam-20170312120000.jpg
2017-03-12 13:00,2017,3,12,13:00,8.9,8.0,94.0,12.0,11.0,24.1,102.43,,,Rain,katkam-20170312130000.jpg
2017-03-12 14:00,2017,3,12,14:00,9.2,7.8,91.0,14.0,14.0,19.3,102.39,,,Rain,katkam-20170312140000.jpg
2017-03-12 15:00,2017,3,12,15:00,9.5,8.1,91.0,9.0,9.0,19.3,102.35,,,Rain,katkam-20170312150000.jpg
2017-03-12 16:00,2017,3,12,16:00,9.2,8.0,92.0,6.0,16.0,19.3,102.32,,,Rain,katkam-20170312160000.jpg
2017-03-13 06:00,2017,3,13,06:00,7.5,6.8,95.0,9.0,18.0,9.7,101.68,,,"Drizzle,Fog",katkam-20170313060000.jpg
2017-03-13 07:00,2017,3,13,07:00,7.7,7.1,96.0,8.0,23.0,16.1,101.69,,,Cloudy,katkam-20170313070000.jpg
2017-03-13 08:00,2017,3,13,08:00,8.0,7.4,96.0,8.0,18.0,6.4,101.77,,,"Drizzle,Fog",katkam-20170313080000.jpg
2017-03-13 10:00,2017,3,13,10:00,8.5,7.6,94.0,10.0,15.0,24.1,101.74,,,Cloudy,katkam-20170313100000.jpg
2017-03-13 11:00,2017,3,13,11:00,9.1,8.0,93.0,7.0,9.0,24.1,101.75,,,Drizzle,katkam-20170313110000.jpg
2017-03-13 12:00,2017,3,13,12:00,9.6,7.9,89.0,7.0,8.0,24.1,101.74,,,Drizzle,katkam-20170313120000.jpg
2017-03-13 13:00,2017,3,13,13:00,10.0,8.5,90.0,10.0,9.0,24.1,101.74,,,Cloudy,katkam-20170313130000.jpg
2017-03-13 16:00,2017,3,13,16:00,10.1,8.6,90.0,7.0,8.0,24.1,101.71,,,Drizzle,katkam-20170313160000.jpg
2017-03-14 07:00,2017,3,14,07:00,8.2,7.8,97.0,10.0,14.0,4.0,100.61,,,"Rain,Fog",katkam-20170314070000.jpg
2017-03-14 08:00,2017,3,14,08:00,8.4,8.0,97.0,10.0,18.0,4.8,100.65,,,"Rain,Fog",katkam-20170314080000.jpg
2017-03-14 09:00,2017,3,14,09:00,9.3,8.7,96.0,9.0,22.0,24.1,100.66,,,Rain,katkam-20170314090000.jpg
2017-03-14 10:00,2017,3,14,10:00,10.7,9.8,94.0,9.0,19.0,24.1,100.7,,,Mostly Cloudy,katkam-20170314100000.jpg
2017-03-14 13:00,2017,3,14,13:00,13.2,11.3,88.0,10.0,21.0,24.1,100.84,,,Cloudy,katkam-20170314130000.jpg
2017-03-14 16:00,2017,3,14,16:00,13.9,10.0,77.0,15.0,28.0,24.1,100.91,,,Cloudy,katkam-20170314160000.jpg
2017-03-15 07:00,2017,3,15,07:00,8.5,7.9,96.0,9.0,10.0,24.1,101.09,,,Cloudy,katkam-20170315070000.jpg
2017-03-15 10:00,2017,3,15,10:00,9.8,7.2,84.0,12.0,12.0,24.1,101.08,,,Cloudy,katkam-20170315100000.jpg
2017-03-15 12:00,2017,3,15,12:00,9.7,7.7,87.0,10.0,9.0,12.9,100.95,,,Rain,katkam-20170315120000.jpg
2017-03-15 13:00,2017,3,15,13:00,10.2,8.7,90.0,7.0,10.0,24.1,100.89,,,Cloudy,katkam-20170315130000.jpg
2017-03-15 16:00,2017,3,15,16:00,10.0,8.1,88.0,10.0,16.0,24.1,100.67,,,Rain Showers,katkam-20170315160000.jpg
2017-03-15 17:00,2017,3,15,17:00,10.0,7.6,85.0,10.0,13.0,24.1,100.65,,,Rain Showers,katkam-20170315170000.jpg
2017-03-15 18:00,2017,3,15,18:00,9.6,8.1,90.0,13.0,21.0,16.1,100.68,,,Rain Showers,katkam-20170315180000.jpg
2017-03-16 07:00,2017,3,16,07:00,5.6,2.1,78.0,10.0,13.0,32.2,102.12,,,Cloudy,katkam-20170316070000.jpg
2017-03-16 09:00,2017,3,16,09:00,6.7,2.4,74.0,17.0,27.0,24.1,102.25,,,Rain Showers,katkam-20170316090000.jpg
2017-03-16 10:00,2017,3,16,10:00,6.3,4.3,87.0,16.0,21.0,24.1,102.33,,,Rain,katkam-20170316100000.jpg
2017-03-16 11:00,2017,3,16,11:00,6.2,4.0,86.0,15.0,21.0,16.1,102.37,,,Rain,katkam-20170316110000.jpg
2017-03-16 13:00,2017,3,16,13:00,7.4,3.7,77.0,15.0,20.0,24.1,102.37,,,Rain Showers,katkam-20170316130000.jpg
2017-03-16 16:00,2017,3,16,16:00,8.9,3.1,67.0,14.0,15.0,24.1,102.32,,,Cloudy,katkam-20170316160000.jpg
2017-03-17 07:00,2017,3,17,07:00,3.9,2.6,91.0,11.0,12.0,48.3,101.75,,,Cloudy,katkam-20170317070000.jpg
2017-03-17 13:00,2017,3,17,13:00,6.8,4.1,83.0,31.0,4.0,48.3,101.36,,,Cloudy,katkam-20170317130000.jpg
2017-03-17 14:00,2017,3,17,14:00,8.6,3.1,68.0,9.0,25.0,24.1,101.28,,,Rain,katkam-20170317140000.jpg
2017-03-17 15:00,2017,3,17,15:00,6.7,4.5,86.0,9.0,19.0,16.1,101.23,,,Rain,katkam-20170317150000.jpg
2017-03-17 16:00,2017,3,17,16:00,5.8,4.3,90.0,10.0,24.0,12.9,101.15,,,Moderate Rain,katkam-20170317160000.jpg
2017-03-17 17:00,2017,3,17,17:00,4.9,3.4,90.0,7.0,24.0,19.3,101.05,,,Rain,katkam-20170317170000.jpg
2017-03-17 18:00,2017,3,17,18:00,4.8,3.5,91.0,7.0,23.0,12.9,100.96,,,Rain,katkam-20170317180000.jpg
2017-03-18 06:00,2017,3,18,06:00,5.5,4.2,91.0,29.0,20.0,24.1,100.23,,,Rain Showers,katkam-20170318060000.jpg
2017-03-18 07:00,2017,3,18,07:00,5.5,4.2,91.0,28.0,18.0,24.1,100.26,,,Cloudy,katkam-20170318070000.jpg
2017-03-18 12:00,2017,3,18,12:00,6.1,3.6,84.0,28.0,37.0,24.1,100.91,,,Rain Showers,katkam-20170318120000.jpg
2017-03-18 13:00,2017,3,18,13:00,7.5,3.8,77.0,29.0,32.0,32.2,101.03,,,Mostly Cloudy,katkam-20170318130000.jpg
2017-03-18 16:00,2017,3,18,16:00,8.3,1.3,61.0,28.0,13.0,32.2,101.43,,,Mainly Clear,katkam-20170318160000.jpg
2017-03-19 13:00,2017,3,19,13:00,7.7,0.7,61.0,15.0,9.0,32.2,102.68,,,Mainly Clear,katkam-20170319130000.jpg
2017-03-19 16:00,2017,3,19,16:00,8.2,0.2,57.0,27.0,14.0,48.3,102.53,,,Mainly Clear,katkam-20170319160000.jpg
2017-03-20 07:00,2017,3,20,07:00,1.4,-2.2,77.0,6.0,8.0,48.3,101.94,,,Mostly Cloudy,katkam-20170320070000.jpg
2017-03-20 10:00,2017,3,20,10:00,5.5,0.7,71.0,29.0,12.0,48.3,101.8,,,Cloudy,katkam-20170320100000.jpg
2017-03-20 13:00,2017,3,20,13:00,7.7,2.2,68.0,30.0,22.0,48.3,101.57,,,Mostly Cloudy,katkam-20170320130000.jpg
2017-03-20 16:00,2017,3,20,16:00,7.6,0.8,62.0,30.0,19.0,48.3,101.33,,,Cloudy,katkam-20170320160000.jpg
2017-03-21 06:00,2017,3,21,06:00,6.5,4.0,84.0,2.0,5.0,16.1,100.71,,,Rain,katkam-20170321060000.jpg
2017-03-21 07:00,2017,3,21,07:00,6.2,4.0,86.0,2.0,8.0,8.1,100.69,,,"Rain,Fog",katkam-20170321070000.jpg
2017-03-21 08:00,2017,3,21,08:00,6.6,5.1,90.0,6.0,5.0,16.1,100.66,,,Rain,katkam-20170321080000.jpg
2017-03-21 10:00,2017,3,21,10:00,7.5,6.3,92.0,35.0,5.0,24.1,100.6,,,Cloudy,katkam-20170321100000.jpg
2017-03-21 13:00,2017,3,21,13:00,7.4,6.2,92.0,26.0,21.0,12.9,100.54,,,Rain Showers,katkam-20170321130000.jpg
2017-03-21 16:00,2017,3,21,16:00,11.1,8.5,84.0,9.0,12.0,24.1,100.53,,,Cloudy,katkam-20170321160000.jpg
2017-03-21 17:00,2017,3,21,17:00,11.4,8.1,80.0,8.0,12.0,24.1,100.48,,,Rain Showers,katkam-20170321170000.jpg
2017-03-21 18:00,2017,3,21,18:00,11.1,8.4,83.0,8.0,10.0,24.1,100.53,,,Rain Showers,katkam-20170321180000.jpg
2017-03-22 07:00,2017,3,22,07:00,9.8,6.5,80.0,12.0,22.0,32.2,100.54,,,Cloudy,katkam-20170322070000.jpg
2017-03-22 10:00,2017,3,22,10:00,9.9,7.5,85.0,14.0,26.0,24.1,100.7,,,Rain,katkam-20170322100000.jpg
2017-03-22 11:00,2017,3,22,11:00,10.1,7.7,85.0,13.0,15.0,24.1,100.74,,,Rain,katkam-20170322110000.jpg
2017-03-22 13:00,2017,3,22,13:00,10.6,7.0,78.0,14.0,18.0,24.1,100.81,,,Rain,katkam-20170322130000.jpg
2017-03-22 16:00,2017,3,22,16:00,10.0,7.1,82.0,15.0,22.0,24.1,100.91,,,Rain Showers,katkam-20170322160000.jpg
2017-03-23 07:00,2017,3,23,07:00,6.6,4.3,85.0,14.0,17.0,24.1,101.66,,,Cloudy,katkam-20170323070000.jpg
2017-03-23 10:00,2017,3,23,10:00,8.2,3.5,72.0,13.0,32.0,24.1,101.69,,,Cloudy,katkam-20170323100000.jpg
2017-03-23 13:00,2017,3,23,13:00,11.5,3.1,56.0,12.0,39.0,48.3,101.55,,,Cloudy,katkam-20170323130000.jpg
2017-03-23 16:00,2017,3,23,16:00,10.9,4.0,62.0,10.0,12.0,48.3,101.31,,,Cloudy,katkam-20170323160000.jpg
2017-03-23 17:00,2017,3,23,17:00,10.9,2.3,55.0,11.0,18.0,48.3,101.23,,,Rain,katkam-20170323170000.jpg
2017-03-23 18:00,2017,3,23,18:00,9.4,5.0,74.0,12.0,17.0,24.1,101.21,,,Rain,katkam-20170323180000.jpg
2017-03-24 07:00,2017,3,24,07:00,6.9,5.4,90.0,9.0,13.0,32.2,100.7,,,Cloudy,katkam-20170324070000.jpg
2017-03-24 10:00,2017,3,24,10:00,8.7,6.2,84.0,9.0,14.0,32.2,100.75,,,Cloudy,katkam-20170324100000.jpg
2017-03-24 12:00,2017,3,24,12:00,9.8,6.9,82.0,12.0,21.0,24.1,100.79,,,Rain Showers,katkam-20170324120000.jpg
2017-03-24 13:00,2017,3,24,13:00,10.2,7.1,81.0,12.0,22.0,24.1,100.76,,,Rain Showers,katkam-20170324130000.jpg
2017-03-24 14:00,2017,3,24,14:00,10.2,6.4,77.0,14.0,23.0,24.1,100.78,,,Rain Showers,katkam-20170324140000.jpg
2017-03-24 15:00,2017,3,24,15:00,10.0,7.6,85.0,13.0,14.0,24.1,100.8,,,Rain Showers,katkam-20170324150000.jpg
2017-03-24 16:00,2017,3,24,16:00,9.9,8.0,88.0,13.0,10.0,24.1,100.84,,,Rain,katkam-20170324160000.jpg
2017-03-24 17:00,2017,3,24,17:00,9.4,7.9,90.0,23.0,6.0,24.1,100.9,,,Rain,katkam-20170324170000.jpg
2017-03-24 18:00,2017,3,24,18:00,8.8,7.3,90.0,16.0,14.0,19.3,100.95,,,Rain,katkam-20170324180000.jpg
2017-03-25 07:00,2017,3,25,07:00,7.0,4.0,81.0,22.0,13.0,32.2,101.7,,,Mostly Cloudy,katkam-20170325070000.jpg
2017-03-25 10:00,2017,3,25,10:00,8.7,3.4,69.0,19.0,18.0,32.2,101.83,,,Cloudy,katkam-20170325100000.jpg
2017-03-25 13:00,2017,3,25,13:00,9.5,0.9,55.0,20.0,12.0,48.3,101.85,,,Mostly Cloudy,katkam-20170325130000.jpg
2017-03-25 16:00,2017,3,25,16:00,10.1,0.7,52.0,20.0,10.0,48.3,101.78,,,Cloudy,katkam-20170325160000.jpg
2017-03-26 06:00,2017,3,26,06:00,5.7,3.6,86.0,8.0,10.0,24.1,101.01,,,Rain Showers,katkam-20170326060000.jpg
2017-03-26 07:00,2017,3,26,07:00,5.7,3.6,86.0,10.0,13.0,24.1,100.97,,,Rain Showers,katkam-20170326070000.jpg
2017-03-26 08:00,2017,3,26,08:00,5.8,4.0,88.0,10.0,21.0,19.3,100.97,,,Rain,katkam-20170326080000.jpg
2017-03-26 09:00,2017,3,26,09:00,6.2,4.5,89.0,8.0,21.0,16.1,100.96,,,Rain,katkam-20170326090000.jpg
2017-03-26 10:00,2017,3,26,10:00,6.1,4.6,90.0,7.0,24.0,16.1,100.93,,,Rain,katkam-20170326100000.jpg
2017-03-26 11:00,2017,3,26,11:00,5.8,4.3,90.0,7.0,24.0,9.7,100.88,,,"Moderate Rain,Fog",katkam-20170326110000.jpg
2017-03-26 12:00,2017,3,26,12:00,6.3,4.6,89.0,7.0,25.0,16.1,100.78,,,Rain,katkam-20170326120000.jpg
2017-03-26 13:00,2017,3,26,13:00,7.6,4.9,83.0,7.0,25.0,24.1,100.7,,,Rain,katkam-20170326130000.jpg
2017-03-26 16:00,2017,3,26,16:00,8.6,5.0,78.0,9.0,19.0,19.3,100.62,,,Cloudy,katkam-20170326160000.jpg
2017-03-26 17:00,2017,3,26,17:00,7.8,5.8,87.0,9.0,16.0,16.1,100.65,,,Rain,katkam-20170326170000.jpg
2017-03-26 18:00,2017,3,26,18:00,7.0,6.0,93.0,10.0,14.0,12.9,100.67,,,Rain,katkam-20170326180000.jpg
2017-03-27 06:00,2017,3,27,06:00,6.8,6.1,95.0,10.0,12.0,19.3,101.32,,,Drizzle,katkam-20170327060000.jpg
2017-03-27 07:00,2017,3,27,07:00,6.7,6.1,96.0,9.0,18.0,8.1,101.36,,,"Rain,Fog",katkam-20170327070000.jpg
2017-03-27 08:00,2017,3,27,08:00,7.1,6.4,95.0,9.0,15.0,19.3,101.46,,,Rain,katkam-20170327080000.jpg
2017-03-27 09:00,2017,3,27,09:00,7.8,6.8,93.0,8.0,15.0,24.1,101.56,,,Rain,katkam-20170327090000.jpg
2017-03-27 10:00,2017,3,27,10:00,9.1,6.9,86.0,14.0,13.0,24.1,101.6,,,Rain,katkam-20170327100000.jpg
2017-03-27 13:00,2017,3,27,13:00,10.9,6.5,74.0,14.0,19.0,24.1,101.84,,,Cloudy,katkam-20170327130000.jpg
2017-03-27 16:00,2017,3,27,16:00,11.3,4.8,64.0,17.0,27.0,32.2,101.91,,,Cloudy,katkam-20170327160000.jpg
2017-03-27 18:00,2017,3,27,18:00,10.1,4.7,69.0,16.0,18.0,32.2,101.97,,,Rain,katkam-20170327180000.jpg
2017-03-28 06:00,2017,3,28,06:00,7.2,6.0,92.0,13.0,32.0,12.9,101.97,,,Rain,katkam-20170328060000.jpg
2017-03-28 07:00,2017,3,28,07:00,7.2,6.0,92.0,12.0,32.0,12.9,101.95,,,Rain,katkam-20170328070000.jpg
2017-03-28 08:00,2017,3,28,08:00,7.2,6.2,93.0,12.0,28.0,6.4,101.98,,,"Rain,Fog",katkam-20170328080000.jpg
2017-03-28 09:00,2017,3,28,09:00,7.4,6.2,92.0,11.0,32.0,12.9,101.97,,,Moderate Rain,katkam-20170328090000.jpg
2017-03-28 10:00,2017,3,28,10:00,7.6,6.6,93.0,11.0,33.0,12.9,101.99,,,Moderate Rain,katkam-20170328100000.jpg
2017-03-28 11:00,2017,3,28,11:00,7.8,6.8,93.0,12.0,29.0,12.9,102.02,,,Moderate Rain,katkam-20170328110000.jpg
2017-03-28 12:00,2017,3,28,12:00,8.2,6.8,91.0,11.0,25.0,16.1,102.02,,,Rain,katkam-20170328120000.jpg
2017-03-28 13:00,2017,3,28,13:00,8.5,7.3,92.0,11.0,23.0,16.1,102.02,,,Rain,katkam-20170328130000.jpg
2017-03-28 14:00,2017,3,28,14:00,8.7,7.2,90.0,11.0,27.0,24.1,102.0,,,Rain,katkam-20170328140000.jpg
2017-03-28 15:00,2017,3,28,15:00,8.8,7.4,91.0,12.0,28.0,19.3,101.96,,,Rain,katkam-20170328150000.jpg
2017-03-28 16:00,2017,3,28,16:00,8.5,7.4,93.0,9.0,21.0,24.1,101.94,,,Rain,katkam-20170328160000.jpg
2017-03-28 17:00,2017,3,28,17:00,8.1,7.2,94.0,9.0,18.0,12.9,101.95,,,Rain,katkam-20170328170000.jpg
2017-03-28 18:00,2017,3,28,18:00,8.0,7.3,95.0,8.0,18.0,8.1,101.95,,,"Rain,Fog",katkam-20170328180000.jpg
2017-03-29 06:00,2017,3,29,06:00,6.1,3.9,86.0,7.0,24.0,16.1,101.08,,,Rain,katkam-20170329060000.jpg
2017-03-29 07:00,2017,3,29,07:00,6.5,4.2,85.0,10.0,25.0,19.3,100.94,,,Rain,katkam-20170329070000.jpg
2017-03-29 08:00,2017,3,29,08:00,6.9,4.9,87.0,9.0,18.0,12.9,100.84,,,Rain,katkam-20170329080000.jpg
2017-03-29 09:00,2017,3,29,09:00,7.0,6.0,93.0,8.0,23.0,11.3,100.76,,,Rain,katkam-20170329090000.jpg
2017-03-29 10:00,2017,3,29,10:00,7.2,6.5,95.0,9.0,26.0,4.8,100.73,,,"Rain,Fog",katkam-20170329100000.jpg
2017-03-29 11:00,2017,3,29,11:00,7.9,7.2,95.0,8.0,26.0,4.8,100.7,,,"Rain,Fog",katkam-20170329110000.jpg
2017-03-29 12:00,2017,3,29,12:00,8.2,7.5,95.0,10.0,23.0,6.4,100.7,,,"Rain,Drizzle,Fog",katkam-20170329120000.jpg
2017-03-29 13:00,2017,3,29,13:00,9.7,8.8,94.0,10.0,28.0,24.1,100.71,,,Cloudy,katkam-20170329130000.jpg
2017-03-29 16:00,2017,3,29,16:00,12.0,7.2,72.0,19.0,27.0,32.2,100.8,,,Mainly Clear,katkam-20170329160000.jpg
2017-03-30 07:00,2017,3,30,07:00,6.9,4.4,84.0,29.0,30.0,48.3,101.76,,,Mostly Cloudy,katkam-20170330070000.jpg
2017-03-30 10:00,2017,3,30,10:00,8.9,4.9,76.0,30.0,24.0,48.3,102.07,,,Mainly Clear,katkam-20170330100000.jpg
2017-03-30 13:00,2017,3,30,13:00,10.3,5.9,74.0,28.0,20.0,48.3,102.29,,,Mainly Clear,katkam-20170330130000.jpg
2017-03-30 16:00,2017,3,30,16:00,11.1,5.2,67.0,28.0,13.0,48.3,102.38,,,Mainly Clear,katkam-20170330160000.jpg
2017-03-30 19:00,2017,3,30,19:00,8.2,3.3,71.0,36.0,3.0,48.3,102.5,,,Mainly Clear,katkam-20170330190000.jpg
2017-03-31 07:00,2017,3,31,07:00,6.6,4.3,85.0,8.0,17.0,32.2,102.82,,,Cloudy,katkam-20170331070000.jpg
2017-03-31 10:00,2017,3,31,10:00,8.9,5.3,78.0,10.0,22.0,24.1,102.88,,,Cloudy,katkam-20170331100000.jpg
2017-03-31 13:00,2017,3,31,13:00,10.3,5.1,70.0,12.0,12.0,32.2,102.76,,,Cloudy,katkam-20170331130000.jpg
2017-03-31 16:00,2017,3,31,16:00,10.7,4.0,63.0,13.0,9.0,48.3,102.6,,,Cloudy,katkam-20170331160000.jpg
2017-03-31 19:00,2017,3,31,19:00,9.3,4.9,74.0,21.0,6.0,32.2,102.41,,,Cloudy,katkam-20170331190000.jpg
2017-04-01 06:00,2017,4,1,06:00,6.5,5.8,95.0,8.0,9.0,8.1,102.1,,,"Moderate Rain,Fog",katkam-20170401060000.jpg
2017-04-01 07:00,2017,4,1,07:00,6.6,5.7,94.0,8.0,8.0,12.9,102.14,,,Rain,katkam-20170401070000.jpg
2017-04-01 08:00,2017,4,1,08:00,6.8,6.1,95.0,8.0,12.0,8.1,102.15,,,"Rain,Fog",katkam-20170401080000.jpg
2017-04-01 10:00,2017,4,1,10:00,8.0,6.5,90.0,9.0,6.0,16.1,102.24,,,Cloudy,katkam-20170401100000.jpg
2017-04-01 13:00,2017,4,1,13:00,10.1,7.2,82.0,23.0,12.0,24.1,102.32,,,Mostly Cloudy,katkam-20170401130000.jpg
2017-04-01 16:00,2017,4,1,16:00,10.3,5.7,73.0,20.0,10.0,32.2,102.27,,,Mostly Cloudy,katkam-20170401160000.jpg
2017-04-01 19:00,2017,4,1,19:00,10.4,6.6,77.0,14.0,7.0,24.1,102.21,,,Mostly Cloudy,katkam-20170401190000.jpg
2017-04-02 07:00,2017,4,2,07:00,7.3,3.9,79.0,28.0,33.0,32.2,102.46,,,Mainly Clear,katkam-20170402070000.jpg
2017-04-02 10:00,2017,4,2,10:00,8.8,5.4,79.0,28.0,41.0,32.2,102.47,,,Mainly Clear,katkam-20170402100000.jpg
2017-04-02 13:00,2017,4,2,13:00,9.0,2.4,63.0,27.0,39.0,48.3,102.4,,,Mainly Clear,katkam-20170402130000.jpg
2017-04-02 16:00,2017,4,2,16:00,9.8,4.2,68.0,27.0,34.0,48.3,102.34,,,Mainly Clear,katkam-20170402160000.jpg
2017-04-02 19:00,2017,4,2,19:00,7.9,2.6,69.0,27.0,28.0,48.3,102.28,,,Mainly Clear,katkam-20170402190000.jpg
2017-04-03 07:00,2017,4,3,07:00,4.8,2.0,82.0,9.0,13.0,48.3,102.56,,,Mostly Cloudy,katkam-20170403070000.jpg
2017-04-03 10:00,2017,4,3,10:00,7.5,2.4,70.0,36.0,3.0,48.3,102.56,,,Mostly Cloudy,katkam-20170403100000.jpg
2017-04-03 13:00,2017,4,3,13:00,8.8,5.9,82.0,24.0,14.0,48.3,102.42,,,Mostly Cloudy,katkam-20170403130000.jpg
2017-04-03 16:00,2017,4,3,16:00,9.7,3.3,64.0,25.0,8.0,48.3,102.18,,,Mainly Clear,katkam-20170403160000.jpg
2017-04-03 19:00,2017,4,3,19:00,7.3,2.4,71.0,32.0,4.0,48.3,101.98,,,Mostly Cloudy,katkam-20170403190000.jpg
2017-04-04 07:00,2017,4,4,07:00,6.9,0.1,62.0,9.0,22.0,48.3,101.53,,,Cloudy,katkam-20170404070000.jpg
2017-04-04 10:00,2017,4,4,10:00,10.2,1.1,53.0,9.0,10.0,48.3,101.43,,,Cloudy,katkam-20170404100000.jpg
2017-04-04 13:00,2017,4,4,13:00,10.7,4.4,65.0,25.0,10.0,48.3,101.32,,,Cloudy,katkam-20170404130000.jpg
2017-04-04 14:00,2017,4,4,14:00,12.3,1.7,48.0,15.0,28.0,32.2,101.35,,,Rain Showers,katkam-20170404140000.jpg
2017-04-04 15:00,2017,4,4,15:00,10.9,3.7,61.0,12.0,25.0,19.3,101.35,,,Rain,katkam-20170404150000.jpg
2017-04-04 16:00,2017,4,4,16:00,9.4,5.2,75.0,9.0,27.0,12.9,101.31,,,Rain,katkam-20170404160000.jpg
2017-04-04 17:00,2017,4,4,17:00,9.0,6.5,84.0,6.0,25.0,12.9,101.24,,,Rain,katkam-20170404170000.jpg
2017-04-04 18:00,2017,4,4,18:00,8.8,6.3,84.0,5.0,23.0,12.9,101.2,,,Rain,katkam-20170404180000.jpg
2017-04-04 19:00,2017,4,4,19:00,8.8,5.9,82.0,6.0,25.0,16.1,101.16,,,Rain,katkam-20170404190000.jpg
2017-04-05 06:00,2017,4,5,06:00,9.2,7.8,91.0,11.0,26.0,24.1,101.13,,,Rain,katkam-20170405060000.jpg
2017-04-05 07:00,2017,4,5,07:00,8.9,8.0,94.0,10.0,27.0,24.1,101.11,,,Rain,katkam-20170405070000.jpg
2017-04-05 08:00,2017,4,5,08:00,9.0,7.9,93.0,11.0,28.0,24.1,101.16,,,Rain,katkam-20170405080000.jpg
2017-04-05 09:00,2017,4,5,09:00,9.4,8.0,91.0,11.0,19.0,24.1,101.23,,,Rain,katkam-20170405090000.jpg
2017-04-05 10:00,2017,4,5,10:00,9.4,8.5,94.0,11.0,18.0,12.9,101.26,,,Rain,katkam-20170405100000.jpg
2017-04-05 11:00,2017,4,5,11:00,9.8,8.9,94.0,12.0,18.0,12.9,101.27,,,Rain,katkam-20170405110000.jpg
2017-04-05 12:00,2017,4,5,12:00,10.0,8.3,89.0,14.0,14.0,12.9,101.29,,,Rain,katkam-20170405120000.jpg
2017-04-05 13:00,2017,4,5,13:00,9.8,8.9,94.0,11.0,18.0,12.9,101.31,,,"Rain,Fog",katkam-20170405130000.jpg
2017-04-05 14:00,2017,4,5,14:00,10.2,8.7,90.0,11.0,17.0,16.1,101.31,,,Rain,katkam-20170405140000.jpg
2017-04-05 16:00,2017,4,5,16:00,10.8,7.9,82.0,12.0,30.0,24.1,101.25,,,Cloudy,katkam-20170405160000.jpg
2017-04-05 19:00,2017,4,5,19:00,9.9,7.9,87.0,7.0,19.0,24.1,101.16,,,Cloudy,katkam-20170405190000.jpg
2017-04-06 07:00,2017,4,6,07:00,8.6,6.4,86.0,9.0,27.0,32.2,100.43,,,Rain,katkam-20170406070000.jpg
2017-04-06 10:00,2017,4,6,10:00,9.6,7.2,85.0,12.0,22.0,24.1,100.52,,,Rain,katkam-20170406100000.jpg
2017-04-06 11:00,2017,4,6,11:00,9.7,7.8,88.0,12.0,17.0,19.3,100.53,,,Rain,katkam-20170406110000.jpg
2017-04-06 12:00,2017,4,6,12:00,10.5,7.9,84.0,13.0,22.0,24.1,100.54,,,Rain,katkam-20170406120000.jpg
2017-04-06 13:00,2017,4,6,13:00,10.8,8.1,83.0,14.0,16.0,24.1,100.56,,,Rain,katkam-20170406130000.jpg
2017-04-06 14:00,2017,4,6,14:00,10.8,7.0,77.0,19.0,9.0,24.1,100.58,,,Rain,katkam-20170406140000.jpg
2017-04-06 16:00,2017,4,6,16:00,12.3,7.0,70.0,7.0,9.0,48.3,100.47,,,Mostly Cloudy,katkam-20170406160000.jpg
2017-04-06 19:00,2017,4,6,19:00,9.9,7.3,84.0,5.0,17.0,32.2,100.25,,,Mostly Cloudy,katkam-20170406190000.jpg
2017-04-07 06:00,2017,4,7,06:00,7.4,6.4,93.0,7.0,16.0,24.1,98.86,,,Rain,katkam-20170407060000.jpg
2017-04-07 07:00,2017,4,7,07:00,8.2,6.7,90.0,6.0,16.0,32.2,98.76,,,Mostly Cloudy,katkam-20170407070000.jpg
2017-04-07 10:00,2017,4,7,10:00,11.3,8.0,80.0,11.0,29.0,24.1,98.86,,,Rain,katkam-20170407100000.jpg
2017-04-07 13:00,2017,4,7,13:00,12.5,5.0,60.0,12.0,34.0,24.1,99.03,,,Cloudy,katkam-20170407130000.jpg
2017-04-07 16:00,2017,4,7,16:00,10.8,5.6,70.0,13.0,34.0,32.2,99.22,,,Cloudy,katkam-20170407160000.jpg
2017-04-07 19:00,2017,4,7,19:00,9.1,5.3,77.0,15.0,35.0,24.1,99.64,,,Rain,katkam-20170407190000.jpg
2017-04-08 06:00,2017,4,8,06:00,6.8,5.4,91.0,13.0,16.0,19.3,100.66,,,Rain,katkam-20170408060000.jpg
2017-04-08 07:00,2017,4,8,07:00,7.0,6.0,93.0,13.0,14.0,19.3,100.76,,,Rain,katkam-20170408070000.jpg
2017-04-08 08:00,2017,4,8,08:00,7.3,5.9,91.0,13.0,17.0,19.3,100.84,,,Rain,katkam-20170408080000.jpg
2017-04-08 09:00,2017,4,8,09:00,7.2,6.0,92.0,14.0,15.0,19.3,100.93,,,Rain,katkam-20170408090000.jpg
2017-04-08 10:00,2017,4,8,10:00,7.0,5.8,92.0,18.0,8.0,16.1,101.02,,,Rain,katkam-20170408100000.jpg
2017-04-08 11:00,2017,4,8,11:00,7.2,6.0,92.0,16.0,16.0,12.9,101.07,,,Rain,katkam-20170408110000.jpg
2017-04-08 12:00,2017,4,8,12:00,7.6,6.4,92.0,17.0,16.0,12.9,101.11,,,Rain,katkam-20170408120000.jpg
2017-04-08 13:00,2017,4,8,13:00,8.2,6.5,89.0,15.0,14.0,19.3,101.15,,,Rain,katkam-20170408130000.jpg
2017-04-08 14:00,2017,4,8,14:00,8.3,5.8,84.0,16.0,21.0,24.1,101.2,,,Rain,katkam-20170408140000.jpg
2017-04-08 15:00,2017,4,8,15:00,8.2,6.0,86.0,15.0,18.0,19.3,101.24,,,Rain,katkam-20170408150000.jpg
2017-04-08 16:00,2017,4,8,16:00,7.9,5.9,87.0,16.0,25.0,24.1,101.29,,,Rain,katkam-20170408160000.jpg
2017-04-08 17:00,2017,4,8,17:00,8.2,5.8,85.0,16.0,19.0,19.3,101.33,,,Rain,katkam-20170408170000.jpg
2017-04-08 19:00,2017,4,8,19:00,8.1,4.2,76.0,16.0,18.0,24.1,101.41,,,Cloudy,katkam-20170408190000.jpg
2017-04-09 07:00,2017,4,9,07:00,5.6,3.5,86.0,8.0,17.0,32.2,101.94,,,Mostly Cloudy,katkam-20170409070000.jpg
2017-04-09 10:00,2017,4,9,10:00,8.9,4.0,71.0,10.0,19.0,32.2,101.9,,,Mostly Cloudy,katkam-20170409100000.jpg
2017-04-09 13:00,2017,4,9,13:00,10.2,2.1,57.0,9.0,17.0,32.2,101.72,,,Cloudy,katkam-20170409130000.jpg
2017-04-09 16:00,2017,4,9,16:00,12.1,1.2,47.0,10.0,9.0,32.2,101.48,,,Cloudy,katkam-20170409160000.jpg
2017-04-09 19:00,2017,4,9,19:00,10.3,0.4,50.0,6.0,15.0,32.2,101.28,,,Cloudy,katkam-20170409190000.jpg
2017-04-10 06:00,2017,4,10,06:00,6.9,5.4,90.0,12.0,27.0,24.1,101.41,,,Rain,katkam-20170410060000.jpg
2017-04-10 07:00,2017,4,10,07:00,7.1,5.4,89.0,14.0,24.0,24.1,101.46,,,Rain,katkam-20170410070000.jpg
2017-04-10 10:00,2017,4,10,10:00,8.6,5.5,81.0,12.0,23.0,24.1,101.58,,,Rain Showers,katkam-20170410100000.jpg
2017-04-10 11:00,2017,4,10,11:00,7.3,5.5,88.0,7.0,23.0,24.1,101.6,,,Rain Showers,katkam-20170410110000.jpg
2017-04-10 13:00,2017,4,10,13:00,9.5,5.5,76.0,11.0,19.0,24.1,101.57,,,Cloudy,katkam-20170410130000.jpg
2017-04-10 16:00,2017,4,10,16:00,10.7,4.9,67.0,12.0,31.0,32.2,101.62,,,Mostly Cloudy,katkam-20170410160000.jpg
2017-04-10 18:00,2017,4,10,18:00,8.4,3.9,73.0,17.0,12.0,24.1,101.69,,,Rain Showers,katkam-20170410180000.jpg
2017-04-10 19:00,2017,4,10,19:00,6.9,4.6,85.0,13.0,17.0,19.3,101.74,,,Rain Showers,katkam-20170410190000.jpg
2017-04-11 07:00,2017,4,11,07:00,7.2,4.2,81.0,7.0,16.0,48.3,101.97,,,Mainly Clear,katkam-20170411070000.jpg
2017-04-11 10:00,2017,4,11,10:00,10.3,5.7,73.0,30.0,12.0,48.3,101.76,,,Mainly Clear,katkam-20170411100000.jpg
2017-04-11 13:00,2017,4,11,13:00,9.9,6.5,79.0,30.0,28.0,48.3,101.49,,,Cloudy,katkam-20170411130000.jpg
2017-04-11 16:00,2017,4,11,16:00,9.8,6.0,77.0,30.0,32.0,48.3,101.24,,,Cloudy,katkam-20170411160000.jpg
2017-04-11 19:00,2017,4,11,19:00,8.8,5.7,81.0,30.0,23.0,48.3,101.03,,,Cloudy,katkam-20170411190000.jpg
2017-04-12 06:00,2017,4,12,06:00,8.4,5.4,81.0,10.0,20.0,12.9,100.47,,,Rain,katkam-20170412060000.jpg
2017-04-12 07:00,2017,4,12,07:00,8.0,6.0,87.0,10.0,16.0,16.1,100.46,,,Rain,katkam-20170412070000.jpg
2017-04-12 08:00,2017,4,12,08:00,8.1,6.6,90.0,4.0,16.0,16.1,100.43,,,Rain,katkam-20170412080000.jpg
2017-04-12 09:00,2017,4,12,09:00,8.1,6.6,90.0,6.0,9.0,16.1,100.48,,,Rain,katkam-20170412090000.jpg
2017-04-12 10:00,2017,4,12,10:00,8.2,7.0,92.0,9.0,18.0,12.9,100.54,,,Rain,katkam-20170412100000.jpg
2017-04-12 11:00,2017,4,12,11:00,8.8,7.7,93.0,9.0,27.0,16.1,100.66,,,Rain,katkam-20170412110000.jpg
2017-04-12 12:00,2017,4,12,12:00,9.5,8.1,91.0,7.0,18.0,24.1,100.68,,,Rain,katkam-20170412120000.jpg
2017-04-12 13:00,2017,4,12,13:00,9.8,7.9,88.0,7.0,20.0,24.1,100.7,,,Rain,katkam-20170412130000.jpg
2017-04-12 16:00,2017,4,12,16:00,12.8,7.3,69.0,7.0,17.0,48.3,100.62,,,Cloudy,katkam-20170412160000.jpg
2017-04-12 19:00,2017,4,12,19:00,10.8,6.6,75.0,6.0,17.0,48.3,100.37,,,Mostly Cloudy,katkam-20170412190000.jpg
2017-04-13 07:00,2017,4,13,07:00,6.6,4.8,88.0,9.0,21.0,48.3,100.62,,,Cloudy,katkam-20170413070000.jpg
2017-04-13 10:00,2017,4,13,10:00,8.6,5.5,81.0,9.0,20.0,24.1,100.7,,,Cloudy,katkam-20170413100000.jpg
2017-04-13 13:00,2017,4,13,13:00,10.9,5.1,67.0,15.0,23.0,32.2,100.75,,,Cloudy,katkam-20170413130000.jpg
2017-04-13 15:00,2017,4,13,15:00,8.6,6.1,84.0,22.0,23.0,24.1,100.89,,,Rain Showers,katkam-20170413150000.jpg
2017-04-13 16:00,2017,4,13,16:00,10.5,4.5,66.0,17.0,19.0,32.2,100.95,,,Cloudy,katkam-20170413160000.jpg
2017-04-13 19:00,2017,4,13,19:00,9.2,4.4,72.0,19.0,8.0,32.2,101.13,,,Cloudy,katkam-20170413190000.jpg
2017-04-14 06:00,2017,4,14,06:00,6.1,4.9,92.0,8.0,16.0,24.1,101.69,,,Rain,katkam-20170414060000.jpg
2017-04-14 07:00,2017,4,14,07:00,7.0,5.8,92.0,10.0,13.0,24.1,101.74,,,Cloudy,katkam-20170414070000.jpg
2017-04-14 10:00,2017,4,14,10:00,9.8,4.8,71.0,18.0,14.0,32.2,101.86,,,Cloudy,katkam-20170414100000.jpg
2017-04-14 13:00,2017,4,14,13:00,11.0,4.7,65.0,16.0,19.0,48.3,101.89,,,Mostly Cloudy,katkam-20170414130000.jpg
2017-04-14 16:00,2017,4,14,16:00,12.2,5.2,62.0,17.0,18.0,48.3,101.92,,,Mainly Clear,katkam-20170414160000.jpg
2017-04-14 19:00,2017,4,14,19:00,9.1,4.9,75.0,20.0,18.0,32.2,101.99,,,Mainly Clear,katkam-20170414190000.jpg
2017-04-15 06:00,2017,4,15,06:00,7.0,5.6,91.0,10.0,9.0,24.1,102.37,,,Rain Showers,katkam-20170415060000.jpg
2017-04-15 07:00,2017,4,15,07:00,7.4,5.2,86.0,16.0,12.0,16.1,102.41,,,Rain Showers,katkam-20170415070000.jpg
2017-04-15 10:00,2017,4,15,10:00,9.3,4.1,70.0,17.0,23.0,24.1,102.48,,,Mostly Cloudy,katkam-20170415100000.jpg
2017-04-15 13:00,2017,4,15,13:00,11.1,5.2,67.0,26.0,9.0,32.2,102.42,,,Mainly Clear,katkam-20170415130000.jpg
2017-04-15 16:00,2017,4,15,16:00,12.1,4.1,58.0,25.0,12.0,32.2,102.28,,,Mainly Clear,katkam-20170415160000.jpg
2017-04-15 19:00,2017,4,15,19:00,8.7,6.0,83.0,29.0,6.0,48.3,102.22,,,Clear,katkam-20170415190000.jpg
2017-04-16 07:00,2017,4,16,07:00,6.2,3.7,84.0,16.0,4.0,48.3,101.71,,,Mostly Cloudy,katkam-20170416070000.jpg
2017-04-16 10:00,2017,4,16,10:00,9.5,5.5,76.0,28.0,11.0,48.3,101.52,,,Mostly Cloudy,katkam-20170416100000.jpg
2017-04-16 13:00,2017,4,16,13:00,10.6,6.4,75.0,30.0,23.0,48.3,101.21,,,Mostly Cloudy,katkam-20170416130000.jpg
2017-04-16 16:00,2017,4,16,16:00,11.0,4.9,66.0,31.0,30.0,48.3,100.89,,,Mostly Cloudy,katkam-20170416160000.jpg
2017-04-16 19:00,2017,4,16,19:00,10.1,5.9,75.0,30.0,18.0,48.3,100.78,,,Cloudy,katkam-20170416190000.jpg
2017-04-17 06:00,2017,4,17,06:00,9.1,7.6,90.0,32.0,8.0,24.1,100.82,,,Rain,katkam-20170417060000.jpg
2017-04-17 07:00,2017,4,17,07:00,9.1,8.0,93.0,30.0,7.0,19.3,100.91,,,Rain,katkam-20170417070000.jpg
2017-04-17 08:00,2017,4,17,08:00,9.9,7.3,84.0,6.0,12.0,19.3,100.9,,,Rain,katkam-20170417080000.jpg
2017-04-17 10:00,2017,4,17,10:00,12.0,7.4,73.0,11.0,22.0,24.1,100.97,,,Mostly Cloudy,katkam-20170417100000.jpg
2017-04-17 13:00,2017,4,17,13:00,13.6,7.2,65.0,14.0,20.0,32.2,100.96,,,Mostly Cloudy,katkam-20170417130000.jpg
2017-04-17 16:00,2017,4,17,16:00,12.8,8.7,76.0,11.0,20.0,19.3,100.9,,,Rain,katkam-20170417160000.jpg
2017-04-17 17:00,2017,4,17,17:00,11.6,9.7,88.0,9.0,17.0,16.1,100.93,,,Rain,katkam-20170417170000.jpg
2017-04-17 18:00,2017,4,17,18:00,11.0,9.1,88.0,9.0,22.0,16.1,100.91,,,Rain,katkam-20170417180000.jpg
2017-04-17 19:00,2017,4,17,19:00,10.4,9.2,92.0,9.0,16.0,16.1,100.94,,,Rain,katkam-20170417190000.jpg
2017-04-18 07:00,2017,4,18,07:00,9.9,8.4,90.0,14.0,7.0,16.1,101.1,,,Rain Showers,katkam-20170418070000.jpg
2017-04-18 08:00,2017,4,18,08:00,9.4,8.7,95.0,24.0,3.0,12.9,101.16,,,Rain Showers,katkam-20170418080000.jpg
2017-04-18 10:00,2017,4,18,10:00,12.6,9.5,81.0,14.0,20.0,24.1,101.28,,,Mostly Cloudy,katkam-20170418100000.jpg
2017-04-18 13:00,2017,4,18,13:00,12.5,9.7,83.0,22.0,15.0,24.1,101.44,,,Rain Showers,katkam-20170418130000.jpg
2017-04-18 16:00,2017,4,18,16:00,12.7,6.1,64.0,22.0,4.0,19.3,101.49,,,Rain Showers,katkam-20170418160000.jpg
2017-04-18 19:00,2017,4,18,19:00,9.4,7.0,85.0,4.0,7.0,32.2,101.58,,,Mostly Cloudy,katkam-20170418190000.jpg
2017-04-19 07:00,2017,4,19,07:00,8.9,6.0,82.0,10.0,26.0,48.3,101.48,,,Cloudy,katkam-20170419070000.jpg
2017-04-19 10:00,2017,4,19,10:00,11.6,6.2,69.0,11.0,21.0,32.2,101.56,,,Rain,katkam-20170419100000.jpg
2017-04-19 11:00,2017,4,19,11:00,11.4,6.8,73.0,14.0,15.0,32.2,101.64,,,Rain,katkam-20170419110000.jpg
2017-04-19 13:00,2017,4,19,13:00,11.9,7.5,74.0,12.0,33.0,32.2,101.7,,,Cloudy,katkam-20170419130000.jpg
2017-04-19 16:00,2017,4,19,16:00,12.6,6.9,68.0,11.0,32.0,48.3,101.66,,,Mostly Cloudy,katkam-20170419160000.jpg
2017-04-19 19:00,2017,4,19,19:00,12.0,6.3,68.0,8.0,16.0,32.2,101.56,,,Cloudy,katkam-20170419190000.jpg
2017-04-20 07:00,2017,4,20,07:00,8.5,7.0,90.0,9.0,15.0,24.1,102.02,,,Cloudy,katkam-20170420070000.jpg
2017-04-20 10:00,2017,4,20,10:00,10.3,8.1,86.0,22.0,14.0,24.1,102.2,,,Cloudy,katkam-20170420100000.jpg
2017-04-20 13:00,2017,4,20,13:00,12.2,7.7,74.0,23.0,10.0,32.2,102.32,,,Mostly Cloudy,katkam-20170420130000.jpg
2017-04-20 16:00,2017,4,20,16:00,12.2,7.3,72.0,26.0,13.0,48.3,102.45,,,Mainly Clear,katkam-20170420160000.jpg
2017-04-20 19:00,2017,4,20,19:00,10.9,6.9,76.0,36.0,1.0,48.3,102.55,,,Mainly Clear,katkam-20170420190000.jpg
2017-04-21 07:00,2017,4,21,07:00,10.1,7.5,84.0,11.0,16.0,48.3,102.96,,,Mainly Clear,katkam-20170421070000.jpg
2017-04-21 10:00,2017,4,21,10:00,10.6,7.5,81.0,22.0,16.0,48.3,102.86,,,Mostly Cloudy,katkam-20170421100000.jpg
2017-04-21 13:00,2017,4,21,13:00,12.7,8.6,76.0,25.0,16.0,48.3,102.59,,,Clear,katkam-20170421130000.jpg
2017-04-21 16:00,2017,4,21,16:00,13.6,9.1,74.0,31.0,16.0,48.3,102.23,,,Mainly Clear,katkam-20170421160000.jpg
2017-04-21 19:00,2017,4,21,19:00,10.9,8.5,85.0,33.0,13.0,48.3,101.88,,,Mainly Clear,katkam-20170421190000.jpg
2017-04-22 07:00,2017,4,22,07:00,11.1,7.1,76.0,21.0,3.0,48.3,100.82,,,Cloudy,katkam-20170422070000.jpg
2017-04-22 10:00,2017,4,22,10:00,11.4,8.6,83.0,30.0,12.0,48.3,100.7,,,Cloudy,katkam-20170422100000.jpg
2017-04-22 12:00,2017,4,22,12:00,12.4,8.9,79.0,20.0,5.0,32.2,100.92,,,Rain,katkam-20170422120000.jpg
2017-04-22 13:00,2017,4,22,13:00,11.3,8.7,84.0,10.0,20.0,16.1,101.0,,,Rain,katkam-20170422130000.jpg
2017-04-22 16:00,2017,4,22,16:00,12.0,8.5,79.0,13.0,23.0,24.1,101.04,,,Rain,katkam-20170422160000.jpg
2017-04-22 19:00,2017,4,22,19:00,11.8,8.7,81.0,15.0,18.0,24.1,101.14,,,Mostly Cloudy,katkam-20170422190000.jpg
2017-04-23 07:00,2017,4,23,07:00,9.1,8.0,93.0,9.0,20.0,24.1,101.16,,,Cloudy,katkam-20170423070000.jpg
2017-04-23 10:00,2017,4,23,10:00,10.9,7.8,81.0,10.0,21.0,32.2,101.12,,,Cloudy,katkam-20170423100000.jpg
2017-04-23 13:00,2017,4,23,13:00,12.6,7.5,71.0,9.0,25.0,32.2,100.95,,,Cloudy,katkam-20170423130000.jpg
2017-04-23 16:00,2017,4,23,16:00,10.7,7.8,82.0,14.0,22.0,19.3,100.84,,,Rain Showers,katkam-20170423160000.jpg
2017-04-23 17:00,2017,4,23,17:00,10.4,7.8,84.0,13.0,21.0,19.3,100.82,,,Rain Showers,katkam-20170423170000.jpg
2017-04-23 18:00,2017,4,23,18:00,9.8,8.4,91.0,10.0,21.0,16.1,100.78,,,Rain Showers,katkam-20170423180000.jpg
2017-04-23 19:00,2017,4,23,19:00,9.5,8.4,93.0,10.0,16.0,16.1,100.76,,,Rain Showers,katkam-20170423190000.jpg
2017-04-24 07:00,2017,4,24,07:00,8.5,6.6,88.0,10.0,10.0,32.2,100.71,,,Cloudy,katkam-20170424070000.jpg
2017-04-24 08:00,2017,4,24,08:00,9.5,7.3,86.0,11.0,13.0,24.1,100.73,,,Rain Showers,katkam-20170424080000.jpg
2017-04-24 10:00,2017,4,24,10:00,9.6,5.8,77.0,25.0,3.0,32.2,100.75,,,Cloudy,katkam-20170424100000.jpg
2017-04-24 13:00,2017,4,24,13:00,11.8,8.7,81.0,28.0,21.0,48.3,100.79,,,Mainly Clear,katkam-20170424130000.jpg
2017-04-24 16:00,2017,4,24,16:00,12.9,9.2,78.0,29.0,21.0,48.3,100.74,,,Mainly Clear,katkam-20170424160000.jpg
2017-04-24 19:00,2017,4,24,19:00,11.0,7.7,80.0,30.0,12.0,48.3,100.81,,,Mainly Clear,katkam-20170424190000.jpg
2017-04-25 07:00,2017,4,25,07:00,9.8,7.1,83.0,14.0,17.0,32.2,101.29,,,Cloudy,katkam-20170425070000.jpg
2017-04-25 10:00,2017,4,25,10:00,11.8,7.4,74.0,12.0,22.0,48.3,101.27,,,Mostly Cloudy,katkam-20170425100000.jpg
2017-04-25 13:00,2017,4,25,13:00,12.6,6.2,65.0,13.0,17.0,48.3,101.17,,,Cloudy,katkam-20170425130000.jpg
2017-04-25 16:00,2017,4,25,16:00,12.9,5.4,60.0,10.0,21.0,48.3,100.96,,,Cloudy,katkam-20170425160000.jpg
2017-04-25 19:00,2017,4,25,19:00,11.7,5.4,65.0,12.0,16.0,24.1,100.77,,,Rain,katkam-20170425190000.jpg
2017-04-26 07:00,2017,4,26,07:00,10.2,7.5,83.0,13.0,10.0,24.1,100.63,,,Mostly Cloudy,katkam-20170426070000.jpg
2017-04-26 10:00,2017,4,26,10:00,11.8,7.0,72.0,25.0,12.0,32.2,100.74,,,Mostly Cloudy,katkam-20170426100000.jpg
2017-04-26 13:00,2017,4,26,13:00,14.5,5.6,55.0,22.0,19.0,48.3,100.82,,,Mainly Clear,katkam-20170426130000.jpg
2017-04-26 16:00,2017,4,26,16:00,12.2,7.5,73.0,22.0,15.0,48.3,100.85,,,Mostly Cloudy,katkam-20170426160000.jpg
2017-04-26 19:00,2017,4,26,19:00,9.7,5.3,74.0,29.0,32.0,32.2,100.99,,,Rain Showers,katkam-20170426190000.jpg
2017-04-27 07:00,2017,4,27,07:00,9.7,5.3,74.0,26.0,28.0,48.3,101.58,,,Mostly Cloudy,katkam-20170427070000.jpg
2017-04-27 10:00,2017,4,27,10:00,11.2,6.8,74.0,25.0,24.0,48.3,101.68,,,Mostly Cloudy,katkam-20170427100000.jpg
2017-04-27 13:00,2017,4,27,13:00,12.0,4.3,59.0,22.0,20.0,48.3,101.75,,,Mainly Clear,katkam-20170427130000.jpg
2017-04-27 16:00,2017,4,27,16:00,12.0,5.0,62.0,23.0,17.0,48.3,101.81,,,Mainly Clear,katkam-20170427160000.jpg
2017-04-27 19:00,2017,4,27,19:00,10.4,5.6,72.0,26.0,15.0,48.3,101.89,,,Mainly Clear,katkam-20170427190000.jpg
2017-04-28 07:00,2017,4,28,07:00,8.9,5.8,81.0,27.0,14.0,32.2,102.59,,,Mostly Cloudy,katkam-20170428070000.jpg
2017-04-28 10:00,2017,4,28,10:00,11.2,6.4,72.0,26.0,14.0,48.3,102.71,,,Mainly Clear,katkam-20170428100000.jpg
2017-04-28 13:00,2017,4,28,13:00,11.9,7.8,76.0,25.0,11.0,48.3,102.69,,,Mainly Clear,katkam-20170428130000.jpg
2017-04-28 16:00,2017,4,28,16:00,13.7,6.8,63.0,22.0,14.0,48.3,102.62,,,Mostly Cloudy,katkam-20170428160000.jpg
2017-04-28 19:00,2017,4,28,19:00,10.9,5.7,70.0,23.0,7.0,48.3,102.58,,,Mainly Clear,katkam-20170428190000.jpg
2017-04-29 07:00,2017,4,29,07:00,8.6,4.8,77.0,10.0,19.0,32.2,102.52,,,Cloudy,katkam-20170429070000.jpg
2017-04-29 10:00,2017,4,29,10:00,9.8,6.0,77.0,10.0,19.0,24.1,102.33,,,Cloudy,katkam-20170429100000.jpg
2017-04-29 11:00,2017,4,29,11:00,9.7,6.3,79.0,11.0,20.0,19.3,102.26,,,Rain,katkam-20170429110000.jpg
2017-04-29 12:00,2017,4,29,12:00,8.5,6.6,88.0,8.0,22.0,16.1,102.14,,,Rain,katkam-20170429120000.jpg
2017-04-29 13:00,2017,4,29,13:00,9.6,7.2,85.0,8.0,16.0,19.3,102.16,,,Rain,katkam-20170429130000.jpg
2017-04-29 14:00,2017,4,29,14:00,9.8,7.2,84.0,6.0,16.0,19.3,102.06,,,Rain,katkam-20170429140000.jpg
2017-04-29 15:00,2017,4,29,15:00,9.3,6.6,83.0,6.0,15.0,24.1,101.99,,,Rain,katkam-20170429150000.jpg
2017-04-29 16:00,2017,4,29,16:00,9.1,7.1,87.0,7.0,14.0,12.9,101.97,,,Rain,katkam-20170429160000.jpg
2017-04-29 17:00,2017,4,29,17:00,8.8,7.3,90.0,5.0,13.0,12.9,101.89,,,Rain,katkam-20170429170000.jpg
2017-04-29 18:00,2017,4,29,18:00,8.4,6.9,90.0,6.0,17.0,12.9,101.83,,,Rain,katkam-20170429180000.jpg
2017-04-29 19:00,2017,4,29,19:00,8.3,6.8,90.0,6.0,19.0,19.3,101.76,,,Cloudy,katkam-20170429190000.jpg
2017-04-30 07:00,2017,4,30,07:00,9.9,5.1,72.0,26.0,22.0,32.2,102.12,,,Mainly Clear,katkam-20170430070000.jpg
2017-04-30 10:00,2017,4,30,10:00,12.1,6.4,68.0,28.0,22.0,48.3,102.32,,,Mainly Clear,katkam-20170430100000.jpg
2017-04-30 13:00,2017,4,30,13:00,12.9,7.4,69.0,25.0,17.0,48.3,102.41,,,Mainly Clear,katkam-20170430130000.jpg
2017-04-30 16:00,2017,4,30,16:00,13.6,4.5,54.0,20.0,22.0,48.3,102.45,,,Mainly Clear,katkam-20170430160000.jpg
2017-04-30 19:00,2017,4,30,19:00,11.1,6.3,72.0,21.0,12.0,48.3,102.46,,,Mainly Clear,katkam-20170430190000.jpg
2017-05-01 06:00,2017,5,1,06:00,8.4,6.2,86.0,8.0,17.0,24.1,102.39,,,Rain,katkam-20170501060000.jpg
2017-05-01 07:00,2017,5,1,07:00,8.8,6.4,85.0,9.0,21.0,24.1,102.37,,,Cloudy,katkam-20170501070000.jpg
2017-05-01 08:00,2017,5,1,08:00,9.5,6.8,83.0,11.0,16.0,24.1,102.35,,,Rain Showers,katkam-20170501080000.jpg
2017-05-01 09:00,2017,5,1,09:00,9.2,7.2,87.0,15.0,16.0,19.3,102.34,,,Rain,katkam-20170501090000.jpg
2017-05-01 10:00,2017,5,1,10:00,9.2,7.2,87.0,16.0,17.0,19.3,102.33,,,Rain,katkam-20170501100000.jpg
2017-05-01 11:00,2017,5,1,11:00,9.3,7.4,88.0,18.0,10.0,19.3,102.34,,,Rain,katkam-20170501110000.jpg
2017-05-01 12:00,2017,5,1,12:00,10.1,6.8,80.0,20.0,14.0,24.1,102.33,,,Rain,katkam-20170501120000.jpg
2017-05-01 13:00,2017,5,1,13:00,10.6,5.6,71.0,22.0,4.0,24.1,102.25,,,Mostly Cloudy,katkam-20170501130000.jpg
2017-05-01 14:00,2017,5,1,14:00,9.9,4.7,70.0,23.0,10.0,24.1,102.21,,,Rain Showers,katkam-20170501140000.jpg
2017-05-01 16:00,2017,5,1,16:00,10.2,6.0,75.0,23.0,10.0,32.2,102.15,,,Mostly Cloudy,katkam-20170501160000.jpg
2017-05-01 19:00,2017,5,1,19:00,9.1,6.2,82.0,30.0,11.0,32.2,102.16,,,Mostly Cloudy,katkam-20170501190000.jpg
2017-05-03 07:00,2017,5,3,07:00,11.7,11.1,96.0,9.0,21.0,16.1,102.1,,,Rain,katkam-20170503070000.jpg
2017-05-03 09:00,2017,5,3,09:00,12.4,11.8,96.0,9.0,17.0,16.1,102.16,,,Rain,katkam-20170503090000.jpg
2017-05-03 10:00,2017,5,3,10:00,12.7,11.9,95.0,9.0,17.0,19.3,102.18,,,Rain,katkam-20170503100000.jpg
2017-05-03 11:00,2017,5,3,11:00,13.1,12.3,95.0,9.0,17.0,19.3,102.17,,,Rain,katkam-20170503110000.jpg
2017-05-03 12:00,2017,5,3,12:00,13.3,12.5,95.0,9.0,13.0,9.7,102.18,,,"Rain,Fog",katkam-20170503120000.jpg
2017-05-03 13:00,2017,5,3,13:00,13.8,13.2,96.0,8.0,13.0,9.7,102.16,,,"Rain,Fog",katkam-20170503130000.jpg
2017-05-03 14:00,2017,5,3,14:00,14.4,13.3,93.0,7.0,13.0,19.3,102.14,,,Rain,katkam-20170503140000.jpg
2017-05-03 15:00,2017,5,3,15:00,14.8,13.7,93.0,8.0,12.0,16.1,102.08,,,Rain,katkam-20170503150000.jpg
2017-05-03 16:00,2017,5,3,16:00,14.7,13.9,95.0,8.0,11.0,16.1,102.02,,,Rain,katkam-20170503160000.jpg
2017-05-03 17:00,2017,5,3,17:00,15.2,13.9,92.0,6.0,10.0,32.2,101.96,,,Rain Showers,katkam-20170503170000.jpg
2017-05-03 19:00,2017,5,3,19:00,14.8,14.0,95.0,14.0,8.0,24.1,101.81,,,Cloudy,katkam-20170503190000.jpg
2017-05-04 07:00,2017,5,4,07:00,13.8,12.2,90.0,9.0,6.0,48.3,101.43,,,Mainly Clear,katkam-20170504070000.jpg
2017-05-04 10:00,2017,5,4,10:00,16.3,13.1,81.0,29.0,17.0,48.3,101.33,,,Mainly Clear,katkam-20170504100000.jpg
2017-05-04 13:00,2017,5,4,13:00,18.3,14.3,77.0,28.0,10.0,48.3,101.12,,,Mainly Clear,katkam-20170504130000.jpg
2017-05-04 16:00,2017,5,4,16:00,19.0,14.9,77.0,27.0,13.0,48.3,100.83,,,Mostly Cloudy,katkam-20170504160000.jpg
2017-05-04 19:00,2017,5,4,19:00,17.6,14.7,83.0,10.0,13.0,32.2,100.73,,,Rain,katkam-20170504190000.jpg
2017-05-05 07:00,2017,5,5,07:00,13.4,10.8,84.0,13.0,25.0,32.2,100.64,,,Cloudy,katkam-20170505070000.jpg
2017-05-05 08:00,2017,5,5,08:00,12.4,11.0,91.0,12.0,24.0,24.1,100.78,,,Rain Showers,katkam-20170505080000.jpg
2017-05-05 10:00,2017,5,5,10:00,13.5,11.2,86.0,13.0,23.0,24.1,100.88,,,Cloudy,katkam-20170505100000.jpg
2017-05-05 13:00,2017,5,5,13:00,15.5,5.2,50.0,19.0,16.0,32.2,101.02,,,Mostly Cloudy,katkam-20170505130000.jpg
2017-05-05 16:00,2017,5,5,16:00,14.3,9.2,71.0,10.0,16.0,32.2,101.21,,,Mostly Cloudy,katkam-20170505160000.jpg
2017-05-05 19:00,2017,5,5,19:00,11.4,5.3,66.0,25.0,16.0,32.2,101.39,,,Mostly Cloudy,katkam-20170505190000.jpg
2017-05-06 07:00,2017,5,6,07:00,9.8,5.8,76.0,29.0,19.0,48.3,101.91,,,Mostly Cloudy,katkam-20170506070000.jpg
2017-05-06 10:00,2017,5,6,10:00,12.0,5.2,63.0,28.0,17.0,48.3,101.98,,,Mainly Clear,katkam-20170506100000.jpg
2017-05-06 13:00,2017,5,6,13:00,12.6,3.6,54.0,24.0,16.0,48.3,102.01,,,Mainly Clear,katkam-20170506130000.jpg
2017-05-06 16:00,2017,5,6,16:00,12.9,4.9,58.0,23.0,18.0,48.3,101.97,,,Mainly Clear,katkam-20170506160000.jpg
2017-05-06 19:00,2017,5,6,19:00,10.8,5.6,70.0,25.0,10.0,48.3,101.95,,,Clear,katkam-20170506190000.jpg
2017-05-07 07:00,2017,5,7,07:00,9.5,4.5,71.0,2.0,7.0,48.3,102.42,,,Mainly Clear,katkam-20170507070000.jpg
2017-05-07 13:00,2017,5,7,13:00,12.1,6.0,66.0,25.0,13.0,48.3,102.35,,,Mainly Clear,katkam-20170507130000.jpg
2017-05-07 16:00,2017,5,7,16:00,12.8,5.3,60.0,23.0,10.0,48.3,102.23,,,Mostly Cloudy,katkam-20170507160000.jpg
2017-05-07 19:00,2017,5,7,19:00,11.8,6.3,69.0,18.0,6.0,48.3,102.2,,,Mostly Cloudy,katkam-20170507190000.jpg
2017-05-08 07:00,2017,5,8,07:00,10.4,5.4,71.0,8.0,8.0,48.3,102.31,,,Cloudy,katkam-20170508070000.jpg
2017-05-08 10:00,2017,5,8,10:00,12.8,6.4,65.0,24.0,4.0,48.3,102.28,,,Cloudy,katkam-20170508100000.jpg
2017-05-08 13:00,2017,5,8,13:00,12.4,7.7,73.0,25.0,11.0,48.3,102.22,,,Cloudy,katkam-20170508130000.jpg
2017-05-08 16:00,2017,5,8,16:00,13.8,7.6,66.0,30.0,17.0,48.3,102.12,,,Mostly Cloudy,katkam-20170508160000.jpg
2017-05-08 19:00,2017,5,8,19:00,11.8,9.0,83.0,28.0,15.0,32.2,102.05,,,Mostly Cloudy,katkam-20170508190000.jpg
2017-05-09 07:00,2017,5,9,07:00,10.9,7.2,78.0,22.0,6.0,48.3,101.95,,,Mainly Clear,katkam-20170509070000.jpg
2017-05-09 10:00,2017,5,9,10:00,14.4,9.5,72.0,27.0,7.0,48.3,101.81,,,Cloudy,katkam-20170509100000.jpg
2017-05-09 13:00,2017,5,9,13:00,14.9,9.7,71.0,28.0,10.0,48.3,101.68,,,Cloudy,katkam-20170509130000.jpg
2017-05-09 16:00,2017,5,9,16:00,14.5,10.6,77.0,28.0,12.0,48.3,101.56,,,Cloudy,katkam-20170509160000.jpg
2017-05-09 19:00,2017,5,9,19:00,12.7,9.9,83.0,29.0,3.0,48.3,101.42,,,Cloudy,katkam-20170509190000.jpg
2017-05-10 07:00,2017,5,10,07:00,12.9,7.2,68.0,11.0,8.0,48.3,101.26,,,Cloudy,katkam-20170510070000.jpg
2017-05-10 10:00,2017,5,10,10:00,13.7,11.8,88.0,26.0,15.0,48.3,101.22,,,Cloudy,katkam-20170510100000.jpg
2017-05-10 13:00,2017,5,10,13:00,17.0,10.9,67.0,25.0,5.0,48.3,101.13,,,Cloudy,katkam-20170510130000.jpg
2017-05-10 16:00,2017,5,10,16:00,15.2,9.6,69.0,27.0,6.0,48.3,101.03,,,Cloudy,katkam-20170510160000.jpg
2017-05-10 17:00,2017,5,10,17:00,13.9,9.8,76.0,22.0,9.0,32.2,101.01,,,Rain,katkam-20170510170000.jpg
2017-05-10 19:00,2017,5,10,19:00,13.8,10.1,78.0,10.0,9.0,24.1,100.98,,,Cloudy,katkam-20170510190000.jpg
2017-05-11 06:00,2017,5,11,06:00,12.5,11.6,94.0,6.0,15.0,16.1,100.95,,,Rain,katkam-20170511060000.jpg
2017-05-11 07:00,2017,5,11,07:00,13.0,12.1,94.0,8.0,12.0,24.1,100.9,,,Rain,katkam-20170511070000.jpg
2017-05-11 08:00,2017,5,11,08:00,13.1,12.2,94.0,10.0,16.0,24.1,100.86,,,Rain,katkam-20170511080000.jpg
2017-05-11 09:00,2017,5,11,09:00,13.5,12.2,92.0,14.0,14.0,24.1,100.87,,,Rain,katkam-20170511090000.jpg
2017-05-11 10:00,2017,5,11,10:00,13.6,12.5,93.0,15.0,16.0,12.9,100.9,,,Rain,katkam-20170511100000.jpg
2017-05-11 11:00,2017,5,11,11:00,12.4,11.5,94.0,14.0,22.0,4.8,100.92,,,"Moderate Rain,Fog",katkam-20170511110000.jpg
2017-05-11 12:00,2017,5,11,12:00,12.2,9.8,85.0,13.0,9.0,19.3,100.98,,,Rain,katkam-20170511120000.jpg
2017-05-11 13:00,2017,5,11,13:00,12.6,10.2,85.0,4.0,8.0,24.1,101.13,,,Rain,katkam-20170511130000.jpg
2017-05-11 14:00,2017,5,11,14:00,12.3,10.1,86.0,5.0,18.0,24.1,101.21,,,Rain,katkam-20170511140000.jpg
2017-05-11 16:00,2017,5,11,16:00,12.6,10.0,84.0,13.0,27.0,24.1,101.33,,,Mostly Cloudy,katkam-20170511160000.jpg
2017-05-11 19:00,2017,5,11,19:00,10.4,8.2,86.0,13.0,22.0,24.1,101.38,,,Rain,katkam-20170511190000.jpg
2017-05-11 20:00,2017,5,11,20:00,9.5,8.6,94.0,10.0,14.0,19.3,101.32,,,Rain,katkam-20170511200000.jpg
2017-05-12 06:00,2017,5,12,06:00,7.5,6.6,94.0,6.0,5.0,12.9,101.38,,,Rain Showers,katkam-20170512060000.jpg
2017-05-12 07:00,2017,5,12,07:00,8.5,7.1,91.0,7.0,7.0,24.1,101.39,,,Rain Showers,katkam-20170512070000.jpg
2017-05-12 10:00,2017,5,12,10:00,12.1,6.0,66.0,12.0,17.0,24.1,101.4,,,Mostly Cloudy,katkam-20170512100000.jpg
2017-05-12 13:00,2017,5,12,13:00,13.2,7.5,68.0,28.0,11.0,32.2,101.37,,,Mostly Cloudy,katkam-20170512130000.jpg
2017-05-12 16:00,2017,5,12,16:00,11.2,5.8,69.0,26.0,10.0,32.2,101.38,,,Mostly Cloudy,katkam-20170512160000.jpg
2017-05-12 19:00,2017,5,12,19:00,10.0,5.0,71.0,9.0,26.0,32.2,101.4,,,Mostly Cloudy,katkam-20170512190000.jpg
2017-05-13 07:00,2017,5,13,07:00,8.6,6.2,85.0,10.0,8.0,32.2,101.36,,,Mostly Cloudy,katkam-20170513070000.jpg
2017-05-13 09:00,2017,5,13,09:00,9.4,6.5,82.0,13.0,7.0,24.1,101.42,,,Rain Showers,katkam-20170513090000.jpg
2017-05-13 10:00,2017,5,13,10:00,10.2,7.3,82.0,10.0,9.0,24.1,101.41,,,Mostly Cloudy,katkam-20170513100000.jpg
2017-05-13 13:00,2017,5,13,13:00,12.9,7.2,68.0,21.0,15.0,32.2,101.35,,,Mostly Cloudy,katkam-20170513130000.jpg
2017-05-13 16:00,2017,5,13,16:00,13.3,5.5,59.0,20.0,13.0,32.2,101.29,,,Mostly Cloudy,katkam-20170513160000.jpg
2017-05-13 19:00,2017,5,13,19:00,11.0,6.4,73.0,18.0,5.0,32.2,101.33,,,Cloudy,katkam-20170513190000.jpg
2017-05-14 07:00,2017,5,14,07:00,10.2,7.5,83.0,10.0,14.0,24.1,101.52,,,Cloudy,katkam-20170514070000.jpg
2017-05-14 09:00,2017,5,14,09:00,8.8,6.8,87.0,8.0,14.0,19.3,101.55,,,Moderate Rain Showers,katkam-20170514090000.jpg
2017-05-14 10:00,2017,5,14,10:00,10.1,7.2,82.0,35.0,13.0,24.1,101.55,,,Cloudy,katkam-20170514100000.jpg
2017-05-14 13:00,2017,5,14,13:00,11.8,7.4,74.0,27.0,9.0,32.2,101.49,,,Mostly Cloudy,katkam-20170514130000.jpg
2017-05-14 16:00,2017,5,14,16:00,11.6,7.2,74.0,26.0,18.0,48.3,101.41,,,Mostly Cloudy,katkam-20170514160000.jpg
2017-05-14 19:00,2017,5,14,19:00,11.1,6.5,73.0,22.0,8.0,48.3,101.42,,,Mainly Clear,katkam-20170514190000.jpg
2017-05-15 07:00,2017,5,15,07:00,9.3,6.8,84.0,10.0,17.0,24.1,101.37,,,Rain,katkam-20170515070000.jpg
2017-05-15 09:00,2017,5,15,09:00,9.7,6.1,78.0,14.0,14.0,24.1,101.35,,,Rain,katkam-20170515090000.jpg
2017-05-15 10:00,2017,5,15,10:00,9.2,7.3,88.0,14.0,18.0,19.3,101.35,,,Rain,katkam-20170515100000.jpg
2017-05-15 11:00,2017,5,15,11:00,10.1,7.2,82.0,14.0,6.0,24.1,101.32,,,Rain,katkam-20170515110000.jpg
2017-05-15 12:00,2017,5,15,12:00,10.6,6.0,73.0,17.0,15.0,24.1,101.29,,,Rain,katkam-20170515120000.jpg
2017-05-15 13:00,2017,5,15,13:00,10.6,7.3,80.0,13.0,14.0,24.1,101.24,,,Rain,katkam-20170515130000.jpg
2017-05-15 14:00,2017,5,15,14:00,10.2,6.8,79.0,11.0,11.0,24.1,101.18,,,Rain,katkam-20170515140000.jpg
2017-05-15 15:00,2017,5,15,15:00,9.6,7.4,86.0,12.0,17.0,24.1,101.13,,,Rain,katkam-20170515150000.jpg
2017-05-15 16:00,2017,5,15,16:00,8.9,7.0,88.0,12.0,14.0,19.3,101.09,,,Rain,katkam-20170515160000.jpg
2017-05-15 17:00,2017,5,15,17:00,8.7,7.8,94.0,13.0,15.0,8.1,101.0,,,"Rain,Fog",katkam-20170515170000.jpg
2017-05-15 18:00,2017,5,15,18:00,8.6,7.7,94.0,13.0,16.0,8.1,100.91,,,"Rain,Fog",katkam-20170515180000.jpg
2017-05-15 19:00,2017,5,15,19:00,8.5,7.4,93.0,12.0,26.0,8.1,100.81,,,"Rain,Fog",katkam-20170515190000.jpg
2017-05-15 20:00,2017,5,15,20:00,8.3,7.6,95.0,10.0,21.0,8.1,100.69,,,"Rain,Fog",katkam-20170515200000.jpg
2017-05-16 07:00,2017,5,16,07:00,7.5,6.1,91.0,8.0,13.0,24.1,100.1,,,Cloudy,katkam-20170516070000.jpg
2017-05-16 10:00,2017,5,16,10:00,9.5,5.7,77.0,7.0,5.0,24.1,100.34,,,Cloudy,katkam-20170516100000.jpg
2017-05-16 13:00,2017,5,16,13:00,11.0,7.2,77.0,28.0,20.0,32.2,100.51,,,Mostly Cloudy,katkam-20170516130000.jpg
2017-05-16 16:00,2017,5,16,16:00,11.8,6.1,68.0,26.0,11.0,32.2,100.62,,,Mostly Cloudy,katkam-20170516160000.jpg
2017-05-16 19:00,2017,5,16,19:00,11.0,6.2,72.0,15.0,16.0,32.2,100.82,,,Mostly Cloudy,katkam-20170516190000.jpg
2017-05-17 07:00,2017,5,17,07:00,10.2,6.9,80.0,11.0,14.0,32.2,101.79,,,Cloudy,katkam-20170517070000.jpg
2017-05-17 10:00,2017,5,17,10:00,12.1,8.0,76.0,11.0,20.0,32.2,101.97,,,Cloudy,katkam-20170517100000.jpg
2017-05-17 13:00,2017,5,17,13:00,13.8,8.3,69.0,14.0,13.0,48.3,102.03,,,Cloudy,katkam-20170517130000.jpg
2017-05-17 16:00,2017,5,17,16:00,14.4,8.8,69.0,21.0,17.0,48.3,102.06,,,Cloudy,katkam-20170517160000.jpg
2017-05-17 19:00,2017,5,17,19:00,13.3,8.4,72.0,15.0,9.0,32.2,102.06,,,Cloudy,katkam-20170517190000.jpg
2017-05-18 07:00,2017,5,18,07:00,12.4,9.1,80.0,10.0,13.0,48.3,102.15,,,Cloudy,katkam-20170518070000.jpg
2017-05-18 10:00,2017,5,18,10:00,13.8,8.9,72.0,22.0,13.0,48.3,102.18,,,Cloudy,katkam-20170518100000.jpg
2017-05-18 13:00,2017,5,18,13:00,15.3,9.5,68.0,23.0,13.0,48.3,102.11,,,Cloudy,katkam-20170518130000.jpg
2017-05-18 16:00,2017,5,18,16:00,15.2,8.7,65.0,24.0,8.0,48.3,102.02,,,Cloudy,katkam-20170518160000.jpg
2017-05-18 19:00,2017,5,18,19:00,14.4,9.3,71.0,30.0,6.0,32.2,101.91,,,Mainly Clear,katkam-20170518190000.jpg
2017-05-19 07:00,2017,5,19,07:00,13.0,8.9,76.0,14.0,5.0,48.3,102.05,,,Cloudy,katkam-20170519070000.jpg
2017-05-19 10:00,2017,5,19,10:00,14.2,9.7,74.0,25.0,13.0,48.3,102.06,,,Cloudy,katkam-20170519100000.jpg
2017-05-19 13:00,2017,5,19,13:00,16.1,8.7,61.0,26.0,9.0,48.3,102.0,,,Cloudy,katkam-20170519130000.jpg
2017-05-19 16:00,2017,5,19,16:00,15.6,10.8,73.0,28.0,12.0,48.3,101.92,,,Cloudy,katkam-20170519160000.jpg
2017-05-19 19:00,2017,5,19,19:00,14.4,11.0,80.0,30.0,10.0,32.2,101.87,,,Mostly Cloudy,katkam-20170519190000.jpg
2017-05-20 07:00,2017,5,20,07:00,13.5,9.8,78.0,19.0,4.0,48.3,102.14,,,Mainly Clear,katkam-20170520070000.jpg
2017-05-20 10:00,2017,5,20,10:00,16.2,10.8,70.0,29.0,16.0,48.3,102.22,,,Mainly Clear,katkam-20170520100000.jpg
2017-05-20 13:00,2017,5,20,13:00,17.3,12.1,71.0,28.0,16.0,48.3,102.21,,,Clear,katkam-20170520130000.jpg
2017-05-20 16:00,2017,5,20,16:00,18.2,12.1,67.0,28.0,16.0,48.3,102.12,,,Clear,katkam-20170520160000.jpg
2017-05-20 19:00,2017,5,20,19:00,16.4,12.0,75.0,29.0,9.0,48.3,102.04,,,Mainly Clear,katkam-20170520190000.jpg
2017-05-21 07:00,2017,5,21,07:00,15.6,11.6,77.0,30.0,6.0,48.3,102.45,,,Mostly Cloudy,katkam-20170521070000.jpg
2017-05-21 10:00,2017,5,21,10:00,17.4,12.6,73.0,28.0,11.0,48.3,102.45,,,Cloudy,katkam-20170521100000.jpg
2017-05-21 13:00,2017,5,21,13:00,18.8,12.6,67.0,29.0,17.0,48.3,102.36,,,Cloudy,katkam-20170521130000.jpg
2017-05-21 16:00,2017,5,21,16:00,17.9,13.3,74.0,29.0,21.0,48.3,102.23,,,Cloudy,katkam-20170521160000.jpg
2017-05-21 19:00,2017,5,21,19:00,17.2,13.0,76.0,30.0,17.0,48.3,102.1,,,Mainly Clear,katkam-20170521190000.jpg
2017-05-22 07:00,2017,5,22,07:00,16.8,10.5,66.0,36.0,3.0,48.3,102.2,,,Cloudy,katkam-20170522070000.jpg
2017-05-22 10:00,2017,5,22,10:00,18.2,11.1,63.0,23.0,11.0,48.3,102.16,,,Mostly Cloudy,katkam-20170522100000.jpg
2017-05-22 13:00,2017,5,22,13:00,20.1,13.6,66.0,29.0,17.0,48.3,102.05,,,Mainly Clear,katkam-20170522130000.jpg
2017-05-22 16:00,2017,5,22,16:00,20.6,13.7,64.0,28.0,10.0,48.3,101.81,,,Mainly Clear,katkam-20170522160000.jpg
2017-05-22 19:00,2017,5,22,19:00,17.5,13.3,76.0,24.0,10.0,48.3,101.69,,,Mainly Clear,katkam-20170522190000.jpg
2017-05-23 07:00,2017,5,23,07:00,17.3,11.6,69.0,9.0,8.0,48.3,101.56,,,Clear,katkam-20170523070000.jpg
2017-05-23 10:00,2017,5,23,10:00,18.4,12.0,66.0,26.0,15.0,48.3,101.45,,,Clear,katkam-20170523100000.jpg
2017-05-23 13:00,2017,5,23,13:00,21.5,14.3,63.0,11.0,18.0,48.3,101.25,25.0,,Clear,katkam-20170523130000.jpg
2017-05-23 16:00,2017,5,23,16:00,20.1,10.9,55.0,23.0,40.0,48.3,101.15,,,Mainly Clear,katkam-20170523160000.jpg
2017-05-23 19:00,2017,5,23,19:00,15.3,8.6,64.0,29.0,41.0,48.3,101.19,,,Mainly Clear,katkam-20170523190000.jpg
2017-05-24 07:00,2017,5,24,07:00,11.6,6.4,70.0,29.0,34.0,48.3,101.47,,,Mainly Clear,katkam-20170524070000.jpg
2017-05-24 10:00,2017,5,24,10:00,13.8,9.1,73.0,29.0,30.0,48.3,101.49,,,Mostly Cloudy,katkam-20170524100000.jpg
2017-05-24 13:00,2017,5,24,13:00,14.9,8.7,66.0,28.0,23.0,48.3,101.38,,,Mainly Clear,katkam-20170524130000.jpg
2017-05-24 16:00,2017,5,24,16:00,15.3,8.4,63.0,30.0,18.0,48.3,101.37,,,Mainly Clear,katkam-20170524160000.jpg
2017-05-24 19:00,2017,5,24,19:00,13.5,9.6,77.0,27.0,5.0,48.3,101.3,,,Mainly Clear,katkam-20170524190000.jpg
2017-05-25 07:00,2017,5,25,07:00,12.6,10.2,85.0,30.0,12.0,48.3,101.31,,,Mostly Cloudy,katkam-20170525070000.jpg
2017-05-25 10:00,2017,5,25,10:00,14.3,9.6,73.0,27.0,15.0,48.3,101.25,,,Clear,katkam-20170525100000.jpg
2017-05-25 13:00,2017,5,25,13:00,17.2,11.3,68.0,29.0,14.0,48.3,101.16,,,Clear,katkam-20170525130000.jpg
2017-05-25 16:00,2017,5,25,16:00,17.1,11.7,70.0,29.0,22.0,48.3,100.98,,,Clear,katkam-20170525160000.jpg
2017-05-25 19:00,2017,5,25,19:00,16.1,12.1,77.0,29.0,13.0,48.3,100.93,,,Clear,katkam-20170525190000.jpg
2017-05-26 07:00,2017,5,26,07:00,14.5,11.3,81.0,21.0,7.0,48.3,101.44,,,Clear,katkam-20170526070000.jpg
2017-05-26 10:00,2017,5,26,10:00,16.9,11.7,71.0,26.0,10.0,48.3,101.48,,,Clear,katkam-20170526100000.jpg
2017-05-26 13:00,2017,5,26,13:00,19.1,14.0,72.0,24.0,13.0,48.3,101.43,,,Clear,katkam-20170526130000.jpg
2017-05-26 16:00,2017,5,26,16:00,20.1,12.0,59.0,26.0,8.0,48.3,101.4,,,Mainly Clear,katkam-20170526160000.jpg
2017-05-26 19:00,2017,5,26,19:00,17.2,12.8,75.0,25.0,5.0,48.3,101.4,,,Mainly Clear,katkam-20170526190000.jpg
2017-05-27 07:00,2017,5,27,07:00,17.4,10.8,65.0,18.0,4.0,48.3,101.86,,,Mainly Clear,katkam-20170527070000.jpg
2017-05-27 10:00,2017,5,27,10:00,18.6,10.3,58.0,24.0,9.0,48.3,101.91,,,Mainly Clear,katkam-20170527100000.jpg
2017-05-27 13:00,2017,5,27,13:00,21.4,10.1,48.0,28.0,9.0,48.3,101.89,,,Mainly Clear,katkam-20170527130000.jpg
2017-05-27 16:00,2017,5,27,16:00,21.7,10.1,47.0,25.0,9.0,48.3,101.77,,,Mainly Clear,katkam-20170527160000.jpg
2017-05-27 19:00,2017,5,27,19:00,19.6,13.8,69.0,32.0,6.0,48.3,101.68,,,Clear,katkam-20170527190000.jpg
2017-05-28 07:00,2017,5,28,07:00,17.2,13.8,80.0,17.0,5.0,48.3,101.91,,,Clear,katkam-20170528070000.jpg
2017-05-28 10:00,2017,5,28,10:00,21.2,12.7,58.0,29.0,8.0,48.3,101.92,,,Mainly Clear,katkam-20170528100000.jpg
2017-05-28 13:00,2017,5,28,13:00,21.3,12.0,55.0,23.0,12.0,48.3,101.85,,,Mainly Clear,katkam-20170528130000.jpg
2017-05-28 16:00,2017,5,28,16:00,23.4,13.7,54.0,26.0,12.0,48.3,101.71,27.0,,Mainly Clear,katkam-20170528160000.jpg
2017-05-28 19:00,2017,5,28,19:00,19.6,14.1,70.0,30.0,8.0,48.3,101.6,,,Mainly Clear,katkam-20170528190000.jpg
2017-05-29 07:00,2017,5,29,07:00,15.7,11.9,78.0,16.0,12.0,32.2,101.74,,,Mainly Clear,katkam-20170529070000.jpg
2017-05-29 10:00,2017,5,29,10:00,17.2,14.0,81.0,21.0,15.0,48.3,101.63,,,Mainly Clear,katkam-20170529100000.jpg
2017-05-29 13:00,2017,5,29,13:00,20.3,11.9,58.0,24.0,12.0,48.3,101.45,,,Mainly Clear,katkam-20170529130000.jpg
2017-05-29 16:00,2017,5,29,16:00,22.9,12.7,52.0,25.0,7.0,48.3,101.19,26.0,,Mostly Cloudy,katkam-20170529160000.jpg
2017-05-29 19:00,2017,5,29,19:00,19.8,13.6,67.0,20.0,7.0,48.3,101.03,,,Mostly Cloudy,katkam-20170529190000.jpg
2017-05-30 07:00,2017,5,30,07:00,12.6,11.0,90.0,9.0,25.0,19.3,101.2,,,Rain Showers,katkam-20170530070000.jpg
2017-05-30 08:00,2017,5,30,08:00,12.8,10.5,86.0,10.0,18.0,19.3,101.24,,,Rain Showers,katkam-20170530080000.jpg
2017-05-30 09:00,2017,5,30,09:00,12.8,10.7,87.0,13.0,16.0,24.1,101.39,,,Rain Showers,katkam-20170530090000.jpg
2017-05-30 10:00,2017,5,30,10:00,12.2,10.6,90.0,5.0,22.0,16.1,101.32,,,Rain Showers,katkam-20170530100000.jpg
2017-05-30 11:00,2017,5,30,11:00,13.1,10.8,86.0,15.0,27.0,19.3,101.49,,,Rain Showers,katkam-20170530110000.jpg
2017-05-30 13:00,2017,5,30,13:00,12.7,10.6,87.0,13.0,21.0,16.1,101.55,,,Rain Showers,katkam-20170530130000.jpg
2017-05-30 14:00,2017,5,30,14:00,12.4,11.0,91.0,11.0,26.0,16.1,101.47,,,Rain Showers,katkam-20170530140000.jpg
2017-05-30 15:00,2017,5,30,15:00,12.2,11.1,93.0,9.0,29.0,16.1,101.4,,,Rain Showers,katkam-20170530150000.jpg
2017-05-30 16:00,2017,5,30,16:00,12.3,11.4,94.0,15.0,17.0,19.3,101.51,,,Rain Showers,katkam-20170530160000.jpg
2017-05-30 19:00,2017,5,30,19:00,12.6,10.7,88.0,10.0,18.0,24.1,101.38,,,Cloudy,katkam-20170530190000.jpg
2017-05-31 07:00,2017,5,31,07:00,12.4,9.8,84.0,12.0,16.0,24.1,101.25,,,Mostly Cloudy,katkam-20170531070000.jpg
2017-05-31 10:00,2017,5,31,10:00,15.0,11.1,77.0,13.0,18.0,32.2,101.22,,,Cloudy,katkam-20170531100000.jpg
2017-05-31 13:00,2017,5,31,13:00,17.6,10.8,64.0,12.0,18.0,32.2,101.13,,,Mostly Cloudy,katkam-20170531130000.jpg
2017-05-31 15:00,2017,5,31,15:00,16.0,12.8,81.0,20.0,19.0,32.2,101.05,,,Rain,katkam-20170531150000.jpg
2017-05-31 16:00,2017,5,31,16:00,15.0,11.6,80.0,21.0,18.0,32.2,101.05,,,Cloudy,katkam-20170531160000.jpg
2017-05-31 17:00,2017,5,31,17:00,14.6,11.6,82.0,36.0,2.0,24.1,101.04,,,Rain,katkam-20170531170000.jpg
2017-05-31 18:00,2017,5,31,18:00,14.3,12.4,88.0,1.0,7.0,24.1,100.99,,,Rain,katkam-20170531180000.jpg
2017-05-31 19:00,2017,5,31,19:00,14.7,12.8,88.0,16.0,7.0,24.1,100.95,,,Rain Showers,katkam-20170531190000.jpg
2017-05-31 20:00,2017,5,31,20:00,13.8,12.9,94.0,29.0,8.0,24.1,100.96,,,Rain Showers,katkam-20170531200000.jpg
2017-05-31 21:00,2017,5,31,21:00,13.4,12.6,95.0,30.0,5.0,19.3,100.99,,,Rain Showers,katkam-20170531210000.jpg
2017-06-01 07:00,2017,6,1,07:00,13.7,12.3,91.0,11.0,9.0,24.1,101.1,,,Rain,katkam-20170601070000.jpg
2017-06-01 08:00,2017,6,1,08:00,14.2,12.1,87.0,11.0,7.0,24.1,101.12,,,Rain Showers,katkam-20170601080000.jpg
2017-06-01 10:00,2017,6,1,10:00,14.2,11.5,84.0,25.0,9.0,24.1,101.15,,,Cloudy,katkam-20170601100000.jpg
2017-06-01 13:00,2017,6,1,13:00,17.5,11.8,69.0,16.0,11.0,48.3,101.22,,,Cloudy,katkam-20170601130000.jpg
2017-06-01 16:00,2017,6,1,16:00,17.6,9.6,59.0,20.0,14.0,48.3,101.3,,,Cloudy,katkam-20170601160000.jpg
2017-06-01 19:00,2017,6,1,19:00,15.3,9.9,70.0,20.0,14.0,32.2,101.38,,,Mostly Cloudy,katkam-20170601190000.jpg
2017-06-02 07:00,2017,6,2,07:00,13.3,10.3,82.0,16.0,12.0,24.1,101.75,,,Rain Showers,katkam-20170602070000.jpg
2017-06-02 08:00,2017,6,2,08:00,13.7,11.5,86.0,10.0,10.0,24.1,101.81,,,Rain Showers,katkam-20170602080000.jpg
2017-06-02 09:00,2017,6,2,09:00,14.3,11.0,80.0,17.0,17.0,24.1,101.85,,,Rain Showers,katkam-20170602090000.jpg
2017-06-02 10:00,2017,6,2,10:00,15.5,11.3,76.0,10.0,8.0,24.1,101.88,,,Cloudy,katkam-20170602100000.jpg
2017-06-02 13:00,2017,6,2,13:00,17.3,11.2,67.0,30.0,7.0,48.3,101.91,,,Mostly Cloudy,katkam-20170602130000.jpg
2017-06-02 16:00,2017,6,2,16:00,18.1,12.1,68.0,26.0,16.0,48.3,101.75,,,Cloudy,katkam-20170602160000.jpg
2017-06-02 19:00,2017,6,2,19:00,16.1,9.9,66.0,20.0,5.0,32.2,101.55,,,Mostly Cloudy,katkam-20170602190000.jpg
2017-06-03 07:00,2017,6,3,07:00,14.2,11.0,81.0,20.0,10.0,32.2,101.63,,,Mostly Cloudy,katkam-20170603070000.jpg
2017-06-03 10:00,2017,6,3,10:00,15.2,8.6,65.0,25.0,10.0,32.2,101.77,,,Mostly Cloudy,katkam-20170603100000.jpg
2017-06-03 13:00,2017,6,3,13:00,15.2,8.4,63.0,21.0,7.0,32.2,101.81,,,Mostly Cloudy,katkam-20170603130000.jpg
2017-06-03 16:00,2017,6,3,16:00,17.0,9.9,63.0,21.0,21.0,48.3,101.67,,,Mainly Clear,katkam-20170603160000.jpg
2017-06-03 19:00,2017,6,3,19:00,15.0,8.3,64.0,19.0,7.0,48.3,101.59,,,Mainly Clear,katkam-20170603190000.jpg
2017-06-04 07:00,2017,6,4,07:00,12.2,8.5,78.0,11.0,14.0,32.2,101.76,,,Mostly Cloudy,katkam-20170604070000.jpg
2017-06-04 10:00,2017,6,4,10:00,15.9,11.7,76.0,21.0,16.0,32.2,101.82,,,Mostly Cloudy,katkam-20170604100000.jpg
2017-06-04 13:00,2017,6,4,13:00,16.0,10.0,67.0,22.0,18.0,32.2,101.87,,,Mainly Clear,katkam-20170604130000.jpg
2017-06-04 16:00,2017,6,4,16:00,17.5,7.2,51.0,21.0,13.0,48.3,101.9,,,Mainly Clear,katkam-20170604160000.jpg
2017-06-04 19:00,2017,6,4,19:00,16.0,6.8,54.0,22.0,9.0,48.3,101.97,,,Mainly Clear,katkam-20170604190000.jpg
2017-06-05 07:00,2017,6,5,07:00,12.7,6.2,65.0,9.0,9.0,48.3,102.25,,,Mainly Clear,katkam-20170605070000.jpg
2017-06-05 10:00,2017,6,5,10:00,15.5,7.7,60.0,24.0,9.0,48.3,102.18,,,Mainly Clear,katkam-20170605100000.jpg
2017-06-05 13:00,2017,6,5,13:00,16.1,10.0,67.0,24.0,12.0,48.3,102.04,,,Mainly Clear,katkam-20170605130000.jpg
2017-06-05 16:00,2017,6,5,16:00,18.1,7.8,51.0,29.0,11.0,48.3,101.86,,,Mostly Cloudy,katkam-20170605160000.jpg
2017-06-05 19:00,2017,6,5,19:00,16.4,9.5,63.0,27.0,7.0,48.3,101.75,,,Mostly Cloudy,katkam-20170605190000.jpg
2017-06-06 07:00,2017,6,6,07:00,16.1,10.4,68.0,20.0,3.0,48.3,101.57,,,Mainly Clear,katkam-20170606070000.jpg
2017-06-06 10:00,2017,6,6,10:00,19.0,12.4,65.0,28.0,14.0,48.3,101.47,,,Cloudy,katkam-20170606100000.jpg
2017-06-06 13:00,2017,6,6,13:00,21.0,11.0,52.0,28.0,14.0,48.3,101.31,,,Mostly Cloudy,katkam-20170606130000.jpg
2017-06-06 16:00,2017,6,6,16:00,22.4,10.0,45.0,29.0,11.0,48.3,101.14,,,Mainly Clear,katkam-20170606160000.jpg
2017-06-06 19:00,2017,6,6,19:00,18.7,7.5,48.0,21.0,14.0,48.3,101.03,,,Mostly Cloudy,katkam-20170606190000.jpg
2017-06-07 07:00,2017,6,7,07:00,18.0,10.7,62.0,11.0,10.0,48.3,100.93,,,Mainly Clear,katkam-20170607070000.jpg
2017-06-07 10:00,2017,6,7,10:00,20.6,13.2,62.0,21.0,13.0,48.3,100.79,,,Mostly Cloudy,katkam-20170607100000.jpg
2017-06-07 13:00,2017,6,7,13:00,20.3,10.4,53.0,23.0,13.0,48.3,100.53,,,Cloudy,katkam-20170607130000.jpg
2017-06-07 16:00,2017,6,7,16:00,20.7,11.6,55.0,23.0,6.0,48.3,100.35,,,Cloudy,katkam-20170607160000.jpg
2017-06-07 19:00,2017,6,7,19:00,20.1,10.6,54.0,12.0,10.0,32.2,100.32,,,Cloudy,katkam-20170607190000.jpg
2017-06-08 06:00,2017,6,8,06:00,12.6,11.8,95.0,17.0,8.0,16.1,100.19,,,Rain,katkam-20170608060000.jpg
2017-06-08 07:00,2017,6,8,07:00,12.9,12.4,97.0,16.0,6.0,8.1,100.2,,,"Rain,Fog",katkam-20170608070000.jpg
2017-06-08 08:00,2017,6,8,08:00,13.0,12.3,96.0,14.0,12.0,9.7,100.23,,,"Moderate Rain,Fog",katkam-20170608080000.jpg
2017-06-08 09:00,2017,6,8,09:00,12.9,12.3,96.0,14.0,13.0,9.7,100.28,,,Moderate Rain,katkam-20170608090000.jpg
2017-06-08 10:00,2017,6,8,10:00,13.7,12.9,95.0,11.0,15.0,19.3,100.34,,,Moderate Rain,katkam-20170608100000.jpg
2017-06-08 11:00,2017,6,8,11:00,14.0,13.2,95.0,14.0,14.0,19.3,100.41,,,Rain,katkam-20170608110000.jpg
2017-06-08 12:00,2017,6,8,12:00,14.3,13.4,94.0,15.0,18.0,12.9,100.49,,,Rain,katkam-20170608120000.jpg
2017-06-08 13:00,2017,6,8,13:00,14.4,13.4,94.0,15.0,21.0,19.3,100.59,,,Rain,katkam-20170608130000.jpg
2017-06-08 14:00,2017,6,8,14:00,14.5,12.5,88.0,17.0,14.0,19.3,100.69,,,Rain,katkam-20170608140000.jpg
2017-06-08 16:00,2017,6,8,16:00,15.2,9.9,71.0,23.0,23.0,32.2,100.92,,,Cloudy,katkam-20170608160000.jpg
2017-06-08 19:00,2017,6,8,19:00,13.6,7.8,68.0,21.0,20.0,32.2,101.14,,,Mostly Cloudy,katkam-20170608190000.jpg
2017-06-09 07:00,2017,6,9,07:00,12.7,9.8,82.0,9.0,13.0,32.2,101.19,,,Mainly Clear,katkam-20170609070000.jpg
2017-06-09 10:00,2017,6,9,10:00,14.5,8.3,66.0,11.0,19.0,48.3,101.19,,,Mostly Cloudy,katkam-20170609100000.jpg
2017-06-09 13:00,2017,6,9,13:00,16.7,8.2,57.0,14.0,7.0,48.3,101.04,,,Mainly Clear,katkam-20170609130000.jpg
2017-06-09 16:00,2017,6,9,16:00,16.2,7.7,57.0,27.0,13.0,48.3,100.9,,,Mainly Clear,katkam-20170609160000.jpg
2017-06-09 19:00,2017,6,9,19:00,15.3,7.7,60.0,29.0,4.0,48.3,100.86,,,Mainly Clear,katkam-20170609190000.jpg
2017-06-10 07:00,2017,6,10,07:00,12.5,9.3,81.0,12.0,14.0,32.2,101.0,,,Mostly Cloudy,katkam-20170610070000.jpg
2017-06-10 10:00,2017,6,10,10:00,14.6,9.4,71.0,13.0,8.0,32.2,101.04,,,Mostly Cloudy,katkam-20170610100000.jpg
2017-06-10 13:00,2017,6,10,13:00,15.7,11.3,75.0,24.0,11.0,32.2,101.04,,,Mostly Cloudy,katkam-20170610130000.jpg
2017-06-10 16:00,2017,6,10,16:00,17.1,8.1,55.0,22.0,12.0,32.2,101.01,,,Mostly Cloudy,katkam-20170610160000.jpg
2017-06-10 19:00,2017,6,10,19:00,16.7,9.7,63.0,19.0,11.0,32.2,101.08,,,Mostly Cloudy,katkam-20170610190000.jpg
2017-06-11 07:00,2017,6,11,07:00,14.0,10.7,80.0,11.0,11.0,32.2,101.59,,,Mainly Clear,katkam-20170611070000.jpg
2017-06-11 10:00,2017,6,11,10:00,16.1,10.5,69.0,29.0,13.0,32.2,101.65,,,Mainly Clear,katkam-20170611100000.jpg
2017-06-11 13:00,2017,6,11,13:00,17.0,11.9,71.0,23.0,15.0,48.3,101.64,,,Mainly Clear,katkam-20170611130000.jpg
2017-06-11 16:00,2017,6,11,16:00,18.3,11.0,62.0,24.0,11.0,48.3,101.54,,,Mainly Clear,katkam-20170611160000.jpg
2017-06-11 19:00,2017,6,11,19:00,17.2,11.0,66.0,31.0,7.0,32.2,101.47,,,Mainly Clear,katkam-20170611190000.jpg
2017-06-12 07:00,2017,6,12,07:00,14.7,11.5,81.0,29.0,22.0,32.2,101.42,,,Cloudy,katkam-20170612070000.jpg
2017-06-12 10:00,2017,6,12,10:00,16.2,11.3,73.0,26.0,16.0,48.3,101.45,,,Mostly Cloudy,katkam-20170612100000.jpg
2017-06-12 13:00,2017,6,12,13:00,17.3,11.3,68.0,23.0,7.0,48.3,101.45,,,Mainly Clear,katkam-20170612130000.jpg
2017-06-12 16:00,2017,6,12,16:00,19.4,10.1,54.0,14.0,21.0,48.3,101.43,,,Mostly Cloudy,katkam-20170612160000.jpg
2017-06-12 19:00,2017,6,12,19:00,15.8,10.2,69.0,11.0,18.0,32.2,101.44,,,Mostly Cloudy,katkam-20170612190000.jpg
2017-06-13 07:00,2017,6,13,07:00,11.9,8.0,77.0,10.0,22.0,48.3,101.81,,,Cloudy,katkam-20170613070000.jpg
2017-06-13 08:00,2017,6,13,08:00,11.3,9.4,88.0,11.0,25.0,24.1,101.83,,,Drizzle,katkam-20170613080000.jpg
2017-06-13 10:00,2017,6,13,10:00,11.8,10.0,89.0,8.0,17.0,24.1,101.83,,,Cloudy,katkam-20170613100000.jpg
2017-06-13 13:00,2017,6,13,13:00,14.2,8.7,69.0,13.0,9.0,32.2,101.83,,,Cloudy,katkam-20170613130000.jpg
2017-06-13 16:00,2017,6,13,16:00,16.1,8.7,61.0,11.0,3.0,48.3,101.76,,,Cloudy,katkam-20170613160000.jpg
2017-06-13 19:00,2017,6,13,19:00,15.2,7.8,61.0,10.0,15.0,32.2,101.7,,,Mostly Cloudy,katkam-20170613190000.jpg
2017-06-14 07:00,2017,6,14,07:00,11.9,8.0,77.0,15.0,14.0,48.3,101.83,,,Cloudy,katkam-20170614070000.jpg
2017-06-14 08:00,2017,6,14,08:00,12.0,8.4,78.0,12.0,19.0,32.2,101.85,,,Rain Showers,katkam-20170614080000.jpg
2017-06-14 10:00,2017,6,14,10:00,13.4,7.1,65.0,11.0,18.0,48.3,101.87,,,Cloudy,katkam-20170614100000.jpg
2017-06-14 13:00,2017,6,14,13:00,15.0,6.8,58.0,12.0,11.0,48.3,101.86,,,Cloudy,katkam-20170614130000.jpg
2017-06-14 16:00,2017,6,14,16:00,15.9,7.2,56.0,16.0,9.0,48.3,101.84,,,Cloudy,katkam-20170614160000.jpg
2017-06-14 19:00,2017,6,14,19:00,14.9,7.8,62.0,0.0,1.0,32.2,101.74,,,Cloudy,katkam-20170614190000.jpg
2017-06-15 06:00,2017,6,15,06:00,11.5,9.4,87.0,8.0,25.0,19.3,101.18,,,Rain,katkam-20170615060000.jpg
2017-06-15 07:00,2017,6,15,07:00,11.9,9.8,87.0,8.0,21.0,24.1,101.11,,,Rain,katkam-20170615070000.jpg
2017-06-15 08:00,2017,6,15,08:00,12.4,10.3,87.0,8.0,24.0,24.1,101.02,,,Rain,katkam-20170615080000.jpg
2017-06-15 09:00,2017,6,15,09:00,13.5,10.4,81.0,8.0,22.0,24.1,100.92,,,Rain,katkam-20170615090000.jpg
2017-06-15 10:00,2017,6,15,10:00,13.2,10.2,82.0,9.0,27.0,24.1,100.9,,,Rain,katkam-20170615100000.jpg
2017-06-15 11:00,2017,6,15,11:00,13.3,10.6,83.0,9.0,28.0,24.1,100.86,,,Rain,katkam-20170615110000.jpg
2017-06-15 12:00,2017,6,15,12:00,13.1,11.3,89.0,9.0,24.0,16.1,100.84,,,Rain,katkam-20170615120000.jpg
2017-06-15 13:00,2017,6,15,13:00,13.6,12.0,90.0,9.0,27.0,12.9,100.77,,,Rain,katkam-20170615130000.jpg
2017-06-15 14:00,2017,6,15,14:00,13.3,12.2,93.0,8.0,24.0,11.3,100.77,,,"Moderate Rain,Drizzle",katkam-20170615140000.jpg
2017-06-15 15:00,2017,6,15,15:00,13.5,12.5,93.0,9.0,23.0,12.9,100.77,,,"Rain,Drizzle",katkam-20170615150000.jpg
2017-06-15 16:00,2017,6,15,16:00,14.0,13.3,96.0,11.0,26.0,8.1,100.76,,,"Rain,Fog",katkam-20170615160000.jpg
2017-06-15 17:00,2017,6,15,17:00,14.5,13.5,93.0,11.0,22.0,24.1,100.76,,,Rain,katkam-20170615170000.jpg
2017-06-15 19:00,2017,6,15,19:00,14.4,13.6,95.0,14.0,23.0,24.1,100.81,,,Cloudy,katkam-20170615190000.jpg
2017-06-16 07:00,2017,6,16,07:00,14.4,10.8,79.0,9.0,9.0,48.3,101.45,,,Mostly Cloudy,katkam-20170616070000.jpg
2017-06-16 10:00,2017,6,16,10:00,17.0,11.2,68.0,14.0,10.0,48.3,101.54,,,Mostly Cloudy,katkam-20170616100000.jpg
2017-06-16 13:00,2017,6,16,13:00,19.0,11.2,60.0,21.0,20.0,48.3,101.65,,,Mostly Cloudy,katkam-20170616130000.jpg
2017-06-16 16:00,2017,6,16,16:00,20.1,10.7,55.0,21.0,14.0,48.3,101.63,,,Mostly Cloudy,katkam-20170616160000.jpg
2017-06-16 19:00,2017,6,16,19:00,16.9,12.0,73.0,31.0,11.0,32.2,101.66,,,Mainly Clear,katkam-20170616190000.jpg
2017-06-17 07:00,2017,6,17,07:00,12.8,7.9,72.0,11.0,16.0,32.2,102.13,,,Mostly Cloudy,katkam-20170617070000.jpg
2017-06-17 10:00,2017,6,17,10:00,15.2,7.8,61.0,14.0,15.0,32.2,102.1,,,Cloudy,katkam-20170617100000.jpg
2017-06-17 13:00,2017,6,17,13:00,15.8,8.9,63.0,18.0,15.0,32.2,102.09,,,Cloudy,katkam-20170617130000.jpg
2017-06-17 16:00,2017,6,17,16:00,15.6,7.3,58.0,17.0,10.0,32.2,102.04,,,Cloudy,katkam-20170617160000.jpg
2017-06-17 18:00,2017,6,17,18:00,13.7,10.2,79.0,20.0,7.0,32.2,102.0,,,Rain,katkam-20170617180000.jpg
2017-06-17 19:00,2017,6,17,19:00,13.7,10.3,80.0,12.0,4.0,32.2,102.0,,,Rain,katkam-20170617190000.jpg
2017-06-18 07:00,2017,6,18,07:00,12.0,11.2,95.0,10.0,13.0,4.8,102.08,,,"Rain,Fog",katkam-20170618070000.jpg
2017-06-18 08:00,2017,6,18,08:00,12.2,11.5,95.0,10.0,10.0,6.4,102.11,,,"Rain,Fog",katkam-20170618080000.jpg
2017-06-18 09:00,2017,6,18,09:00,12.6,11.9,96.0,10.0,12.0,4.8,102.15,,,"Rain,Fog",katkam-20170618090000.jpg
2017-06-18 10:00,2017,6,18,10:00,13.0,12.3,95.0,9.0,11.0,6.4,102.16,,,"Drizzle,Fog",katkam-20170618100000.jpg
2017-06-18 11:00,2017,6,18,11:00,13.6,12.7,95.0,9.0,13.0,6.4,102.16,,,"Drizzle,Fog",katkam-20170618110000.jpg
2017-06-18 13:00,2017,6,18,13:00,13.8,13.0,94.0,8.0,14.0,4.8,102.21,,,"Rain,Fog",katkam-20170618130000.jpg
2017-06-18 16:00,2017,6,18,16:00,15.3,13.0,86.0,8.0,12.0,16.1,102.2,,,Cloudy,katkam-20170618160000.jpg
2017-06-18 19:00,2017,6,18,19:00,15.6,13.8,89.0,11.0,5.0,24.1,102.12,,,Cloudy,katkam-20170618190000.jpg
2017-06-19 07:00,2017,6,19,07:00,14.5,13.2,92.0,33.0,5.0,48.3,101.78,,,Cloudy,katkam-20170619070000.jpg
2017-06-19 10:00,2017,6,19,10:00,15.3,13.7,90.0,29.0,14.0,48.3,101.74,,,Cloudy,katkam-20170619100000.jpg
2017-06-19 12:00,2017,6,19,12:00,15.9,14.8,93.0,31.0,16.0,48.3,101.69,,,Rain,katkam-20170619120000.jpg
2017-06-19 13:00,2017,6,19,13:00,17.2,14.6,85.0,29.0,15.0,48.3,101.56,,,Mostly Cloudy,katkam-20170619130000.jpg
2017-06-19 16:00,2017,6,19,16:00,18.2,14.3,78.0,31.0,11.0,48.3,101.56,,,Cloudy,katkam-20170619160000.jpg
2017-06-19 19:00,2017,6,19,19:00,16.0,14.4,90.0,27.0,14.0,48.3,101.53,,,Mostly Cloudy,katkam-20170619190000.jpg
2017-06-20 07:00,2017,6,20,07:00,16.3,14.3,88.0,11.0,12.0,48.3,101.69,,,Cloudy,katkam-20170620070000.jpg
2017-06-20 10:00,2017,6,20,10:00,18.3,14.6,79.0,10.0,6.0,24.1,101.75,,,Cloudy,katkam-20170620100000.jpg
2017-06-20 13:00,2017,6,20,13:00,18.1,14.9,81.0,28.0,22.0,48.3,101.9,,,Mostly Cloudy,katkam-20170620130000.jpg
2017-06-20 16:00,2017,6,20,16:00,19.0,13.6,71.0,28.0,21.0,48.3,101.93,,,Mainly Clear,katkam-20170620160000.jpg
2017-06-20 19:00,2017,6,20,19:00,17.1,11.6,69.0,26.0,27.0,48.3,101.94,,,Mainly Clear,katkam-20170620190000.jpg
